{"type":"FeatureCollection","features":[{"type":"Feature","properties":{"id":"kw-maritime-contiguous-zone-24nm","name_en":"Kuwaiti 24 NM","name_ar":null,"feature_class":"contiguous_zone","source":"Marine Regions (VLIZ), Contiguous Zones (24 NM) (v4, world, 2023)","license":"CC BY 4.0","area_km2":2054},"geometry":{"type":"Polygon","coordinates":[[[48.9012,29.37148],[48.89915,29.3409],[48.8941,29.30877],[48.88696,29.27996],[48.90037,29.25899],[48.91102,29.23986],[48.92047,29.2204],[48.93035,29.19632],[48.95865,29.18649],[48.98568,29.17522],[49.01606,29.16014],[49.04099,29.14563],[49.06862,29.12692],[49.09094,29.10945],[49.11191,29.09073],[49.13143,29.07084],[49.14942,29.04987],[49.16581,29.02791],[49.1828,29.00117],[49.19548,28.97739],[49.20637,28.95289],[49.21562,28.92727],[49.22277,28.90198],[49.22824,28.87518],[49.22945,28.86719],[49.00382,28.7962],[49.00505,28.82124],[49.0025,28.84739],[48.99683,28.87077],[48.98741,28.89505],[48.97427,28.91861],[48.96071,28.93695],[48.94157,28.95708],[48.92343,28.97205],[48.89938,28.9876],[48.87771,28.99835],[48.85013,29.00841],[48.82617,29.01431],[48.79666,29.01831],[48.77179,29.01903],[48.74204,29.01674],[48.71357,29.01133],[48.71865,29.02791],[48.72157,29.04158],[48.72358,29.0574],[48.72415,29.07615],[48.72336,29.08926],[48.7208,29.10662],[48.71652,29.12372],[48.71056,29.14042],[48.70324,29.15608],[48.69586,29.16905],[48.68546,29.18415],[48.67369,29.19829],[48.66056,29.21146],[48.64617,29.22358],[48.63062,29.23456],[48.61417,29.24422],[48.6301,29.2619],[48.64568,29.28432],[48.65778,29.30832],[48.66569,29.33148],[48.67081,29.3568],[48.67218,29.38302],[48.66962,29.40916],[48.66453,29.43058],[48.6568,29.45138],[48.64878,29.46742],[48.63918,29.48277],[48.6251,29.50085],[48.6156,29.51101],[48.60178,29.52367],[48.58675,29.53523],[48.57193,29.54481],[48.55704,29.55815],[48.54624,29.56649],[48.53875,29.57464],[48.55692,29.60142],[48.56646,29.58422],[48.58883,29.57682],[48.64454,29.55598],[48.67585,29.54243],[48.70734,29.52678],[48.7378,29.50973],[48.86103,29.43609],[48.90026,29.40648],[48.9012,29.37148]]]}}],"metadata":{"derived_from":"vector/maritime/kuwait_contiguous_zone_24nm.geojson","simplification":"Douglas-Peucker, 50 m tolerance in LAEA(29.3N,47.7E), topology preserved; 5-decimal coordinates; measured max deviation from source 47.8 m","dropped_features":[],"note":"A web view of the full-resolution file named in derived_from. Measure from that file, not this one."}}