{"type":"FeatureCollection","features":[{"type":"Feature","properties":{"id":"kw-maritime-eez","name_en":"Kuwaiti Exclusive Economic Zone","name_ar":null,"feature_class":"exclusive_economic_zone","source":"Marine Regions (VLIZ), Exclusive Economic Zones (200 NM) (v12, world, 2023)","license":"CC BY 4.0","area_km2":10775},"geometry":{"type":"MultiPolygon","coordinates":[[[[47.9544,30.00886],[47.95532,30.00851],[47.95759,30.00516],[47.9544,30.00886]]],[[[48.18444,30.01444],[48.20733,29.99417],[48.22815,29.98468],[48.24296,29.97603],[48.25492,29.96505],[48.27507,29.95495],[48.33791,29.90703],[48.41412,29.85268],[48.4008,29.84064],[48.41353,29.82861],[48.42637,29.81256],[48.43203,29.80356],[48.44174,29.78526],[48.45599,29.76435],[48.48297,29.72001],[48.5136,29.67357],[48.53213,29.6439],[48.56646,29.58422],[48.58883,29.57682],[48.64454,29.55598],[48.66539,29.54718],[48.69682,29.53223],[48.7378,29.50973],[48.86103,29.43609],[48.88546,29.41803],[48.92125,29.38996],[48.95745,29.35968],[48.994,29.32726],[49.02529,29.3234],[49.06721,29.31691],[49.10941,29.30886],[49.15191,29.29926],[49.19469,29.28811],[49.23777,29.27541],[49.28114,29.26116],[49.3214,29.24663],[49.35162,29.21038],[49.38242,29.17069],[49.40611,29.13804],[49.43454,29.09611],[49.46166,29.05295],[49.48244,29.01755],[49.50238,28.98135],[49.52611,28.935],[49.445,28.935],[48.68833,28.69694],[48.66389,28.66556],[48.58944,28.63889],[48.43306,28.53402],[48.43139,28.53402],[48.42971,28.53535],[48.42406,28.5422],[48.42231,28.54741],[48.41854,28.55],[48.41725,28.55503],[48.41286,28.55887],[48.40209,28.57267],[48.4008,28.57576],[48.40178,28.58087],[48.39889,28.58468],[48.39851,28.595],[48.38876,28.6064],[48.38901,28.60881],[48.38988,28.60608],[48.39129,28.60526],[48.3908,28.61566],[48.38726,28.61619],[48.38638,28.61882],[48.38842,28.6345],[48.39169,28.63416],[48.39219,28.63027],[48.39407,28.63444],[48.39109,28.64696],[48.39309,28.65729],[48.39179,28.6578],[48.39205,28.66315],[48.39371,28.66361],[48.38775,28.67573],[48.3817,28.68458],[48.38416,28.68175],[48.3894,28.68146],[48.3835,28.68272],[48.37942,28.6878],[48.38295,28.68725],[48.38673,28.68545],[48.38698,28.68429],[48.39045,28.68406],[48.39127,28.68436],[48.3887,28.68444],[48.39007,28.68643],[48.38964,28.68842],[48.38607,28.6915],[48.38463,28.69189],[48.37979,28.69112],[48.3787,28.6958],[48.37953,28.70054],[48.38184,28.70351],[48.38604,28.70184],[48.38841,28.70385],[48.38672,28.70582],[48.38132,28.70707],[48.38254,28.71034],[48.38259,28.71641],[48.3904,28.73322],[48.39172,28.73313],[48.39483,28.74099],[48.39692,28.74212],[48.39677,28.74406],[48.39423,28.74456],[48.38727,28.7425],[48.37834,28.74166],[48.3636,28.74166],[48.34681,28.74641],[48.3403,28.74911],[48.31843,28.76147],[48.3086,28.76759],[48.29883,28.77591],[48.28585,28.79537],[48.27987,28.81014],[48.28136,28.82812],[48.2804,28.85355],[48.2815,28.8589],[48.28501,28.8609],[48.28493,28.86386],[48.28629,28.86491],[48.28434,28.8669],[48.28658,28.87429],[48.28954,28.87756],[48.28936,28.88017],[48.28306,28.88385],[48.27452,28.88387],[48.26184,28.88581],[48.24393,28.89241],[48.23509,28.89778],[48.23239,28.90038],[48.23141,28.90217],[48.23291,28.90298],[48.23199,28.90447],[48.22268,28.90912],[48.21186,28.91781],[48.20607,28.93688],[48.19809,28.94738],[48.18567,28.95586],[48.18445,28.95737],[48.18399,28.95827],[48.18595,28.9605],[48.18296,28.9602],[48.18096,28.96476],[48.17906,28.96615],[48.17429,28.97672],[48.17472,28.98045],[48.17256,28.98165],[48.16949,28.98792],[48.16406,29.00279],[48.16406,29.00725],[48.16048,29.01432],[48.16192,29.01658],[48.15957,29.02052],[48.15865,29.02861],[48.1613,29.02955],[48.16458,29.03679],[48.1737,29.04051],[48.1756,29.03755],[48.17644,29.03799],[48.17278,29.04434],[48.17185,29.04362],[48.17279,29.04159],[48.16553,29.03799],[48.16657,29.04112],[48.16545,29.04147],[48.16042,29.03054],[48.15764,29.03023],[48.15749,29.03663],[48.15875,29.03734],[48.16217,29.03664],[48.16086,29.03855],[48.16291,29.03797],[48.1634,29.03886],[48.16143,29.03997],[48.15948,29.03937],[48.15974,29.04152],[48.15641,29.04232],[48.15503,29.04718],[48.15657,29.04827],[48.16104,29.04831],[48.16406,29.04409],[48.16639,29.0457],[48.1638,29.04739],[48.16241,29.05075],[48.1531,29.05125],[48.15243,29.05769],[48.15508,29.05992],[48.15331,29.06265],[48.16113,29.06522],[48.16334,29.06278],[48.16367,29.06358],[48.15916,29.07308],[48.16147,29.06687],[48.15305,29.06369],[48.15151,29.06422],[48.1497,29.0726],[48.14808,29.07465],[48.1446,29.07411],[48.1463,29.07734],[48.14262,29.08073],[48.14163,29.08464],[48.13933,29.08641],[48.14225,29.09253],[48.14119,29.0936],[48.13789,29.09309],[48.13944,29.09598],[48.13792,29.10134],[48.13937,29.10288],[48.13977,29.10591],[48.13826,29.10857],[48.14006,29.11171],[48.13731,29.11613],[48.13795,29.1179],[48.137,29.1192],[48.13879,29.12077],[48.15221,29.12447],[48.14927,29.13],[48.15073,29.12502],[48.1382,29.12126],[48.13575,29.12207],[48.13643,29.12563],[48.13352,29.13118],[48.13372,29.1378],[48.13156,29.14666],[48.13156,29.14923],[48.1338,29.15061],[48.1278,29.15135],[48.12674,29.15674],[48.12756,29.15815],[48.12472,29.15956],[48.12464,29.16023],[48.12524,29.16424],[48.13105,29.16564],[48.13111,29.16689],[48.12856,29.16853],[48.12825,29.17067],[48.12519,29.16983],[48.12522,29.17112],[48.12892,29.17199],[48.12931,29.17362],[48.12808,29.17458],[48.12621,29.17291],[48.12557,29.17317],[48.12422,29.17792],[48.12269,29.17668],[48.12126,29.17734],[48.12131,29.17969],[48.11779,29.18695],[48.11771,29.19079],[48.11476,29.19212],[48.11481,29.19656],[48.10933,29.20885],[48.10574,29.22048],[48.10411,29.22116],[48.10239,29.2248],[48.10334,29.23344],[48.10148,29.23478],[48.09623,29.24765],[48.09097,29.26435],[48.09205,29.26856],[48.08867,29.27384],[48.08808,29.27908],[48.0896,29.28312],[48.08954,29.28619],[48.08836,29.28723],[48.08855,29.30009],[48.09055,29.30077],[48.08904,29.30372],[48.0901,29.31104],[48.09174,29.3129],[48.09106,29.31829],[48.09381,29.32045],[48.09157,29.32185],[48.09529,29.32511],[48.09452,29.32634],[48.09199,29.32659],[48.09334,29.32736],[48.09256,29.33055],[48.09458,29.33329],[48.09598,29.3411],[48.0997,29.34311],[48.09856,29.34584],[48.10176,29.34683],[48.10175,29.35062],[48.098,29.35288],[48.08951,29.35108],[48.08593,29.34826],[48.0702,29.34311],[48.06852,29.34436],[48.06896,29.34576],[48.06656,29.34384],[48.06328,29.34527],[48.06184,29.34346],[48.06588,29.34196],[48.0581,29.34062],[48.05665,29.34117],[48.05633,29.34273],[48.052,29.34467],[48.04629,29.34507],[48.04264,29.34624],[48.0418,29.34666],[48.04183,29.34796],[48.03699,29.3488],[48.03679,29.34988],[48.03313,29.35083],[48.02903,29.35456],[48.02518,29.36189],[48.02547,29.36304],[48.02908,29.36352],[48.02902,29.36676],[48.02725,29.367],[48.02433,29.36499],[48.02177,29.36719],[48.01026,29.37125],[48.00655,29.37424],[48.00656,29.37655],[48.00894,29.37909],[48.00465,29.37928],[48.00339,29.38632],[48.00599,29.39106],[48.00572,29.39273],[48.00442,29.39317],[48.00389,29.39193],[48.00192,29.39153],[47.99538,29.39304],[47.99435,29.39188],[47.9881,29.39063],[47.97902,29.39228],[47.97847,29.39214],[47.9796,29.39025],[47.97714,29.38712],[47.9779,29.38484],[47.97537,29.38505],[47.97308,29.38215],[47.97042,29.38266],[47.96809,29.37834],[47.96563,29.37744],[47.9604,29.36845],[47.96082,29.36672],[47.95636,29.36335],[47.95621,29.36179],[47.95215,29.36023],[47.94897,29.35727],[47.9413,29.35547],[47.9414,29.35473],[47.93868,29.35459],[47.92972,29.34877],[47.92479,29.34687],[47.92084,29.34853],[47.92056,29.35136],[47.92556,29.35394],[47.93056,29.35294],[47.93104,29.3543],[47.92916,29.35467],[47.9291,29.35646],[47.9299,29.35831],[47.93213,29.35766],[47.93242,29.35839],[47.92425,29.36225],[47.91539,29.3577],[47.90894,29.35753],[47.90687,29.35929],[47.90057,29.35547],[47.90072,29.35435],[47.91444,29.34547],[47.91367,29.34457],[47.90983,29.34429],[47.90945,29.34217],[47.89379,29.33136],[47.89197,29.32903],[47.8883,29.32761],[47.88047,29.32681],[47.87461,29.32385],[47.86544,29.32318],[47.86124,29.31978],[47.84852,29.32006],[47.83279,29.32417],[47.82925,29.32613],[47.82876,29.32816],[47.82512,29.33111],[47.82649,29.35218],[47.82119,29.36274],[47.82538,29.36397],[47.83185,29.37157],[47.8444,29.37882],[47.84699,29.38156],[47.85152,29.38082],[47.84934,29.38443],[47.84959,29.38609],[47.84113,29.38836],[47.8409,29.38628],[47.83991,29.38617],[47.83415,29.39393],[47.83522,29.39132],[47.83369,29.39002],[47.83758,29.38798],[47.83738,29.38486],[47.83422,29.38369],[47.83218,29.38515],[47.83244,29.3821],[47.82622,29.38081],[47.82598,29.3798],[47.82025,29.37856],[47.81956,29.3773],[47.8125,29.375],[47.80386,29.37088],[47.79986,29.37331],[47.79526,29.37059],[47.79323,29.37236],[47.79329,29.3782],[47.7827,29.37638],[47.78115,29.3722],[47.7781,29.37213],[47.77194,29.3698],[47.76335,29.37112],[47.76235,29.37304],[47.75365,29.37636],[47.75183,29.37472],[47.7483,29.37472],[47.74113,29.37012],[47.73573,29.36864],[47.73061,29.36479],[47.7271,29.36437],[47.72318,29.36111],[47.72045,29.35999],[47.71505,29.35996],[47.7082,29.36181],[47.70454,29.36566],[47.70456,29.36928],[47.70244,29.37491],[47.7031,29.3773],[47.7142,29.37922],[47.71518,29.39469],[47.72049,29.39869],[47.72393,29.39937],[47.73036,29.40369],[47.73525,29.4051],[47.74003,29.40455],[47.74311,29.4015],[47.74144,29.39796],[47.74342,29.39664],[47.74443,29.39398],[47.74508,29.39528],[47.74956,29.39651],[47.75731,29.41213],[47.76611,29.41668],[47.77188,29.42621],[47.78139,29.43403],[47.79812,29.45689],[47.80133,29.45955],[47.80256,29.46382],[47.80554,29.46485],[47.81365,29.4714],[47.82009,29.47438],[47.83636,29.48821],[47.83822,29.48833],[47.85058,29.49773],[47.85168,29.49973],[47.86382,29.50813],[47.90228,29.53139],[47.95191,29.55689],[47.98526,29.56812],[47.99102,29.57136],[48.00131,29.57043],[48.0156,29.57279],[48.03228,29.57279],[48.0655,29.56662],[48.1019,29.55686],[48.11293,29.55222],[48.12543,29.54441],[48.1283,29.5444],[48.12854,29.5428],[48.13802,29.53719],[48.13947,29.53525],[48.15134,29.52993],[48.15201,29.52755],[48.15736,29.52404],[48.15953,29.52164],[48.16296,29.5169],[48.16406,29.51367],[48.16711,29.51137],[48.16983,29.5116],[48.17422,29.51902],[48.17546,29.52338],[48.18136,29.52827],[48.18047,29.52931],[48.18138,29.53125],[48.18132,29.53414],[48.19172,29.54671],[48.17834,29.56656],[48.18667,29.57102],[48.18965,29.57127],[48.18796,29.57303],[48.17598,29.56794],[48.17494,29.56881],[48.18565,29.57437],[48.18439,29.57641],[48.18295,29.57603],[48.18342,29.57451],[48.17597,29.57074],[48.17404,29.57333],[48.17402,29.57544],[48.16623,29.58519],[48.15768,29.59924],[48.15373,29.60975],[48.15194,29.61961],[48.14911,29.62187],[48.14802,29.62678],[48.13972,29.63797],[48.13067,29.65765],[48.12356,29.6659],[48.11844,29.67653],[48.1154,29.68678],[48.10935,29.69471],[48.10493,29.70801],[48.10465,29.71759],[48.10678,29.72935],[48.1062,29.73198],[48.0949,29.74299],[48.09249,29.74346],[48.09164,29.74196],[48.08642,29.74493],[48.08541,29.74469],[48.08483,29.7422],[48.0838,29.74235],[48.08287,29.74481],[48.08032,29.74554],[48.07722,29.75323],[48.07488,29.75581],[48.06275,29.75945],[48.0558,29.76465],[48.0522,29.77422],[48.0481,29.7798],[48.04042,29.79925],[48.03014,29.81681],[48.02274,29.83251],[48.01471,29.85515],[48.0121,29.8663],[48.01178,29.88281],[48.01636,29.90211],[48.0217,29.91447],[48.02112,29.92592],[48.02212,29.93395],[48.02598,29.9455],[48.01057,29.95552],[48.00862,29.95826],[48.00795,29.96608],[48.01175,29.97621],[48.01364,29.98584],[48.0133,29.98835],[48.01025,29.98936],[48.00447,29.9893],[47.97596,29.99562],[47.99058,29.99362],[47.99772,29.99193],[48.0094,29.99085],[48.01169,29.98991],[48.01484,29.99375],[48.01463,29.99648],[48.01757,29.99665],[48.02242,29.99949],[48.03733,30.014],[48.04417,30.01917],[48.06149,30.02598],[48.07612,30.02931],[48.08896,30.03015],[48.09825,30.02992],[48.10865,30.02844],[48.14641,30.02577],[48.15483,30.02458],[48.16438,30.02211],[48.18444,30.01444]],[[48.01404,29.97614],[48.00989,29.96661],[48.00992,29.95943],[48.01269,29.95618],[48.02286,29.94971],[48.02844,29.94963],[48.04276,29.95828],[48.06668,29.96907],[48.07703,29.97624],[48.08951,29.98291],[48.13196,29.99966],[48.16186,30.00607],[48.16306,30.00681],[48.15718,30.01327],[48.14907,30.01794],[48.10485,30.02369],[48.08599,30.02455],[48.07057,30.02369],[48.05475,30.01863],[48.04846,30.01577],[48.04264,30.012],[48.03002,29.99978],[48.01844,29.99162],[48.01641,29.98915],[48.01404,29.97614]],[[48.10539,29.96276],[48.1071,29.96065],[48.10892,29.95989],[48.11655,29.95995],[48.1199,29.95803],[48.1218,29.95321],[48.11933,29.94802],[48.12521,29.94473],[48.13179,29.93696],[48.1341,29.93589],[48.14135,29.93635],[48.14773,29.93242],[48.14858,29.92681],[48.14193,29.91364],[48.14342,29.90742],[48.14332,29.90061],[48.13836,29.895],[48.14195,29.89614],[48.1432,29.89325],[48.14581,29.89031],[48.14748,29.89021],[48.14637,29.89285],[48.15137,29.89283],[48.15484,29.8913],[48.15998,29.89547],[48.16406,29.89593],[48.17225,29.89866],[48.17946,29.89719],[48.18372,29.90029],[48.18315,29.90639],[48.17796,29.9109],[48.17708,29.91296],[48.17901,29.91337],[48.17594,29.91529],[48.18008,29.91526],[48.17831,29.91756],[48.17732,29.92262],[48.17873,29.92211],[48.17998,29.91931],[48.18003,29.92437],[48.18196,29.92437],[48.18409,29.91967],[48.18555,29.91927],[48.18685,29.92379],[48.18512,29.92784],[48.18592,29.93152],[48.18499,29.93261],[48.18691,29.93199],[48.18776,29.93403],[48.1889,29.93037],[48.19087,29.92966],[48.19231,29.9229],[48.19426,29.92148],[48.19588,29.92303],[48.19629,29.91866],[48.19803,29.92237],[48.19914,29.92058],[48.20293,29.92118],[48.2004,29.91635],[48.20791,29.91728],[48.20856,29.91637],[48.20515,29.91556],[48.20332,29.91216],[48.20154,29.91281],[48.19843,29.911],[48.19593,29.90467],[48.19437,29.90415],[48.19072,29.89821],[48.18828,29.89706],[48.1897,29.89438],[48.176,29.89092],[48.17668,29.8883],[48.1814,29.886],[48.18164,29.88465],[48.17917,29.88341],[48.17707,29.88571],[48.17402,29.88324],[48.17555,29.87731],[48.17402,29.873],[48.18027,29.87246],[48.1837,29.87115],[48.18396,29.86974],[48.18031,29.86954],[48.18121,29.86497],[48.17941,29.86753],[48.17777,29.86732],[48.17734,29.86608],[48.17008,29.87068],[48.16952,29.87459],[48.17076,29.87547],[48.16988,29.87665],[48.17066,29.87853],[48.16926,29.88001],[48.17045,29.88131],[48.16832,29.88497],[48.169,29.88867],[48.16714,29.89048],[48.16247,29.88981],[48.1605,29.88677],[48.15605,29.88489],[48.15537,29.88281],[48.15373,29.88229],[48.15143,29.88199],[48.14797,29.88281],[48.14713,29.88502],[48.14134,29.88777],[48.14051,29.88694],[48.14408,29.88504],[48.14513,29.88229],[48.14661,29.88299],[48.14661,29.88151],[48.13756,29.88103],[48.13532,29.88146],[48.13167,29.88353],[48.12293,29.88281],[48.11974,29.88148],[48.11556,29.88212],[48.1138,29.87762],[48.11164,29.87834],[48.11087,29.87721],[48.10839,29.87913],[48.1042,29.87832],[48.10531,29.87769],[48.10429,29.87294],[48.09848,29.87024],[48.10095,29.8703],[48.11192,29.8751],[48.1167,29.875],[48.12107,29.88068],[48.12709,29.88162],[48.12947,29.88044],[48.12921,29.87708],[48.13399,29.87475],[48.13731,29.87459],[48.13896,29.87212],[48.14112,29.87157],[48.14105,29.86927],[48.14989,29.87103],[48.15813,29.86767],[48.16368,29.86803],[48.16193,29.86714],[48.162,29.86363],[48.16585,29.86262],[48.16552,29.86361],[48.16406,29.86356],[48.1627,29.86473],[48.16358,29.86551],[48.1652,29.86549],[48.16951,29.86312],[48.16863,29.86192],[48.16967,29.85781],[48.16864,29.85584],[48.1672,29.85591],[48.165,29.85088],[48.16317,29.85105],[48.16482,29.84899],[48.16505,29.84585],[48.17367,29.84117],[48.17591,29.84151],[48.17973,29.84615],[48.17832,29.83969],[48.17614,29.83841],[48.17503,29.83608],[48.17916,29.83192],[48.17478,29.83167],[48.176,29.8268],[48.16995,29.8302],[48.16821,29.83485],[48.16996,29.83651],[48.16973,29.83727],[48.16337,29.84089],[48.15785,29.8468],[48.1587,29.85226],[48.15672,29.85473],[48.15549,29.85963],[48.15029,29.86457],[48.14814,29.8649],[48.14206,29.86362],[48.14013,29.86555],[48.13761,29.86535],[48.13474,29.8672],[48.13237,29.87211],[48.12406,29.87141],[48.12194,29.8742],[48.11916,29.87272],[48.12474,29.86646],[48.11502,29.86227],[48.11446,29.86446],[48.11308,29.86516],[48.11283,29.86898],[48.10996,29.86825],[48.1058,29.86966],[48.10114,29.86853],[48.09924,29.86625],[48.10329,29.86126],[48.10369,29.85726],[48.10601,29.85503],[48.10816,29.85408],[48.11226,29.85525],[48.11069,29.85365],[48.11283,29.85278],[48.11301,29.85089],[48.11566,29.85094],[48.11601,29.84863],[48.11887,29.85265],[48.11901,29.8494],[48.12889,29.84786],[48.13238,29.84354],[48.13594,29.84372],[48.1405,29.84197],[48.14387,29.83787],[48.1436,29.83708],[48.14253,29.83812],[48.14043,29.83769],[48.13868,29.84021],[48.13688,29.84084],[48.12759,29.84086],[48.1244,29.84675],[48.12082,29.84438],[48.12033,29.84713],[48.11649,29.84548],[48.11331,29.84623],[48.11295,29.84446],[48.11181,29.84468],[48.11041,29.84787],[48.11248,29.84931],[48.1043,29.85317],[48.09673,29.86475],[48.0913,29.86549],[48.09177,29.86275],[48.08609,29.86243],[48.07909,29.86751],[48.07261,29.87053],[48.05796,29.86893],[48.05099,29.86985],[48.05144,29.86703],[48.0491,29.8665],[48.03689,29.87761],[48.0316,29.88749],[48.02772,29.89143],[48.0244,29.89226],[48.02243,29.891],[48.02115,29.88733],[48.02121,29.88451],[48.02291,29.87795],[48.02707,29.87097],[48.02591,29.86785],[48.02677,29.86278],[48.03035,29.85973],[48.03145,29.85585],[48.03551,29.85332],[48.03112,29.84838],[48.03118,29.84295],[48.03307,29.84051],[48.04044,29.83666],[48.04346,29.83372],[48.04695,29.83224],[48.04955,29.8315],[48.07149,29.83199],[48.0716,29.83046],[48.08166,29.82423],[48.08836,29.82425],[48.09544,29.82781],[48.09899,29.82782],[48.10898,29.82391],[48.11563,29.82474],[48.10898,29.8229],[48.09742,29.82665],[48.08803,29.82257],[48.08006,29.82256],[48.07886,29.82173],[48.07787,29.8118],[48.07534,29.8069],[48.07362,29.80478],[48.06584,29.80015],[48.06045,29.79488],[48.07559,29.79984],[48.06814,29.79517],[48.06351,29.78947],[48.06448,29.77639],[48.06776,29.77133],[48.07204,29.76797],[48.07756,29.76683],[48.08315,29.76778],[48.08941,29.76684],[48.09057,29.76509],[48.09768,29.76448],[48.09972,29.76365],[48.10647,29.76007],[48.10738,29.75889],[48.10652,29.74739],[48.1155,29.7334],[48.11589,29.71978],[48.11996,29.70834],[48.12068,29.70703],[48.13132,29.69956],[48.13094,29.69854],[48.13878,29.68828],[48.14478,29.67843],[48.14682,29.67451],[48.15597,29.64625],[48.16406,29.62584],[48.17767,29.60164],[48.18064,29.59762],[48.18462,29.59282],[48.19503,29.58558],[48.20755,29.5825],[48.22415,29.5815],[48.23051,29.58327],[48.24842,29.59209],[48.25855,29.59859],[48.29018,29.62818],[48.30242,29.63816],[48.32541,29.65974],[48.33782,29.67312],[48.34812,29.68649],[48.35613,29.6988],[48.36805,29.72193],[48.37655,29.7437],[48.37805,29.74964],[48.37837,29.76149],[48.37491,29.77061],[48.37381,29.78668],[48.37263,29.78955],[48.37307,29.79623],[48.36967,29.80257],[48.36764,29.80383],[48.3625,29.80603],[48.36161,29.80553],[48.36076,29.80686],[48.35919,29.80593],[48.35028,29.80992],[48.35031,29.80894],[48.35504,29.80582],[48.3562,29.80411],[48.35382,29.80462],[48.34647,29.80787],[48.34021,29.81398],[48.32724,29.83692],[48.30264,29.87484],[48.28665,29.8961],[48.2792,29.90363],[48.23274,29.94288],[48.22163,29.95491],[48.20845,29.96331],[48.21194,29.96268],[48.22353,29.95554],[48.23501,29.94486],[48.25269,29.93161],[48.26306,29.92218],[48.27138,29.91795],[48.27342,29.91466],[48.29103,29.90452],[48.2978,29.89817],[48.29699,29.90085],[48.27467,29.91981],[48.25458,29.93555],[48.22819,29.95591],[48.21631,29.96398],[48.20255,29.97064],[48.17869,29.97849],[48.16406,29.98242],[48.15014,29.98435],[48.13272,29.98379],[48.11951,29.98081],[48.11077,29.97803],[48.10774,29.9755],[48.10518,29.96939],[48.10539,29.96276]],[[48.09122,29.75839],[48.09267,29.75451],[48.09648,29.75059],[48.09888,29.75009],[48.09804,29.75853],[48.09703,29.75967],[48.09237,29.76063],[48.09122,29.75839]],[[48.0583,29.76614],[48.06228,29.76298],[48.0675,29.7615],[48.06763,29.76199],[48.06455,29.76286],[48.05751,29.76897],[48.0583,29.76614]],[[48.05502,29.7906],[48.055,29.7869],[48.05812,29.78678],[48.05713,29.78091],[48.05791,29.77844],[48.05926,29.77765],[48.06036,29.77852],[48.06114,29.78544],[48.05966,29.78742],[48.06204,29.79053],[48.06168,29.79213],[48.06049,29.79243],[48.05502,29.7906]],[[48.05413,29.79646],[48.05317,29.79848],[48.051,29.79929],[48.04781,29.80524],[48.04587,29.81108],[48.0468,29.8121],[48.04488,29.8135],[48.04383,29.81654],[48.04031,29.81839],[48.04009,29.81714],[48.04203,29.81403],[48.04284,29.80926],[48.04981,29.79582],[48.04985,29.79334],[48.05399,29.79384],[48.05413,29.79646]],[[48.06852,29.80336],[48.07554,29.81124],[48.07754,29.82527],[48.0608,29.83057],[48.04533,29.82942],[48.03836,29.83547],[48.03523,29.83575],[48.03489,29.83136],[48.03684,29.82728],[48.04449,29.81964],[48.05691,29.7936],[48.06852,29.80336]],[[48.03846,29.88769],[48.0362,29.89391],[48.0305,29.90129],[48.029,29.90648],[48.02569,29.90665],[48.02933,29.90718],[48.03388,29.90475],[48.02747,29.91011],[48.02529,29.90829],[48.02182,29.90333],[48.02037,29.89639],[48.02414,29.89316],[48.02716,29.89394],[48.03703,29.88751],[48.03846,29.88769]],[[48.09024,29.89622],[48.09222,29.89515],[48.10019,29.89757],[48.10462,29.89757],[48.10882,29.89644],[48.1165,29.89206],[48.12124,29.89464],[48.12456,29.89999],[48.13028,29.90169],[48.13355,29.90465],[48.1397,29.91899],[48.14563,29.92809],[48.14502,29.93054],[48.14201,29.933],[48.13436,29.93334],[48.1301,29.93474],[48.12276,29.94136],[48.11634,29.94501],[48.11489,29.94903],[48.11752,29.95558],[48.10953,29.95678],[48.10337,29.95896],[48.0985,29.96902],[48.08989,29.96369],[48.07837,29.95968],[48.06898,29.95421],[48.06172,29.94735],[48.06055,29.94483],[48.06094,29.95047],[48.05111,29.94735],[48.04261,29.93953],[48.04341,29.93347],[48.05408,29.91162],[48.05755,29.91106],[48.06502,29.91208],[48.08084,29.90658],[48.08845,29.90216],[48.09024,29.89622]],[[48.0323,29.92708],[48.03485,29.92477],[48.03506,29.92502],[48.03223,29.93111],[48.0323,29.92708]],[[48.13845,29.90503],[48.13957,29.90618],[48.13776,29.90614],[48.13754,29.90497],[48.13845,29.90503]],[[48.13365,29.90236],[48.13378,29.90376],[48.13145,29.90105],[48.13181,29.90005],[48.13365,29.90236]],[[48.13335,29.89633],[48.13472,29.89966],[48.13071,29.89642],[48.13335,29.89633]],[[48.04656,29.89802],[48.04942,29.89625],[48.04928,29.89862],[48.05131,29.89998],[48.04998,29.90126],[48.04656,29.89802]],[[48.04427,29.88627],[48.04471,29.88378],[48.04694,29.88356],[48.04705,29.88175],[48.05388,29.87866],[48.05315,29.88223],[48.05159,29.88281],[48.04865,29.88653],[48.04423,29.89074],[48.04319,29.89088],[48.04261,29.89081],[48.04291,29.88586],[48.04427,29.88627]],[[48.08259,29.8852],[48.08271,29.88711],[48.07947,29.89017],[48.07856,29.88819],[48.08008,29.885],[48.08259,29.8852]],[[48.09544,29.88215],[48.0954,29.88051],[48.09697,29.87947],[48.09284,29.87796],[48.09115,29.87318],[48.08987,29.8725],[48.09003,29.87181],[48.09301,29.8706],[48.10174,29.87436],[48.10346,29.88017],[48.1087,29.87965],[48.11091,29.88113],[48.11297,29.88032],[48.11297,29.88281],[48.11126,29.88281],[48.10169,29.8866],[48.09544,29.88215]],[[48.11735,29.86989],[48.11394,29.87136],[48.11633,29.87253],[48.11613,29.87418],[48.11048,29.87257],[48.10828,29.8704],[48.11278,29.86988],[48.11757,29.86751],[48.11735,29.86989]],[[48.1633,29.85933],[48.16548,29.85801],[48.16544,29.85929],[48.16796,29.85937],[48.16406,29.86077],[48.16406,29.86189],[48.16189,29.85934],[48.16303,29.8577],[48.1633,29.85933]],[[48.18679,29.9035],[48.18847,29.90625],[48.18714,29.90739],[48.18679,29.9035]],[[48.18884,29.91419],[48.18882,29.91113],[48.18992,29.91071],[48.19036,29.91617],[48.18884,29.91419]],[[48.19224,29.92249],[48.1923,29.92077],[48.19266,29.92096],[48.19224,29.92249]],[[48.25592,29.48535],[48.25281,29.48874],[48.24736,29.48815],[48.25033,29.4839],[48.25516,29.4819],[48.25592,29.48535]],[[48.297,29.4685],[48.29518,29.47071],[48.29037,29.47067],[48.28746,29.46949],[48.28317,29.46512],[48.27618,29.45469],[48.27633,29.45179],[48.27211,29.44504],[48.26738,29.43142],[48.26794,29.42839],[48.27439,29.42687],[48.28968,29.43184],[48.29364,29.43184],[48.30897,29.4261],[48.31914,29.4302],[48.32083,29.43003],[48.32759,29.42431],[48.3349,29.42741],[48.33577,29.42612],[48.33873,29.4254],[48.34221,29.42155],[48.35199,29.41584],[48.35387,29.41106],[48.35724,29.4093],[48.36109,29.40474],[48.36139,29.40122],[48.37082,29.40032],[48.37237,29.3986],[48.37493,29.3981],[48.37582,29.39646],[48.37741,29.39725],[48.3858,29.39233],[48.39259,29.3916],[48.39777,29.39291],[48.40134,29.39214],[48.40479,29.39394],[48.40297,29.39631],[48.40388,29.40834],[48.39978,29.41212],[48.38422,29.42192],[48.37577,29.42953],[48.37312,29.43389],[48.36715,29.43848],[48.36372,29.44499],[48.35991,29.44647],[48.35646,29.45044],[48.35401,29.45144],[48.3484,29.45148],[48.33835,29.45456],[48.33548,29.45796],[48.33289,29.45785],[48.33164,29.46023],[48.32694,29.45905],[48.32297,29.46014],[48.32163,29.46268],[48.32285,29.46482],[48.31962,29.46589],[48.31839,29.46432],[48.31681,29.46504],[48.31494,29.47205],[48.31224,29.47534],[48.31083,29.47534],[48.30826,29.471],[48.30189,29.4685],[48.297,29.4685]],[[47.80216,29.38207],[47.80093,29.38518],[47.79987,29.38313],[47.79749,29.3829],[47.79984,29.38683],[47.7982,29.38675],[47.79567,29.38436],[47.79325,29.38739],[47.79198,29.38744],[47.79578,29.38069],[47.79988,29.37804],[47.80216,29.38207]],[[47.86626,29.38604],[47.86305,29.38526],[47.86482,29.3835],[47.86468,29.3816],[47.86227,29.38018],[47.86056,29.38041],[47.85903,29.37876],[47.85379,29.37825],[47.85422,29.37595],[47.86387,29.37887],[47.87028,29.3794],[47.87241,29.38072],[47.87216,29.38783],[47.86799,29.38778],[47.86704,29.39047],[47.86513,29.39181],[47.86626,29.38604]],[[48.44267,29.37711],[48.44315,29.37884],[48.4402,29.37949],[48.43837,29.37864],[48.43735,29.37602],[48.43943,29.37574],[48.44267,29.37711]],[[48.48991,29.07022],[48.49416,29.06942],[48.49577,29.07152],[48.49536,29.07282],[48.49245,29.0736],[48.49063,29.07305],[48.48991,29.07022]],[[48.77726,28.81705],[48.77677,28.81843],[48.7751,28.81813],[48.77574,28.81662],[48.77726,28.81705]],[[48.65064,28.67639],[48.65404,28.67945],[48.65339,28.68213],[48.65257,28.68264],[48.65076,28.68222],[48.65017,28.67884],[48.65064,28.67639]]],[[[47.96972,29.997],[47.96847,29.99766],[47.97083,29.99681],[47.97161,29.99658],[47.96972,29.997]]],[[[47.96036,30.00192],[47.95867,30.0039],[47.96071,30.00204],[47.96213,30.00099],[47.96036,30.00192]]]]}}],"metadata":{"derived_from":"vector/maritime/kuwait_eez.geojson","simplification":"Douglas-Peucker, 50 m tolerance in LAEA(29.3N,47.7E), topology preserved; 5-decimal coordinates; measured max deviation from source 50.3 m","dropped_features":[],"note":"A web view of the full-resolution file named in derived_from. Measure from that file, not this one."}}