{"type":"FeatureCollection","features":[{"type":"Feature","properties":{"id":"kw-land-boundary-saudi-arabia","name_en":"Kuwait - Saudi Arabia land boundary (derived from OSM)","name_ar":null,"feature_class":"international_land_boundary","source":"OpenStreetMap (Geofabrik GCC extract dated 2026-09-22); land/sea split by OSM land polygons (osmdata.openstreetmap.de, coastline of 2026-09-23)","license":"ODbL 1.0 (c) OpenStreetMap contributors","neighbour_name_en":"Saudi Arabia","length_km":221.26234512848694},"geometry":{"type":"LineString","coordinates":[[48.43036,28.5343],[47.70446,28.52436],[47.70904,28.54309],[47.65398,28.59569],[47.63694,28.62789],[47.63467,28.63052],[47.60814,28.65261],[47.60758,28.65245],[47.60537,28.65489],[47.59377,28.69089],[47.59081,28.70786],[47.59003,28.71612],[47.59105,28.72735],[47.59391,28.73674],[47.59789,28.75675],[47.59781,28.76154],[47.59684,28.77521],[47.5847,28.83561],[47.55471,28.87178],[47.54826,28.88199],[47.54595,28.88642],[47.54305,28.89451],[47.5395,28.8997],[47.50947,28.93441],[47.50726,28.93782],[47.49945,28.95712],[47.49946,28.95919],[47.49604,28.96668],[47.47915,28.9861],[47.47048,28.99458],[47.46866,28.99681],[47.46517,28.99992],[47.44214,29.00152],[47.39336,29.00794],[47.28527,29.01915],[47.26746,29.02181],[47.22436,29.02605],[47.20376,29.02726],[47.1564,29.03499],[47.04381,29.04699],[47.03543,29.04821],[47.00178,29.05165],[46.99426,29.05281],[46.94819,29.05633],[46.93302,29.06],[46.92853,29.05987],[46.91139,29.06116],[46.8755,29.0647],[46.86353,29.0668],[46.84106,29.06816],[46.78274,29.07613],[46.70309,29.08508],[46.56312,29.10005],[46.55268,29.10027]]}},{"type":"Feature","properties":{"id":"kw-land-boundary-iraq","name_en":"Kuwait - Iraq land boundary (derived from OSM)","name_ar":null,"feature_class":"international_land_boundary","source":"OpenStreetMap (Geofabrik GCC extract dated 2026-09-22); land/sea split by OSM land polygons (osmdata.openstreetmap.de, coastline of 2026-09-23)","license":"ODbL 1.0 (c) OpenStreetMap contributors","neighbour_name_en":"Iraq","length_km":202.30590083072414},"geometry":{"type":"LineString","coordinates":[[46.55268,29.10027],[46.55303,29.10116],[46.5571,29.10298],[46.56679,29.11961],[46.58002,29.1335],[46.59425,29.14691],[46.60927,29.15894],[46.62778,29.16888],[46.66045,29.19693],[46.67107,29.20729],[46.68364,29.22176],[46.69296,29.23452],[46.70346,29.25097],[46.71614,29.26488],[46.72759,29.27964],[46.76676,29.32196],[46.77573,29.33834],[46.78423,29.35542],[46.79776,29.36902],[46.81454,29.38076],[46.82613,29.39569],[46.84241,29.41294],[46.86647,29.4373],[46.87652,29.45527],[46.8925,29.4905],[46.90273,29.50639],[46.90447,29.52504],[46.91876,29.5395],[46.92715,29.55577],[46.93903,29.57104],[46.9547,29.60412],[46.97012,29.61818],[46.9775,29.63513],[46.98874,29.64951],[46.99809,29.66347],[47.00338,29.68342],[47.00437,29.70367],[47.00682,29.72218],[47.01737,29.73825],[47.03142,29.75237],[47.03824,29.76958],[47.04834,29.78527],[47.05465,29.80321],[47.06106,29.81621],[47.08161,29.85152],[47.08869,29.86855],[47.1007,29.90301],[47.10435,29.92148],[47.11282,29.93775],[47.12371,29.95336],[47.12951,29.97091],[47.13936,29.9868],[47.15559,30.00033],[47.17252,30.01738],[47.18955,30.02835],[47.20845,30.03624],[47.22713,30.04321],[47.2476,30.04861],[47.26837,30.052],[47.28748,30.05873],[47.30517,30.06867],[47.33884,30.09104],[47.36109,30.09723],[47.37119,30.10357],[47.41119,30.10381],[47.68295,30.10324],[47.75136,30.07689],[47.83354,30.04766],[47.8534,30.03946],[47.86443,30.03461],[47.88278,30.02556],[47.912,30.00993],[47.92653,30.00254],[47.9496,29.99195],[47.96065,29.99721]]}}],"metadata":{"derived_from":"vector/admin/international_land_boundaries.geojson","simplification":"Douglas-Peucker, 25 m tolerance in LAEA(29.3N,47.7E), topology preserved; 5-decimal coordinates; measured max deviation from source 24.9 m","dropped_features":[],"note":"A web view of the full-resolution file named in derived_from. Measure from that file, not this one."}}