{"type":"FeatureCollection","features":[{"type":"Feature","properties":{"id":"kw-island-bubiyan","name_en":"Bubyan Island","name_ar":"جزيرة بوبيان","feature_class":"island","source":"OSM land polygons (osmdata.openstreetmap.de, generated from the OSM coastline 2026-09-23); names: OpenStreetMap (Geofabrik GCC extract dated 2026-09-22, via _raw/shared/osm_kuwait.gpkg)","license":"ODbL 1.0 (c) OpenStreetMap contributors","area_km2":837.2932},"geometry":{"type":"MultiPolygon","coordinates":[[[[48.03918,29.83406],[48.0439,29.8297],[48.04617,29.82884],[48.05029,29.82918],[48.05592,29.83033],[48.06034,29.83022],[48.06411,29.82966],[48.06776,29.82832],[48.07261,29.82687],[48.07664,29.82504],[48.07673,29.82393],[48.07617,29.8217],[48.07626,29.81645],[48.07514,29.8119],[48.07257,29.80848],[48.06926,29.80553],[48.06733,29.80337],[48.0624,29.79961],[48.05832,29.79582],[48.05768,29.79505],[48.05656,29.79503],[48.05493,29.79704],[48.05317,29.80144],[48.05072,29.80985],[48.04682,29.81734],[48.0436,29.82259],[48.03755,29.82828],[48.03618,29.83044],[48.03532,29.83283],[48.03519,29.83424],[48.0357,29.8351],[48.03652,29.83536],[48.03699,29.83528],[48.03918,29.83406]]],[[[48.07317,29.83839],[48.07283,29.83748],[48.07302,29.83657],[48.07343,29.83569],[48.07418,29.83486],[48.0745,29.83402],[48.07413,29.83337],[48.07298,29.83272],[48.07081,29.83238],[48.05875,29.83255],[48.05126,29.83169],[48.04838,29.83199],[48.04596,29.83277],[48.04281,29.83519],[48.03884,29.83796],[48.03605,29.83945],[48.0345,29.84083],[48.03253,29.84191],[48.03197,29.84321],[48.0318,29.8479],[48.033,29.8498],[48.03579,29.85207],[48.03686,29.85244],[48.03879,29.85105],[48.04105,29.85053],[48.04246,29.85092],[48.04529,29.85085],[48.04493,29.85179],[48.04407,29.85237],[48.04156,29.85324],[48.03948,29.85347],[48.03738,29.85449],[48.03313,29.85602],[48.03193,29.85721],[48.03171,29.85892],[48.03223,29.85981],[48.03167,29.86063],[48.02824,29.86242],[48.02656,29.86458],[48.02592,29.86655],[48.02755,29.87053],[48.02738,29.87221],[48.02437,29.87522],[48.02283,29.87794],[48.02193,29.88158],[48.0215,29.88482],[48.02214,29.88761],[48.02287,29.88973],[48.02412,29.89133],[48.02613,29.89159],[48.02802,29.89059],[48.03008,29.88824],[48.03321,29.88326],[48.03562,29.87816],[48.03957,29.87329],[48.04227,29.8715],[48.04532,29.86875],[48.04832,29.867],[48.04965,29.86651],[48.05137,29.86707],[48.05111,29.8677],[48.05025,29.86804],[48.05038,29.86889],[48.05115,29.86956],[48.05287,29.86968],[48.05682,29.86871],[48.06025,29.86904],[48.0669,29.87001],[48.07051,29.87012],[48.07313,29.86982],[48.07566,29.86841],[48.07858,29.86718],[48.08132,29.86573],[48.08446,29.86335],[48.08664,29.86201],[48.08935,29.86182],[48.09115,29.86082],[48.09179,29.85952],[48.09209,29.85698],[48.09347,29.85724],[48.09398,29.85899],[48.09566,29.85922],[48.0966,29.85881],[48.09694,29.85784],[48.0972,29.85468],[48.09673,29.85226],[48.09681,29.85025],[48.09737,29.84861],[48.09724,29.84781],[48.09536,29.84747],[48.09383,29.84699],[48.09235,29.84626],[48.09044,29.84504],[48.08928,29.84455],[48.08435,29.84392],[48.08203,29.8442],[48.08053,29.84418],[48.07933,29.84359],[48.07817,29.84267],[48.07675,29.84105],[48.07516,29.83971],[48.07317,29.83839]]],[[[48.02423,29.9017],[48.02374,29.90299],[48.02409,29.90427],[48.02472,29.90494],[48.02662,29.90592],[48.02796,29.90562],[48.02873,29.90445],[48.02894,29.90341],[48.02985,29.90133],[48.0314,29.89925],[48.03301,29.89766],[48.03365,29.8968],[48.03652,29.89227],[48.03716,29.88988],[48.03702,29.88884],[48.03589,29.88865],[48.03477,29.88933],[48.03456,29.89055],[48.03378,29.89178],[48.0328,29.89276],[48.02992,29.89398],[48.02859,29.89435],[48.02556,29.89466],[48.02472,29.89551],[48.02444,29.89649],[48.0243,29.8979],[48.02451,29.89919],[48.02423,29.9017]]],[[[48.1142,29.95605],[48.11651,29.95538],[48.11729,29.95471],[48.11505,29.95181],[48.11454,29.94847],[48.11565,29.94579],[48.1196,29.94341],[48.12269,29.94118],[48.1275,29.93664],[48.13119,29.93426],[48.13497,29.93322],[48.14003,29.93344],[48.14312,29.93218],[48.14509,29.92995],[48.14501,29.92823],[48.13857,29.91782],[48.13582,29.91127],[48.13291,29.90525],[48.13025,29.90272],[48.12578,29.90101],[48.12321,29.89892],[48.11977,29.89401],[48.11737,29.8926],[48.11488,29.89275],[48.11153,29.89505],[48.10596,29.89736],[48.10166,29.89795],[48.09634,29.89729],[48.093,29.89602],[48.09059,29.89632],[48.08982,29.89818],[48.08896,29.90115],[48.0833,29.90532],[48.07454,29.90971],[48.06682,29.91239],[48.06175,29.91284],[48.05789,29.91209],[48.05489,29.91224],[48.05343,29.91343],[48.04939,29.92325],[48.04725,29.92786],[48.04441,29.9321],[48.04296,29.93567],[48.0433,29.93783],[48.04399,29.93902],[48.04931,29.94088],[48.05394,29.94058],[48.05849,29.94147],[48.06261,29.94475],[48.06785,29.95151],[48.07291,29.95546],[48.08501,29.96096],[48.09351,29.96549],[48.09686,29.96787],[48.09832,29.96758],[48.09943,29.96535],[48.10089,29.96103],[48.10501,29.95791],[48.10896,29.95672],[48.1142,29.95605]]],[[[48.31191,29.64789],[48.30998,29.64692],[48.30041,29.63771],[48.27401,29.61372],[48.26534,29.60559],[48.25582,29.59742],[48.24719,29.59167],[48.23517,29.58544],[48.22771,29.58271],[48.22243,29.58167],[48.21818,29.58137],[48.21436,29.58167],[48.2105,29.58234],[48.20179,29.5851],[48.19509,29.5866],[48.18616,29.59197],[48.18552,29.59331],[48.18166,29.59742],[48.17878,29.60223],[48.17714,29.60536],[48.17682,29.60566],[48.17629,29.60576],[48.17618,29.6059],[48.17608,29.60753],[48.17084,29.61656],[48.16938,29.61868],[48.16913,29.62021],[48.16938,29.62219],[48.16921,29.62682],[48.16762,29.63454],[48.16578,29.6379],[48.16368,29.64006],[48.16076,29.64185],[48.1581,29.64409],[48.15728,29.64588],[48.15587,29.65054],[48.15522,29.66251],[48.15436,29.66628],[48.15252,29.6706],[48.15153,29.67471],[48.15123,29.68142],[48.15007,29.68354],[48.14806,29.68488],[48.14617,29.68526],[48.14454,29.68608],[48.14291,29.68757],[48.1405,29.69204],[48.13849,29.69398],[48.13767,29.69443],[48.13668,29.69473],[48.13475,29.69793],[48.129,29.70289],[48.12561,29.70453],[48.12505,29.70524],[48.12587,29.70602],[48.12634,29.70833],[48.1254,29.71169],[48.1234,29.71581],[48.12063,29.71857],[48.11588,29.71786],[48.11694,29.71834],[48.11762,29.71831],[48.12004,29.71891],[48.11827,29.72145],[48.12055,29.72969],[48.12188,29.73613],[48.12123,29.7393],[48.12007,29.74172],[48.1184,29.74348],[48.11638,29.74445],[48.11411,29.74452],[48.11188,29.74482],[48.10965,29.74571],[48.10797,29.7475],[48.1069,29.74988],[48.10724,29.7522],[48.10832,29.75518],[48.10789,29.75737],[48.1069,29.75935],[48.10415,29.76177],[48.10068,29.76393],[48.09772,29.76483],[48.09574,29.76475],[48.09394,29.76531],[48.09175,29.7671],[48.08922,29.76792],[48.0824,29.76915],[48.07793,29.77026],[48.07441,29.7703],[48.07068,29.77064],[48.06845,29.77172],[48.06609,29.77429],[48.06519,29.77671],[48.06523,29.78233],[48.06476,29.78487],[48.06398,29.78751],[48.06416,29.78967],[48.06544,29.79291],[48.066,29.79366],[48.06695,29.79451],[48.06493,29.7966],[48.06257,29.79552],[48.06038,29.79511],[48.06145,29.79658],[48.06437,29.79943],[48.06802,29.80196],[48.07214,29.80378],[48.07493,29.80594],[48.0763,29.80766],[48.07986,29.8084],[48.07746,29.80956],[48.07896,29.81276],[48.08115,29.81402],[48.08338,29.8144],[48.08647,29.81414],[48.09029,29.81522],[48.09385,29.81533],[48.099,29.81443],[48.10527,29.81242],[48.10754,29.81112],[48.10694,29.8122],[48.10484,29.8135],[48.10051,29.81529],[48.09746,29.81585],[48.09523,29.81648],[48.09197,29.81689],[48.08609,29.81555],[48.08248,29.81566],[48.07806,29.81402],[48.07853,29.81827],[48.07853,29.82035],[48.07922,29.82181],[48.08042,29.82244],[48.08536,29.82229],[48.09132,29.8233],[48.09411,29.82449],[48.09656,29.82613],[48.09806,29.82683],[48.10003,29.82642],[48.10617,29.82374],[48.11059,29.82274],[48.11317,29.823],[48.11694,29.82367],[48.119,29.8227],[48.12201,29.81976],[48.12634,29.81901],[48.1308,29.81857],[48.13359,29.81894],[48.1363,29.82076],[48.13827,29.823],[48.13904,29.82426],[48.13793,29.82572],[48.13561,29.8262],[48.13269,29.82635],[48.12939,29.8259],[48.12544,29.82516],[48.12201,29.82523],[48.119,29.8259],[48.11514,29.82583],[48.11205,29.82531],[48.10939,29.8246],[48.10793,29.82464],[48.10415,29.82627],[48.10025,29.82776],[48.099,29.8284],[48.09681,29.8284],[48.09862,29.83074],[48.10248,29.83469],[48.10402,29.837],[48.10613,29.83759],[48.10802,29.83707],[48.10986,29.83718],[48.10789,29.83782],[48.10535,29.8383],[48.10347,29.83778],[48.10192,29.83618],[48.10051,29.83413],[48.09832,29.83219],[48.09639,29.82989],[48.0945,29.82814],[48.09158,29.8262],[48.08827,29.82475],[48.0851,29.82467],[48.08179,29.82523],[48.07793,29.82665],[48.07497,29.82936],[48.07304,29.83015],[48.07158,29.83111],[48.07248,29.83175],[48.07531,29.83253],[48.07647,29.83346],[48.07656,29.83469],[48.0757,29.83592],[48.07454,29.83674],[48.07463,29.8377],[48.07686,29.83916],[48.08003,29.84273],[48.08197,29.8431],[48.0854,29.84269],[48.08956,29.84344],[48.09304,29.84481],[48.09497,29.84582],[48.09609,29.846],[48.09712,29.84604],[48.09913,29.84552],[48.10076,29.84612],[48.10128,29.84764],[48.10398,29.84857],[48.10844,29.84939],[48.10939,29.84865],[48.10965,29.84667],[48.11093,29.84485],[48.11394,29.84273],[48.11737,29.84128],[48.12244,29.84057],[48.12316,29.84098],[48.12244,29.8421],[48.12141,29.84239],[48.12188,29.84321],[48.12355,29.8444],[48.12467,29.84466],[48.12544,29.84288],[48.1269,29.84079],[48.12758,29.83841],[48.12913,29.83659],[48.13093,29.83633],[48.1357,29.8367],[48.13741,29.83778],[48.1377,29.83669],[48.13806,29.83618],[48.13904,29.83581],[48.13938,29.83527],[48.13998,29.83502],[48.14344,29.83547],[48.14393,29.83516],[48.14474,29.83509],[48.14513,29.83522],[48.14543,29.83599],[48.1483,29.83633],[48.14909,29.83625],[48.14965,29.83557],[48.15016,29.83527],[48.15073,29.83513],[48.15135,29.83513],[48.15231,29.83545],[48.15224,29.83502],[48.15238,29.8346],[48.15289,29.8338],[48.15327,29.83361],[48.15368,29.83373],[48.15396,29.83405],[48.15337,29.83432],[48.15314,29.83568],[48.15267,29.83601],[48.15287,29.83635],[48.1527,29.83701],[48.15251,29.83716],[48.1525,29.83645],[48.15227,29.83621],[48.15188,29.83618],[48.15071,29.83622],[48.14983,29.83708],[48.14935,29.8373],[48.14865,29.83731],[48.14735,29.83702],[48.14641,29.8372],[48.14268,29.83656],[48.14075,29.83699],[48.13978,29.83789],[48.13874,29.83848],[48.13791,29.83919],[48.1369,29.83945],[48.13952,29.84247],[48.14158,29.84113],[48.14299,29.84064],[48.14364,29.84176],[48.14209,29.84448],[48.13994,29.84511],[48.13891,29.84504],[48.13836,29.84522],[48.14072,29.84786],[48.14252,29.84827],[48.14441,29.84801],[48.14483,29.8484],[48.14628,29.84835],[48.14776,29.84863],[48.14632,29.84863],[48.14608,29.84882],[48.14472,29.84886],[48.14355,29.84857],[48.142,29.84962],[48.13776,29.85148],[48.13621,29.85349],[48.13424,29.85323],[48.13231,29.85233],[48.13136,29.85174],[48.12956,29.8523],[48.1272,29.85203],[48.12033,29.85055],[48.11995,29.85084],[48.12072,29.85174],[48.12115,29.85334],[48.12076,29.8552],[48.11982,29.85609],[48.11471,29.85594],[48.11076,29.85602],[48.10673,29.85557],[48.10638,29.85617],[48.10789,29.85788],[48.11111,29.85922],[48.11724,29.86275],[48.12372,29.86495],[48.1275,29.86651],[48.1296,29.86811],[48.13046,29.87005],[48.13119,29.87083],[48.13209,29.87083],[48.13269,29.87005],[48.13364,29.86767],[48.13518,29.86595],[48.13711,29.86521],[48.1399,29.86491],[48.14072,29.86402],[48.14235,29.86339],[48.14514,29.86346],[48.14681,29.86435],[48.14848,29.86469],[48.15003,29.86372],[48.15166,29.86234],[48.15363,29.86007],[48.15539,29.85888],[48.15582,29.85814],[48.15539,29.85665],[48.15587,29.85497],[48.15883,29.8517],[48.15698,29.84939],[48.15685,29.84749],[48.15801,29.8456],[48.15988,29.84325],[48.16134,29.84236],[48.16299,29.84031],[48.16805,29.83796],[48.16891,29.83692],[48.16797,29.83513],[48.16827,29.83324],[48.16818,29.83156],[48.16968,29.83063],[48.17046,29.82873],[48.17239,29.82806],[48.17372,29.82698],[48.17539,29.82657],[48.17647,29.82709],[48.17677,29.82836],[48.17677,29.82963],[48.17604,29.83052],[48.17647,29.83145],[48.1778,29.83164],[48.17943,29.83164],[48.17964,29.83205],[48.17801,29.83387],[48.17788,29.83484],[48.17694,29.83528],[48.17617,29.83614],[48.17634,29.83711],[48.17702,29.83837],[48.17775,29.83875],[48.17844,29.83942],[48.1793,29.83968],[48.1793,29.84072],[48.17823,29.84124],[48.17865,29.84206],[48.17956,29.84265],[48.17947,29.84344],[48.17977,29.84388],[48.18041,29.84426],[48.17973,29.84522],[48.1799,29.84623],[48.18071,29.84772],[48.1781,29.84615],[48.17672,29.84433],[48.17505,29.84366],[48.17325,29.84258],[48.172,29.84314],[48.17054,29.84459],[48.16814,29.84452],[48.1666,29.84504],[48.16539,29.84638],[48.16544,29.84742],[48.16617,29.84816],[48.16707,29.84839],[48.16767,29.84742],[48.16835,29.84734],[48.16853,29.84809],[48.16758,29.84935],[48.16634,29.84902],[48.16526,29.85006],[48.16677,29.85196],[48.16767,29.85471],[48.16964,29.85587],[48.17084,29.85717],[48.17071,29.85899],[48.16973,29.86119],[48.17016,29.86223],[48.1714,29.86134],[48.17355,29.86022],[48.17578,29.85989],[48.17762,29.85933],[48.17702,29.86037],[48.17556,29.86138],[48.17419,29.86194],[48.17368,29.86458],[48.17179,29.86573],[48.16994,29.86569],[48.1684,29.86655],[48.16565,29.86863],[48.16454,29.86904],[48.15771,29.86871],[48.15488,29.86975],[48.15338,29.8709],[48.15067,29.87161],[48.14754,29.87165],[48.14475,29.87109],[48.14196,29.87031],[48.1414,29.87079],[48.14059,29.87235],[48.13909,29.87284],[48.13853,29.87356],[48.13823,29.8757],[48.13741,29.87675],[48.13718,29.87742],[48.13585,29.87795],[48.13479,29.87816],[48.13394,29.87803],[48.13226,29.87838],[48.13143,29.87822],[48.13063,29.87747],[48.12982,29.87749],[48.12934,29.87818],[48.1296,29.8793],[48.13061,29.8808],[48.13166,29.88179],[48.13271,29.88177],[48.13623,29.88013],[48.14198,29.88],[48.14857,29.88058],[48.14934,29.87995],[48.15054,29.87956],[48.15368,29.87956],[48.15454,29.8793],[48.15509,29.87868],[48.15533,29.87758],[48.15445,29.87598],[48.15443,29.8752],[48.15499,29.87397],[48.15597,29.87304],[48.1572,29.87289],[48.15647,29.87364],[48.15559,29.87544],[48.15593,29.87569],[48.15657,29.87535],[48.15733,29.87531],[48.15784,29.87576],[48.1579,29.87634],[48.15672,29.88103],[48.15649,29.88277],[48.15694,29.88378],[48.15844,29.88491],[48.16325,29.88782],[48.16469,29.8891],[48.16578,29.88973],[48.16685,29.88973],[48.16771,29.88921],[48.16808,29.88836],[48.16805,29.88752],[48.16747,29.8861],[48.16713,29.88467],[48.16709,29.8811],[48.16765,29.87851],[48.16799,29.87797],[48.16938,29.87732],[48.16928,29.87667],[48.16859,29.8763],[48.1685,29.87578],[48.16885,29.87513],[48.16904,29.8742],[48.16865,29.87306],[48.16994,29.87014],[48.17099,29.86929],[48.1725,29.86858],[48.17348,29.86752],[48.17501,29.8669],[48.17636,29.86659],[48.17767,29.86534],[48.17814,29.86569],[48.17823,29.86681],[48.17904,29.86711],[48.18196,29.86461],[48.18187,29.8667],[48.18097,29.86837],[48.18119,29.86919],[48.18174,29.86953],[48.18192,29.8683],[48.18389,29.86655],[48.18621,29.86517],[48.18749,29.86554],[48.18758,29.8661],[48.18835,29.867],[48.18578,29.86826],[48.18496,29.86901],[48.18539,29.87005],[48.18531,29.87105],[48.18286,29.87217],[48.18213,29.87195],[48.18067,29.87321],[48.17792,29.87355],[48.17569,29.87299],[48.17445,29.87321],[48.17436,29.87455],[48.17604,29.87715],[48.17608,29.8789],[48.17531,29.88058],[48.17531,29.88173],[48.17483,29.88248],[48.17522,29.8833],[48.17655,29.88404],[48.17694,29.88266],[48.17792,29.88132],[48.1793,29.8808],[48.18101,29.88058],[48.18226,29.88088],[48.18299,29.88155],[48.18419,29.88106],[48.18389,29.87987],[48.1844,29.87939],[48.18526,29.87928],[48.18471,29.8801],[48.18552,29.88091],[48.18711,29.88199],[48.18998,29.88103],[48.1908,29.88103],[48.18964,29.88251],[48.18797,29.88344],[48.18582,29.88337],[48.18415,29.88374],[48.18295,29.88359],[48.18226,29.88318],[48.18153,29.88344],[48.18265,29.88478],[48.18243,29.88609],[48.18183,29.88802],[48.18054,29.8888],[48.17904,29.88906],[48.17814,29.88877],[48.1775,29.8894],[48.17741,29.89014],[48.17805,29.89077],[48.18183,29.89126],[48.18398,29.89208],[48.18737,29.8926],[48.19084,29.89394],[48.1929,29.89524],[48.19445,29.89569],[48.19488,29.89628],[48.19573,29.89665],[48.19608,29.89743],[48.19436,29.89766],[48.19406,29.89818],[48.19269,29.89795],[48.19252,29.89751],[48.19299,29.89669],[48.19222,29.89658],[48.1914,29.89706],[48.1914,29.89781],[48.192,29.89848],[48.19316,29.90045],[48.19496,29.90212],[48.19573,29.90365],[48.19698,29.90491],[48.19741,29.90629],[48.19702,29.90733],[48.19818,29.90912],[48.19848,29.91034],[48.20024,29.91153],[48.20183,29.91205],[48.20337,29.91176],[48.20462,29.91097],[48.20565,29.91072],[48.20432,29.91235],[48.20427,29.91332],[48.20475,29.91395],[48.20483,29.91499],[48.20719,29.91574],[48.20869,29.91559],[48.20968,29.91585],[48.21118,29.91559],[48.21144,29.91622],[48.21033,29.91681],[48.20904,29.91722],[48.2093,29.91823],[48.21024,29.91868],[48.20998,29.91938],[48.21075,29.91998],[48.21161,29.92132],[48.21178,29.92236],[48.21024,29.92057],[48.2093,29.92027],[48.20694,29.91808],[48.20621,29.91849],[48.20492,29.91786],[48.20183,29.91778],[48.20003,29.91696],[48.1999,29.91745],[48.2014,29.91979],[48.20423,29.92098],[48.20578,29.9224],[48.20728,29.92299],[48.20724,29.9237],[48.20505,29.92291],[48.2035,29.9218],[48.2029,29.92236],[48.2026,29.9237],[48.2017,29.92236],[48.19985,29.9212],[48.19925,29.92124],[48.20003,29.92254],[48.1996,29.92336],[48.19895,29.92254],[48.1987,29.92362],[48.20015,29.92544],[48.20024,29.92671],[48.19908,29.92582],[48.19861,29.92489],[48.19758,29.9244],[48.19689,29.92258],[48.19668,29.91987],[48.19621,29.91916],[48.19586,29.92054],[48.19653,29.92286],[48.19642,29.92379],[48.19745,29.92504],[48.19773,29.92652],[48.19855,29.92844],[48.19945,29.92918],[48.19925,29.93026],[48.19973,29.93095],[48.19872,29.93056],[48.19859,29.92967],[48.19803,29.92944],[48.19773,29.92978],[48.19722,29.92946],[48.1973,29.9284],[48.19646,29.92764],[48.19591,29.92747],[48.19614,29.92664],[48.19578,29.92587],[48.19578,29.92541],[48.19509,29.92459],[48.19453,29.92327],[48.19348,29.92228],[48.19361,29.92323],[48.19432,29.92431],[48.19395,29.92582],[48.19423,29.92719],[48.19337,29.92626],[48.19312,29.92682],[48.19273,29.92597],[48.19286,29.92424],[48.19213,29.92373],[48.19211,29.9255],[48.19168,29.92619],[48.19119,29.9265],[48.19097,29.92743],[48.19144,29.92887],[48.19226,29.93019],[48.19271,29.9306],[48.19232,29.93132],[48.19183,29.93125],[48.19144,29.9321],[48.19217,29.9327],[48.19166,29.93346],[48.19097,29.93381],[48.19116,29.9345],[48.18947,29.93233],[48.18958,29.93379],[48.18928,29.93474],[48.18857,29.9337],[48.18698,29.93558],[48.18627,29.93588],[48.18599,29.93541],[48.18681,29.93419],[48.18666,29.93318],[48.18569,29.93342],[48.18458,29.93467],[48.18329,29.93543],[48.18447,29.93366],[48.18432,29.93141],[48.18471,29.93009],[48.18359,29.92968],[48.18406,29.92816],[48.18565,29.92526],[48.18591,29.92288],[48.18509,29.92065],[48.18393,29.92221],[48.18273,29.92507],[48.18196,29.92552],[48.1823,29.92675],[48.18187,29.92753],[48.18071,29.92842],[48.18063,29.92968],[48.17878,29.93169],[48.17917,29.92946],[48.17865,29.92831],[48.17964,29.92604],[48.17904,29.92407],[48.17561,29.92571],[48.17698,29.92388],[48.17672,29.92262],[48.17681,29.92102],[48.17771,29.91715],[48.17625,29.91689],[48.17522,29.91797],[48.17346,29.91886],[48.17535,29.91566],[48.17445,29.91492],[48.1732,29.91469],[48.17625,29.91272],[48.17831,29.90975],[48.18166,29.90659],[48.182,29.90532],[48.18329,29.90387],[48.18333,29.90104],[48.18269,29.8997],[48.1817,29.89978],[48.18222,29.90156],[48.18187,29.90216],[48.18183,29.9035],[48.18123,29.9051],[48.18024,29.90413],[48.1805,29.90309],[48.17878,29.90034],[48.17745,29.89922],[48.17591,29.89915],[48.17548,29.89989],[48.17591,29.90097],[48.17492,29.90153],[48.1738,29.90127],[48.1729,29.90264],[48.17299,29.90119],[48.17372,29.90056],[48.17466,29.90045],[48.17419,29.9],[48.16951,29.89881],[48.16518,29.89717],[48.16248,29.89695],[48.15939,29.89609],[48.15685,29.89453],[48.15501,29.89263],[48.15338,29.89237],[48.15102,29.89472],[48.14921,29.89918],[48.14831,29.90045],[48.14951,29.90316],[48.15149,29.90309],[48.1563,29.90506],[48.15715,29.90618],[48.15445,29.90685],[48.15222,29.90662],[48.14934,29.90525],[48.14685,29.90365],[48.14518,29.90372],[48.14394,29.90592],[48.14312,29.90926],[48.14235,29.91343],[48.14278,29.91641],[48.14419,29.91931],[48.14711,29.92291],[48.14857,29.92652],[48.14879,29.9295],[48.14793,29.93277],[48.14574,29.93497],[48.14188,29.93671],[48.1387,29.93697],[48.13591,29.93664],[48.13316,29.93653],[48.13123,29.93772],[48.12844,29.94144],[48.12578,29.94437],[48.12265,29.94668],[48.12046,29.94787],[48.11999,29.94854],[48.12046,29.95025],[48.12171,29.95226],[48.12145,29.95505],[48.11982,29.95865],[48.11793,29.9601],[48.11557,29.96066],[48.11209,29.96073],[48.10862,29.96048],[48.10604,29.96152],[48.1051,29.96338],[48.10508,29.96631],[48.10578,29.96901],[48.10748,29.97287],[48.10838,29.97479],[48.10926,29.97555],[48.11186,29.97615],[48.12462,29.98001],[48.13093,29.98146],[48.13782,29.98245],[48.14565,29.98293],[48.15115,29.98297],[48.15469,29.98278],[48.15924,29.98206],[48.16681,29.98053],[48.17033,29.97949],[48.17288,29.97903],[48.17698,29.97799],[48.18164,29.97631],[48.18593,29.9743],[48.19136,29.97228],[48.19685,29.96981],[48.21447,29.95945],[48.22264,29.95406],[48.22702,29.95083],[48.23457,29.94341],[48.25968,29.92199],[48.27642,29.90729],[48.28826,29.89617],[48.29603,29.88679],[48.30876,29.862],[48.32025,29.87272],[48.31988,29.87312],[48.3199,29.87351],[48.32048,29.87413],[48.32085,29.87429],[48.32146,29.87379],[48.32135,29.87368],[48.32168,29.87339],[48.32028,29.87191],[48.3224,29.87366],[48.33528,29.86321],[48.33492,29.86287],[48.33197,29.86526],[48.3302,29.86358],[48.33325,29.86112],[48.3338,29.86093],[48.33465,29.861],[48.3367,29.86279],[48.33697,29.86275],[48.33698,29.86258],[48.33535,29.8611],[48.33543,29.86083],[48.33463,29.86036],[48.33391,29.86021],[48.3326,29.86063],[48.33053,29.86239],[48.33007,29.8622],[48.32867,29.86073],[48.32715,29.85945],[48.3262,29.85931],[48.32489,29.85941],[48.32228,29.85687],[48.32173,29.8559],[48.31925,29.85331],[48.3189,29.85314],[48.31819,29.85351],[48.31734,29.85278],[48.33435,29.82423],[48.34105,29.81432],[48.34341,29.81235],[48.34864,29.81119],[48.35551,29.80799],[48.36263,29.80393],[48.3683,29.79943],[48.37126,29.79514],[48.3725,29.79127],[48.37396,29.78397],[48.37482,29.77209],[48.37714,29.76333],[48.37757,29.75849],[48.37735,29.75048],[48.37624,29.74538],[48.3722,29.73297],[48.36546,29.71761],[48.35843,29.7042],[48.35208,29.69376],[48.34697,29.68593],[48.33787,29.67482],[48.33152,29.66766],[48.32178,29.65748],[48.31191,29.64789]]]]}},{"type":"Feature","properties":{"id":"kw-island-failaka","name_en":"Failaka Island","name_ar":"جزيرة فيلكا","feature_class":"island","source":"OSM land polygons (osmdata.openstreetmap.de, generated from the OSM coastline 2026-09-23); names: OpenStreetMap (Geofabrik GCC extract dated 2026-09-22, via _raw/shared/osm_kuwait.gpkg)","license":"ODbL 1.0 (c) OpenStreetMap contributors","area_km2":46.516},"geometry":{"type":"MultiPolygon","coordinates":[[[[48.27356,29.44886],[48.27392,29.44885],[48.27463,29.44868],[48.27508,29.44939],[48.2762,29.45431],[48.27863,29.45883],[48.28205,29.46267],[48.28215,29.46307],[48.2832,29.46435],[48.28445,29.46559],[48.28614,29.46768],[48.28675,29.46816],[48.28777,29.46955],[48.28815,29.46944],[48.28801,29.46816],[48.28854,29.46692],[48.28884,29.46679],[48.28972,29.46681],[48.29147,29.46736],[48.29224,29.46786],[48.2927,29.46908],[48.29103,29.46983],[48.29103,29.47011],[48.29285,29.47047],[48.29493,29.46974],[48.29523,29.46949],[48.29582,29.46938],[48.29564,29.46907],[48.2957,29.46867],[48.29534,29.46834],[48.29572,29.46783],[48.29737,29.46763],[48.29915,29.46774],[48.30319,29.46863],[48.30719,29.4702],[48.30917,29.47121],[48.31016,29.47193],[48.31038,29.47262],[48.31028,29.47319],[48.31128,29.47446],[48.31107,29.47466],[48.31139,29.47508],[48.31208,29.47505],[48.31278,29.47419],[48.31372,29.47224],[48.31434,29.47158],[48.31437,29.47106],[48.31486,29.47032],[48.31585,29.4678],[48.31631,29.46622],[48.31558,29.4652],[48.31577,29.4648],[48.31723,29.46392],[48.31879,29.46324],[48.32215,29.46079],[48.32369,29.46005],[48.32666,29.4593],[48.32849,29.45902],[48.32974,29.45931],[48.32964,29.45972],[48.32995,29.45989],[48.33029,29.45971],[48.331,29.4597],[48.33159,29.46007],[48.33125,29.45953],[48.33248,29.45839],[48.33457,29.45743],[48.33491,29.45747],[48.33526,29.45691],[48.33706,29.45578],[48.34079,29.45403],[48.3432,29.45326],[48.34328,29.45291],[48.34516,29.45224],[48.34564,29.45229],[48.34794,29.45177],[48.34859,29.45143],[48.35345,29.45112],[48.35473,29.4513],[48.35596,29.45015],[48.35633,29.45006],[48.3582,29.44878],[48.35871,29.44822],[48.35927,29.447],[48.36269,29.44483],[48.36322,29.44432],[48.36343,29.44404],[48.3631,29.44399],[48.36306,29.44372],[48.36585,29.43999],[48.37147,29.43488],[48.37203,29.43467],[48.3727,29.43417],[48.37337,29.43395],[48.37353,29.43346],[48.37322,29.43331],[48.37308,29.43349],[48.37289,29.43316],[48.37306,29.43233],[48.37443,29.43072],[48.37636,29.4289],[48.38028,29.42574],[48.3829,29.42301],[48.38474,29.42154],[48.38935,29.41871],[48.39296,29.41592],[48.39534,29.41468],[48.39835,29.41276],[48.40025,29.41095],[48.40088,29.41054],[48.40299,29.40827],[48.40349,29.40672],[48.40308,29.40493],[48.4031,29.40032],[48.40272,29.3975],[48.40235,29.39644],[48.40248,29.39576],[48.40308,29.39505],[48.40055,29.39348],[48.40052,29.39296],[48.39962,29.39321],[48.39945,29.39364],[48.39677,29.39311],[48.39619,29.39284],[48.39531,29.39282],[48.39473,29.39256],[48.39245,29.39213],[48.3918,29.3925],[48.3879,29.39246],[48.38694,29.39289],[48.38637,29.39423],[48.38439,29.39518],[48.38291,29.39567],[48.38261,29.39592],[48.38169,29.39612],[48.37964,29.39714],[48.3752,29.39885],[48.3749,29.39911],[48.3665,29.4014],[48.36235,29.40224],[48.36172,29.40253],[48.36139,29.40394],[48.36074,29.40433],[48.3601,29.40521],[48.35902,29.40587],[48.35768,29.40862],[48.35545,29.4107],[48.35357,29.41133],[48.35311,29.41208],[48.35337,29.41312],[48.35309,29.41456],[48.35249,29.41532],[48.35214,29.41631],[48.35171,29.41677],[48.34931,29.41769],[48.34946,29.41833],[48.34903,29.41929],[48.34556,29.42063],[48.34377,29.4215],[48.34232,29.42172],[48.34232,29.42191],[48.3426,29.42217],[48.34227,29.42254],[48.3408,29.42337],[48.34048,29.42391],[48.33937,29.42411],[48.33923,29.42454],[48.33929,29.42598],[48.33845,29.42708],[48.33733,29.42735],[48.33422,29.42761],[48.3306,29.42743],[48.32879,29.42714],[48.32689,29.4272],[48.3262,29.42758],[48.32211,29.4285],[48.32189,29.42946],[48.32165,29.42977],[48.32042,29.42991],[48.31708,29.42948],[48.3088,29.42782],[48.30427,29.42752],[48.30412,29.42764],[48.30411,29.42816],[48.30365,29.42879],[48.30277,29.42903],[48.30254,29.42949],[48.30179,29.42986],[48.30065,29.42994],[48.29998,29.43032],[48.29646,29.43067],[48.29471,29.43132],[48.29385,29.4323],[48.29244,29.43231],[48.29057,29.43208],[48.28802,29.43156],[48.28361,29.43036],[48.2822,29.42979],[48.2758,29.42775],[48.27393,29.42764],[48.27133,29.42774],[48.2699,29.4281],[48.26744,29.42903],[48.26901,29.42881],[48.26969,29.42909],[48.26962,29.42921],[48.27015,29.42949],[48.27039,29.43002],[48.27004,29.4306],[48.26972,29.43055],[48.26957,29.43067],[48.2687,29.43005],[48.26953,29.43072],[48.26885,29.43175],[48.26757,29.43119],[48.26726,29.42972],[48.26713,29.42974],[48.2674,29.43117],[48.26839,29.43178],[48.26859,29.43357],[48.2701,29.43698],[48.27039,29.43724],[48.27231,29.4425],[48.27266,29.44435],[48.27224,29.44452],[48.27195,29.44478],[48.27183,29.44514],[48.27186,29.44547],[48.27197,29.44553],[48.27186,29.44514],[48.27214,29.44463],[48.27341,29.4442],[48.27395,29.44544],[48.27385,29.44559],[48.27461,29.44865],[48.27377,29.44883],[48.27324,29.44875],[48.27356,29.44886]]],[[[48.2728,29.44835],[48.27264,29.44778],[48.27263,29.4479],[48.27277,29.44836],[48.27308,29.44869],[48.27324,29.44875],[48.2728,29.44835]]]]}},{"type":"Feature","properties":{"id":"kw-island-warbah","name_en":"Jazīrat Warbah","name_ar":"وربة","feature_class":"island","source":"OSM land polygons (osmdata.openstreetmap.de, generated from the OSM coastline 2026-09-23); names: OpenStreetMap (Geofabrik GCC extract dated 2026-09-22, via _raw/shared/osm_kuwait.gpkg)","license":"ODbL 1.0 (c) OpenStreetMap contributors","area_km2":45.5611},"geometry":{"type":"Polygon","coordinates":[[[48.09601,29.98646],[48.09089,29.98458],[48.08583,29.98221],[48.08087,29.97962],[48.07722,29.97737],[48.0667,29.97042],[48.06387,29.96877],[48.05328,29.96405],[48.05067,29.96276],[48.04895,29.96264],[48.04253,29.96153],[48.03456,29.9611],[48.03364,29.96089],[48.03132,29.95981],[48.02988,29.95886],[48.02888,29.95783],[48.0267,29.95415],[48.02607,29.95349],[48.02516,29.95309],[48.02337,29.95303],[48.02162,29.95337],[48.02058,29.95376],[48.01974,29.95421],[48.01861,29.95522],[48.01775,29.95654],[48.01719,29.95871],[48.01719,29.95994],[48.01757,29.9675],[48.01791,29.97059],[48.01828,29.9717],[48.02427,29.97845],[48.02933,29.9831],[48.03412,29.9872],[48.03643,29.98994],[48.03793,29.99211],[48.04444,30.00286],[48.04454,30.00354],[48.04424,30.00564],[48.04316,30.00792],[48.04282,30.00946],[48.04291,30.01004],[48.04375,30.01143],[48.04532,30.01252],[48.04763,30.01383],[48.05273,30.01627],[48.05615,30.0175],[48.06097,30.01901],[48.06494,30.01997],[48.07551,30.02174],[48.07985,30.02212],[48.08576,30.0224],[48.09086,30.02245],[48.09629,30.02228],[48.10514,30.02153],[48.10729,30.02088],[48.10903,30.01983],[48.11057,30.01864],[48.11177,30.01811],[48.11902,30.01645],[48.12808,30.01487],[48.14444,30.01228],[48.14822,30.01224],[48.14888,30.01237],[48.15049,30.01374],[48.15206,30.01403],[48.1548,30.01329],[48.15558,30.01285],[48.15756,30.01094],[48.15793,30.01007],[48.1579,30.00873],[48.15767,30.0081],[48.15609,30.00619],[48.15539,30.00579],[48.12988,29.9998],[48.12474,29.99833],[48.11558,29.99518],[48.10695,29.99113],[48.09601,29.98646]]]}},{"type":"Feature","properties":{"id":"kw-island-umm-an-namil","name_en":"Umm Al-Namil","name_ar":"جزيرة أم النمل","feature_class":"islet","source":"OSM land polygons (osmdata.openstreetmap.de, generated from the OSM coastline 2026-09-23); names: OpenStreetMap (Geofabrik GCC extract dated 2026-09-22, via _raw/shared/osm_kuwait.gpkg)","license":"ODbL 1.0 (c) OpenStreetMap contributors","area_km2":0.6062},"geometry":{"type":"Polygon","coordinates":[[[47.85348,29.37815],[47.85378,29.37777],[47.85413,29.37776],[47.85657,29.37905],[47.85934,29.37956],[47.86238,29.38056],[47.86513,29.382],[47.86545,29.38249],[47.86499,29.38476],[47.86553,29.38558],[47.86604,29.38578],[47.8665,29.38627],[47.86662,29.3865],[47.86646,29.38708],[47.86658,29.3872],[47.86768,29.38753],[47.86966,29.38779],[47.87147,29.38763],[47.87119,29.38705],[47.87077,29.38692],[47.87045,29.38657],[47.87022,29.38602],[47.87036,29.38507],[47.8708,29.38403],[47.87213,29.38226],[47.87216,29.38194],[47.87137,29.38133],[47.87031,29.38115],[47.86893,29.38055],[47.86726,29.38013],[47.86272,29.37933],[47.85646,29.37701],[47.85506,29.37701],[47.85443,29.37742],[47.85362,29.3777],[47.85348,29.37815]]]}},{"type":"Feature","properties":{"id":"kw-island-miskan","name_en":"Mischan Island","name_ar":"مسكان","feature_class":"islet","source":"OSM land polygons (osmdata.openstreetmap.de, generated from the OSM coastline 2026-09-23); names: OpenStreetMap (Geofabrik GCC extract dated 2026-09-22, via _raw/shared/osm_kuwait.gpkg)","license":"ODbL 1.0 (c) OpenStreetMap contributors","area_km2":0.349},"geometry":{"type":"Polygon","coordinates":[[[48.25069,29.48404],[48.24985,29.48465],[48.24935,29.48526],[48.24877,29.4868],[48.24782,29.48793],[48.24767,29.48856],[48.24975,29.48913],[48.25107,29.48922],[48.25278,29.48875],[48.25304,29.48843],[48.2537,29.48817],[48.25389,29.48795],[48.25466,29.48687],[48.25482,29.48636],[48.25507,29.48394],[48.25485,29.4831],[48.25521,29.48171],[48.25495,29.48164],[48.25459,29.48181],[48.25385,29.48241],[48.25294,29.48277],[48.2517,29.48371],[48.25069,29.48404]]]}},{"type":"Feature","properties":{"id":"kw-islet-unnamed-osm-way-687403819","name_en":null,"name_ar":null,"feature_class":"islet","source":"OSM land polygons (osmdata.openstreetmap.de, generated from the OSM coastline 2026-09-23); names: OpenStreetMap (Geofabrik GCC extract dated 2026-09-22, via _raw/shared/osm_kuwait.gpkg)","license":"ODbL 1.0 (c) OpenStreetMap contributors","area_km2":0.3324},"geometry":{"type":"Polygon","coordinates":[[[48.02028,29.50229],[48.02015,29.50263],[48.0195,29.50362],[48.01918,29.50386],[48.01869,29.50382],[48.01839,29.50349],[48.01813,29.50274],[48.01815,29.50244],[48.01864,29.50242],[48.01871,29.50212],[48.018,29.50214],[48.01399,29.50332],[48.01367,29.50515],[48.01379,29.50704],[48.01491,29.50969],[48.01528,29.50969],[48.01794,29.50726],[48.01997,29.50418],[48.02074,29.50255],[48.02067,29.50212],[48.02028,29.50159],[48.01897,29.50095],[48.0182,29.50089],[48.01817,29.50109],[48.01905,29.50128],[48.0201,29.50188],[48.02028,29.50229]]]}},{"type":"Feature","properties":{"id":"kw-island-southern-island","name_en":"Southern Island","name_ar":"الجزيرة الجنوبية","feature_class":"island","source":"OSM land polygons (osmdata.openstreetmap.de, generated from the OSM coastline 2026-09-23); names: OpenStreetMap (Geofabrik GCC extract dated 2026-09-22, via _raw/shared/osm_kuwait.gpkg)","license":"ODbL 1.0 (c) OpenStreetMap contributors","area_km2":0.3281},"geometry":{"type":"Polygon","coordinates":[[[47.93735,29.40064],[47.93794,29.40023],[47.93811,29.39987],[47.93808,29.39898],[47.93749,29.39765],[47.93711,29.39778],[47.93761,29.39864],[47.93775,29.39923],[47.93761,29.39973],[47.93716,29.40004],[47.93593,29.40024],[47.93557,29.39986],[47.93569,29.39945],[47.93619,29.39875],[47.93647,29.39892],[47.93669,29.39871],[47.93608,29.39828],[47.93273,29.39683],[47.93009,29.39618],[47.92888,29.3961],[47.9288,29.39702],[47.92914,29.39844],[47.92962,29.39941],[47.93083,29.40088],[47.93183,29.40161],[47.93438,29.40134],[47.93735,29.40064]]]}},{"type":"Feature","properties":{"id":"kw-island-umm-al-maradim","name_en":"Umm al Maradim Island","name_ar":"جزيرة أم المرادم","feature_class":"islet","source":"OSM land polygons (osmdata.openstreetmap.de, generated from the OSM coastline 2026-09-23); names: OpenStreetMap (Geofabrik GCC extract dated 2026-09-22, via _raw/shared/osm_kuwait.gpkg)","license":"ODbL 1.0 (c) OpenStreetMap contributors","area_km2":0.1623},"geometry":{"type":"Polygon","coordinates":[[[48.65142,28.68248],[48.65219,28.68254],[48.65287,28.68289],[48.65326,28.68276],[48.65332,28.68203],[48.65309,28.68118],[48.65354,28.68037],[48.65345,28.67899],[48.65264,28.67821],[48.65258,28.67759],[48.65081,28.67764],[48.65074,28.67689],[48.65176,28.67639],[48.65057,28.6768],[48.65058,28.67733],[48.65032,28.67743],[48.65029,28.67732],[48.64968,28.67735],[48.65039,28.67868],[48.65048,28.67928],[48.65003,28.67987],[48.65006,28.68052],[48.65052,28.68173],[48.65142,28.68248]]]}},{"type":"Feature","properties":{"id":"kw-island-kubbar","name_en":"Kubbar Island","name_ar":"جزيرة كبر","feature_class":"island","source":"OSM land polygons (osmdata.openstreetmap.de, generated from the OSM coastline 2026-09-23); names: OpenStreetMap (Geofabrik GCC extract dated 2026-09-22, via _raw/shared/osm_kuwait.gpkg)","license":"ODbL 1.0 (c) OpenStreetMap contributors","area_km2":0.1416},"geometry":{"type":"Polygon","coordinates":[[[48.49231,29.074],[48.4945,29.07353],[48.49479,29.07163],[48.49324,29.07038],[48.4921,29.07029],[48.49078,29.07049],[48.49037,29.07092],[48.49032,29.07157],[48.49061,29.07252],[48.4914,29.07379],[48.49165,29.07396],[48.49231,29.074]]]}},{"type":"Feature","properties":{"id":"kw-island-auhah","name_en":"Auha Island","name_ar":"جزيرة عوهة","feature_class":"islet","source":"OSM land polygons (osmdata.openstreetmap.de, generated from the OSM coastline 2026-09-23); names: OpenStreetMap (Geofabrik GCC extract dated 2026-09-22, via _raw/shared/osm_kuwait.gpkg)","license":"ODbL 1.0 (c) OpenStreetMap contributors","area_km2":0.1126},"geometry":{"type":"Polygon","coordinates":[[[48.44267,29.37842],[48.44214,29.37764],[48.44009,29.37684],[48.4386,29.37651],[48.43814,29.37665],[48.43822,29.37765],[48.43744,29.37843],[48.43725,29.37885],[48.43741,29.379],[48.43798,29.37877],[48.43921,29.37917],[48.44116,29.37946],[48.44208,29.3794],[48.44257,29.37884],[48.44267,29.37842]]]}},{"type":"Feature","properties":{"id":"kw-island-qaruh","name_en":"Qaruh Island","name_ar":"جزيرة غاروه","feature_class":"island","source":"OSM land polygons (osmdata.openstreetmap.de, generated from the OSM coastline 2026-09-23); names: OpenStreetMap (Geofabrik GCC extract dated 2026-09-22, via _raw/shared/osm_kuwait.gpkg)","license":"ODbL 1.0 (c) OpenStreetMap contributors","area_km2":0.0345},"geometry":{"type":"Polygon","coordinates":[[[48.77528,28.81756],[48.77538,28.81806],[48.77606,28.81854],[48.77695,28.81828],[48.77758,28.81751],[48.77741,28.8171],[48.77685,28.81679],[48.77586,28.81669],[48.77553,28.81692],[48.77528,28.81756]]]}},{"type":"Feature","properties":{"id":"kw-islet-unnamed-osm-way-169995327","name_en":null,"name_ar":null,"feature_class":"islet","source":"OSM land polygons (osmdata.openstreetmap.de, generated from the OSM coastline 2026-09-23); names: OpenStreetMap (Geofabrik GCC extract dated 2026-09-22, via _raw/shared/osm_kuwait.gpkg)","license":"ODbL 1.0 (c) OpenStreetMap contributors","area_km2":0.0327},"geometry":{"type":"Polygon","coordinates":[[[48.02965,29.36369],[48.02929,29.36381],[48.02922,29.36416],[48.02947,29.36442],[48.02948,29.36505],[48.02911,29.36546],[48.02899,29.36614],[48.02865,29.36636],[48.02793,29.3665],[48.02783,29.36681],[48.02801,29.36706],[48.02851,29.36703],[48.0292,29.36675],[48.0299,29.36612],[48.03025,29.36503],[48.02995,29.36404],[48.02965,29.36369]]]}},{"type":"Feature","properties":{"id":"kw-islet-unnamed-osm-way-169999567","name_en":null,"name_ar":null,"feature_class":"islet","source":"OSM land polygons (osmdata.openstreetmap.de, generated from the OSM coastline 2026-09-23); names: OpenStreetMap (Geofabrik GCC extract dated 2026-09-22, via _raw/shared/osm_kuwait.gpkg)","license":"ODbL 1.0 (c) OpenStreetMap contributors","area_km2":0.0082},"geometry":{"type":"Polygon","coordinates":[[[48.05429,29.34342],[48.05362,29.34336],[48.051,29.34455],[48.05367,29.34358],[48.05417,29.34359],[48.0545,29.34377],[48.05429,29.34342]]]}},{"type":"Feature","properties":{"id":"kw-islet-unnamed-osm-way-12864152","name_en":null,"name_ar":null,"feature_class":"islet","source":"OSM land polygons (osmdata.openstreetmap.de, generated from the OSM coastline 2026-09-23); names: OpenStreetMap (Geofabrik GCC extract dated 2026-09-22, via _raw/shared/osm_kuwait.gpkg)","license":"ODbL 1.0 (c) OpenStreetMap contributors","area_km2":0.0028},"geometry":{"type":"Polygon","coordinates":[[[48.10085,29.34431],[48.10082,29.34415],[48.09957,29.34464],[48.09966,29.34481],[48.10085,29.34431]]]}},{"type":"Feature","properties":{"id":"kw-islet-unnamed-osm-way-169995326","name_en":null,"name_ar":null,"feature_class":"islet","source":"OSM land polygons (osmdata.openstreetmap.de, generated from the OSM coastline 2026-09-23); names: OpenStreetMap (Geofabrik GCC extract dated 2026-09-22, via _raw/shared/osm_kuwait.gpkg)","license":"ODbL 1.0 (c) OpenStreetMap contributors","area_km2":0.0014},"geometry":{"type":"Polygon","coordinates":[[[48.02797,29.3643],[48.02768,29.36441],[48.0278,29.36466],[48.02809,29.36454],[48.02797,29.3643]]]}},{"type":"Feature","properties":{"id":"kw-island-osm-relation-13006548","name_en":null,"name_ar":null,"feature_class":"island_attached_in_land_mask","source":"OpenStreetMap (Geofabrik GCC extract dated 2026-09-22, via _raw/shared/osm_kuwait.gpkg)","license":"ODbL 1.0 (c) OpenStreetMap contributors","area_km2":10.4437},"geometry":{"type":"Polygon","coordinates":[[[48.38693,28.65723],[48.38566,28.65643],[48.38506,28.65624],[48.38453,28.65627],[48.38426,28.65651],[48.38424,28.65678],[48.38422,28.65932],[48.3844,28.65933],[48.38422,28.65947],[48.38443,28.65948],[48.38441,28.65964],[48.38113,28.6595],[48.38122,28.65672],[48.38205,28.65672],[48.382,28.65621],[48.3814,28.65574],[48.38174,28.65477],[48.38087,28.65333],[48.37812,28.6474],[48.37706,28.64585],[48.37537,28.64374],[48.3743,28.64331],[48.37345,28.64339],[48.37259,28.64383],[48.37186,28.64524],[48.37169,28.64647],[48.37199,28.6489],[48.3725,28.65106],[48.37259,28.65247],[48.37222,28.6538],[48.37156,28.65517],[48.3714,28.65618],[48.37158,28.65719],[48.37225,28.65858],[48.37231,28.6597],[48.37209,28.66075],[48.37204,28.66208],[48.37242,28.66369],[48.37288,28.66472],[48.37295,28.66546],[48.37252,28.66626],[48.3715,28.66684],[48.3705,28.66683],[48.36925,28.6665],[48.36685,28.66635],[48.36651,28.66568],[48.36683,28.66526],[48.36821,28.66527],[48.37016,28.66572],[48.37096,28.66555],[48.37152,28.66498],[48.37147,28.66438],[48.37099,28.6638],[48.37036,28.66356],[48.3691,28.66339],[48.36875,28.66316],[48.36892,28.66265],[48.36999,28.66253],[48.37073,28.66219],[48.37097,28.66157],[48.37072,28.66095],[48.3704,28.66064],[48.36996,28.66053],[48.36813,28.66072],[48.36788,28.6603],[48.36806,28.65998],[48.36839,28.65987],[48.37042,28.6595],[48.37101,28.65884],[48.37092,28.65815],[48.37045,28.65761],[48.36983,28.65743],[48.36837,28.65785],[48.36803,28.65772],[48.36788,28.65732],[48.36824,28.65694],[48.36923,28.65651],[48.37006,28.6557],[48.37114,28.65353],[48.37111,28.65285],[48.37054,28.65236],[48.36956,28.65226],[48.36881,28.65287],[48.36851,28.65397],[48.36816,28.65432],[48.3675,28.65423],[48.36723,28.65361],[48.36778,28.65229],[48.36822,28.65169],[48.3689,28.6514],[48.37072,28.65156],[48.37124,28.65056],[48.37103,28.6498],[48.37053,28.64941],[48.36853,28.64932],[48.36816,28.64892],[48.3684,28.64859],[48.36981,28.64844],[48.37022,28.64827],[48.37078,28.64747],[48.37081,28.64712],[48.37057,28.64676],[48.3698,28.64621],[48.36795,28.64656],[48.36755,28.64649],[48.36733,28.64631],[48.36725,28.64579],[48.36766,28.64533],[48.36982,28.64534],[48.3708,28.64489],[48.3717,28.64337],[48.37286,28.64242],[48.37323,28.64177],[48.373,28.64083],[48.37228,28.64053],[48.37153,28.64058],[48.37109,28.64088],[48.37056,28.64158],[48.3694,28.64235],[48.36613,28.64375],[48.3654,28.64425],[48.36501,28.64508],[48.36483,28.64597],[48.36556,28.64875],[48.36546,28.6496],[48.36515,28.65014],[48.36463,28.65036],[48.3641,28.65029],[48.36235,28.64868],[48.36141,28.64872],[48.36079,28.64914],[48.36055,28.64981],[48.36062,28.65014],[48.36184,28.65185],[48.36298,28.65379],[48.36347,28.65492],[48.36347,28.65529],[48.36326,28.65563],[48.36268,28.65577],[48.36242,28.65568],[48.36179,28.65504],[48.36131,28.65484],[48.36067,28.65492],[48.36006,28.65521],[48.35995,28.65622],[48.36026,28.65658],[48.36148,28.65709],[48.36183,28.65755],[48.36181,28.65797],[48.35859,28.66331],[48.35828,28.66347],[48.35747,28.66344],[48.35711,28.66325],[48.35678,28.66262],[48.35684,28.66229],[48.35898,28.65864],[48.35895,28.65828],[48.3587,28.65795],[48.35811,28.65787],[48.35758,28.65812],[48.35577,28.66139],[48.35518,28.66168],[48.35474,28.66169],[48.35417,28.66146],[48.35384,28.66078],[48.35392,28.66042],[48.35578,28.65727],[48.3558,28.65688],[48.35556,28.65637],[48.35512,28.65609],[48.35462,28.65602],[48.35323,28.65643],[48.35103,28.65759],[48.35061,28.65815],[48.35071,28.6598],[48.35151,28.6617],[48.35308,28.6639],[48.35463,28.66524],[48.35552,28.6658],[48.3581,28.66686],[48.35986,28.667],[48.3613,28.66684],[48.36508,28.66582],[48.36576,28.66635],[48.36584,28.66671],[48.36571,28.66695],[48.36469,28.66765],[48.36292,28.66844],[48.36124,28.66883],[48.35914,28.66899],[48.35878,28.66913],[48.35813,28.66979],[48.35779,28.67096],[48.35744,28.67129],[48.35698,28.67141],[48.35617,28.67123],[48.3558,28.6708],[48.35592,28.66923],[48.35569,28.66859],[48.3532,28.66653],[48.35266,28.66633],[48.35186,28.66644],[48.35153,28.66688],[48.35155,28.66764],[48.35278,28.67016],[48.35623,28.67457],[48.35621,28.67476],[48.35595,28.6749],[48.35669,28.67628],[48.35762,28.67599],[48.35907,28.67697],[48.36049,28.67724],[48.36243,28.67693],[48.36384,28.67716],[48.36439,28.67748],[48.36407,28.67834],[48.36645,28.67915],[48.36653,28.67893],[48.36635,28.67881],[48.36654,28.67888],[48.36683,28.67826],[48.36607,28.678],[48.36646,28.67711],[48.37145,28.67916],[48.37085,28.68086],[48.37109,28.6813],[48.37119,28.68123],[48.37155,28.68157],[48.37147,28.68167],[48.37275,28.68219],[48.37438,28.68381],[48.37642,28.68448],[48.37925,28.68635],[48.3801,28.68658],[48.3806,28.68655],[48.38099,28.68626],[48.38124,28.68539],[48.38153,28.68523],[48.38149,28.68436],[48.38167,28.68378],[48.38183,28.68358],[48.38248,28.68376],[48.38246,28.68287],[48.38332,28.68088],[48.38465,28.67911],[48.38578,28.67812],[48.38785,28.67573],[48.38855,28.67366],[48.38958,28.67172],[48.39058,28.66878],[48.39163,28.66656],[48.39241,28.66528],[48.39284,28.66494],[48.39379,28.66364],[48.394,28.66256],[48.3933,28.66221],[48.39275,28.66171],[48.39191,28.65946],[48.39181,28.65874],[48.39204,28.65802],[48.38835,28.65782],[48.38693,28.65723]]]}},{"type":"Feature","properties":{"id":"kw-islet-osm-way-1298092811","name_en":"Bubyan Island","name_ar":"جزيرة بوبيان","feature_class":"islet_not_in_land_mask","source":"OpenStreetMap (Geofabrik GCC extract dated 2026-09-22, via _raw/shared/osm_kuwait.gpkg)","license":"ODbL 1.0 (c) OpenStreetMap contributors","area_km2":0.6112},"geometry":{"type":"Polygon","coordinates":[[[48.09105,29.87185],[48.09099,29.87299],[48.09174,29.87461],[48.09223,29.87623],[48.09323,29.87757],[48.09477,29.87828],[48.09638,29.87838],[48.09769,29.87935],[48.09905,29.87995],[48.10047,29.87984],[48.10246,29.87935],[48.10301,29.87843],[48.10215,29.87784],[48.1019,29.87676],[48.10041,29.87482],[48.09873,29.87374],[48.09229,29.87153],[48.09105,29.87185]]]}},{"type":"Feature","properties":{"id":"kw-islet-osm-way-1298092810","name_en":"Bubyan Island","name_ar":"جزيرة بوبيان","feature_class":"islet_not_in_land_mask","source":"OpenStreetMap (Geofabrik GCC extract dated 2026-09-22, via _raw/shared/osm_kuwait.gpkg)","license":"ODbL 1.0 (c) OpenStreetMap contributors","area_km2":0.6043},"geometry":{"type":"Polygon","coordinates":[[[48.10556,29.88025],[48.10441,29.88058],[48.0998,29.88054],[48.09629,29.88068],[48.09541,29.8815],[48.09613,29.88245],[48.09849,29.88393],[48.10079,29.88589],[48.10217,29.88627],[48.10387,29.88555],[48.10595,29.88421],[48.11029,29.88239],[48.11149,29.88206],[48.11215,29.88129],[48.11072,29.88072],[48.10737,29.88053],[48.10556,29.88025]]]}},{"type":"Feature","properties":{"id":"kw-islet-osm-way-1298092809","name_en":"Bubyan Island","name_ar":"جزيرة بوبيان","feature_class":"islet_not_in_land_mask","source":"OpenStreetMap (Geofabrik GCC extract dated 2026-09-22, via _raw/shared/osm_kuwait.gpkg)","license":"ODbL 1.0 (c) OpenStreetMap contributors","area_km2":0.2624},"geometry":{"type":"Polygon","coordinates":[[[48.02974,29.8352],[48.02838,29.83645],[48.02806,29.83706],[48.02768,29.83785],[48.02722,29.83953],[48.02729,29.84036],[48.02824,29.84082],[48.02943,29.84066],[48.03027,29.84026],[48.03304,29.83871],[48.03363,29.83813],[48.03367,29.83755],[48.03279,29.8363],[48.03188,29.83538],[48.03114,29.83514],[48.02974,29.8352]]]}},{"type":"Feature","properties":{"id":"kw-islet-osm-way-1298092808","name_en":"Bubyan Island","name_ar":"جزيرة بوبيان","feature_class":"islet_not_in_land_mask","source":"OpenStreetMap (Geofabrik GCC extract dated 2026-09-22, via _raw/shared/osm_kuwait.gpkg)","license":"ODbL 1.0 (c) OpenStreetMap contributors","area_km2":0.1199},"geometry":{"type":"Polygon","coordinates":[[[48.07956,29.88605],[48.0789,29.88706],[48.07879,29.8883],[48.07896,29.88935],[48.07994,29.88997],[48.08137,29.88945],[48.08197,29.8872],[48.08219,29.88586],[48.08104,29.88533],[48.07956,29.88605]]]}},{"type":"Feature","properties":{"id":"kw-island-green-island","name_en":"Green Island","name_ar":"الجزيرة الخضراء","feature_class":"island_attached_in_land_mask","source":"OpenStreetMap (Geofabrik GCC extract dated 2026-09-22, via _raw/shared/osm_kuwait.gpkg)","license":"ODbL 1.0 (c) OpenStreetMap contributors","area_km2":0.0885},"geometry":{"type":"Polygon","coordinates":[[[48.02792,29.36295],[48.02697,29.36312],[48.02626,29.36353],[48.02582,29.3641],[48.02557,29.36493],[48.02573,29.3658],[48.02622,29.36649],[48.02702,29.36698],[48.02756,29.36698],[48.02795,29.36633],[48.0279,29.36607],[48.02716,29.36561],[48.02729,29.36536],[48.02803,29.36508],[48.02795,29.3649],[48.02777,29.36496],[48.02757,29.36434],[48.02827,29.36419],[48.02848,29.36389],[48.02894,29.36395],[48.02921,29.3638],[48.02938,29.36346],[48.02891,29.36314],[48.02792,29.36295]]]}},{"type":"Feature","properties":{"id":"kw-islet-osm-way-998089236","name_en":null,"name_ar":null,"feature_class":"inland_islet","source":"OpenStreetMap (Geofabrik GCC extract dated 2026-09-22, via _raw/shared/osm_kuwait.gpkg)","license":"ODbL 1.0 (c) OpenStreetMap contributors","area_km2":0.0003},"geometry":{"type":"Polygon","coordinates":[[[48.01746,28.56513],[48.01744,28.5652],[48.0177,28.56525],[48.01746,28.56513]]]}},{"type":"Feature","properties":{"id":"kw-islet-osm-way-998089235","name_en":null,"name_ar":null,"feature_class":"inland_islet","source":"OpenStreetMap (Geofabrik GCC extract dated 2026-09-22, via _raw/shared/osm_kuwait.gpkg)","license":"ODbL 1.0 (c) OpenStreetMap contributors","area_km2":0.0002},"geometry":{"type":"Polygon","coordinates":[[[48.01768,28.5648],[48.01766,28.56488],[48.01783,28.56483],[48.01768,28.5648]]]}},{"type":"Feature","properties":{"id":"kw-islet-osm-way-998091462","name_en":null,"name_ar":null,"feature_class":"inland_islet","source":"OpenStreetMap (Geofabrik GCC extract dated 2026-09-22, via _raw/shared/osm_kuwait.gpkg)","license":"ODbL 1.0 (c) OpenStreetMap contributors","area_km2":0.0002},"geometry":{"type":"Polygon","coordinates":[[[48.18558,28.55995],[48.18558,28.56002],[48.18574,28.56005],[48.18558,28.55995]]]}},{"type":"Feature","properties":{"id":"kw-island-akkaz","name_en":"Akkaz","name_ar":"عكاز","feature_class":"island_attached_in_land_mask","source":"OpenStreetMap (Geofabrik GCC extract dated 2026-09-22, via _raw/shared/osm_kuwait.gpkg)","license":"ODbL 1.0 (c) OpenStreetMap contributors","area_km2":null},"geometry":{"type":"Point","coordinates":[47.91462,29.36008]}}],"metadata":{"derived_from":"vector/coast/islands.geojson","simplification":"Douglas-Peucker, 10 m tolerance in LAEA(29.3N,47.7E), topology preserved; 5-decimal coordinates; measured max deviation from source 10.9 m","dropped_features":[],"note":"A web view of the full-resolution file named in derived_from. Measure from that file, not this one."}}