{"type":"FeatureCollection","features":[{"type":"Feature","properties":{"id":"kw-land","name_en":"Kuwait","name_ar":"الكويت","feature_class":"country_land_only","source":"OpenStreetMap (Geofabrik GCC extract dated 2026-09-22) intersected with OSM land polygons (osmdata.openstreetmap.de, coastline of 2026-09-23)","license":"ODbL 1.0 (c) OpenStreetMap contributors","area_km2":17328.397882205598},"geometry":{"type":"MultiPolygon","coordinates":[[[[47.70446,28.52436],[47.70904,28.54309],[47.65398,28.59569],[47.63694,28.62789],[47.63467,28.63052],[47.60814,28.65261],[47.60758,28.65245],[47.60537,28.65489],[47.59377,28.69089],[47.59081,28.70786],[47.59003,28.71612],[47.59105,28.72735],[47.59391,28.73674],[47.59789,28.75675],[47.59781,28.76154],[47.59684,28.77521],[47.5847,28.83561],[47.55471,28.87178],[47.54826,28.88199],[47.54595,28.88642],[47.54305,28.89451],[47.5395,28.8997],[47.50947,28.93441],[47.50726,28.93782],[47.49945,28.95712],[47.49946,28.95919],[47.49604,28.96668],[47.47915,28.9861],[47.47048,28.99458],[47.46866,28.99681],[47.46517,28.99992],[47.44214,29.00152],[47.39336,29.00794],[47.28527,29.01915],[47.26746,29.02181],[47.22436,29.02605],[47.20376,29.02726],[47.1564,29.03499],[47.04381,29.04699],[47.03543,29.04821],[47.00178,29.05165],[46.99426,29.05281],[46.94819,29.05633],[46.93302,29.06],[46.92853,29.05987],[46.91139,29.06116],[46.8755,29.0647],[46.86353,29.0668],[46.84106,29.06816],[46.78274,29.07613],[46.70309,29.08508],[46.56312,29.10005],[46.55268,29.10027],[46.55303,29.10116],[46.5571,29.10298],[46.56679,29.11961],[46.58002,29.1335],[46.59425,29.14691],[46.60927,29.15894],[46.62778,29.16888],[46.66045,29.19693],[46.67107,29.20729],[46.68364,29.22176],[46.69296,29.23452],[46.70346,29.25097],[46.71614,29.26488],[46.72759,29.27964],[46.76676,29.32196],[46.77573,29.33834],[46.78423,29.35542],[46.79776,29.36902],[46.81454,29.38076],[46.82613,29.39569],[46.84241,29.41294],[46.86647,29.4373],[46.87652,29.45527],[46.8925,29.4905],[46.90273,29.50639],[46.90447,29.52504],[46.91876,29.5395],[46.92715,29.55577],[46.93903,29.57104],[46.9547,29.60412],[46.97012,29.61818],[46.9775,29.63513],[46.98874,29.64951],[46.99809,29.66347],[47.00338,29.68342],[47.00437,29.70367],[47.00682,29.72218],[47.01737,29.73825],[47.03142,29.75237],[47.03824,29.76958],[47.04834,29.78527],[47.05465,29.80321],[47.06106,29.81621],[47.08161,29.85152],[47.08869,29.86855],[47.1007,29.90301],[47.10435,29.92148],[47.11282,29.93775],[47.12371,29.95336],[47.12951,29.97091],[47.13936,29.9868],[47.15559,30.00033],[47.17252,30.01738],[47.18955,30.02835],[47.20845,30.03624],[47.22713,30.04321],[47.2476,30.04861],[47.26837,30.052],[47.28748,30.05873],[47.30517,30.06867],[47.33884,30.09104],[47.36109,30.09723],[47.37119,30.10357],[47.41119,30.10381],[47.68295,30.10324],[47.75136,30.07689],[47.83354,30.04766],[47.8534,30.03946],[47.86443,30.03461],[47.88278,30.02556],[47.912,30.00993],[47.92653,30.00254],[47.9496,29.99195],[47.96065,29.99721],[47.96091,29.99521],[47.96041,29.99444],[47.95982,29.99442],[47.9603,29.99341],[47.96105,29.99291],[47.96072,29.99419],[47.96148,29.99343],[47.96188,29.98984],[47.9625,29.98909],[47.96299,29.9873],[47.96644,29.98821],[47.96356,29.99249],[47.96547,29.99327],[47.97405,29.99451],[47.97745,29.99365],[47.97933,29.99384],[47.98437,29.99332],[47.99883,29.99025],[48.00382,29.9886],[48.01109,29.98795],[48.01292,29.98667],[48.01283,29.98454],[48.01116,29.98277],[48.00821,29.97578],[48.00524,29.96519],[48.00486,29.96079],[48.00652,29.95372],[48.00929,29.94813],[48.00985,29.94547],[48.00937,29.94088],[48.00799,29.93691],[48.00819,29.93399],[48.00921,29.93312],[48.01133,29.92924],[48.01257,29.92499],[48.01597,29.91859],[48.01779,29.91317],[48.017,29.90663],[48.01422,29.89996],[48.01385,29.89814],[48.01329,29.89815],[48.01112,29.9],[48.01014,29.89981],[48.01065,29.89829],[48.01203,29.89816],[48.01256,29.89733],[48.01229,29.89459],[48.01149,29.89325],[48.01145,29.891],[48.01035,29.88979],[48.00874,29.8901],[48.00791,29.88975],[48.00854,29.889],[48.00816,29.88794],[48.00952,29.88724],[48.00936,29.887],[48.00831,29.88729],[48.00817,29.88695],[48.00934,29.88634],[48.00987,29.88505],[48.00946,29.88292],[48.01003,29.87744],[48.01009,29.87381],[48.00954,29.87359],[48.0098,29.87066],[48.01168,29.86407],[48.01194,29.86091],[48.01371,29.85368],[48.01801,29.8397],[48.01925,29.83779],[48.02115,29.83346],[48.02184,29.83147],[48.02138,29.83132],[48.02553,29.8235],[48.02588,29.82229],[48.02561,29.82206],[48.0316,29.81301],[48.03941,29.79934],[48.0457,29.78525],[48.04723,29.77833],[48.05061,29.77358],[48.05359,29.76572],[48.0546,29.76423],[48.06018,29.75963],[48.07177,29.75654],[48.07564,29.75439],[48.07587,29.75359],[48.07451,29.75366],[48.07411,29.75317],[48.07793,29.74586],[48.08019,29.74242],[48.08164,29.74196],[48.08392,29.74207],[48.0883,29.74332],[48.08939,29.74222],[48.09085,29.7418],[48.09296,29.74183],[48.09376,29.74244],[48.09523,29.742],[48.09513,29.74171],[48.09563,29.7417],[48.09695,29.74025],[48.09908,29.73954],[48.10225,29.73501],[48.10485,29.7323],[48.10597,29.72999],[48.10598,29.72782],[48.10673,29.72754],[48.10589,29.7267],[48.1049,29.72103],[48.10524,29.72083],[48.10439,29.71992],[48.10399,29.71814],[48.10422,29.71603],[48.10493,29.7144],[48.10434,29.71333],[48.10442,29.71131],[48.1056,29.70393],[48.10707,29.70012],[48.10693,29.69885],[48.10737,29.69778],[48.11054,29.6919],[48.11181,29.69099],[48.11313,29.68916],[48.11471,29.68868],[48.11483,29.68698],[48.11692,29.68114],[48.11781,29.67741],[48.12188,29.67049],[48.12465,29.66328],[48.12577,29.662],[48.12834,29.66048],[48.12926,29.65849],[48.13111,29.65664],[48.13211,29.65133],[48.13708,29.64085],[48.14067,29.63452],[48.14423,29.6243],[48.1454,29.62255],[48.14767,29.62041],[48.15007,29.62027],[48.15179,29.61889],[48.15241,29.61185],[48.1535,29.60941],[48.15459,29.60517],[48.15569,29.60432],[48.15654,29.60411],[48.15704,29.6044],[48.15727,29.6041],[48.15622,29.60254],[48.15571,29.60013],[48.16034,29.58918],[48.16074,29.58892],[48.16145,29.58913],[48.1609,29.58862],[48.16123,29.58748],[48.16352,29.58426],[48.16663,29.58151],[48.1689,29.57781],[48.17118,29.5758],[48.17291,29.57486],[48.17493,29.5714],[48.17632,29.57045],[48.1754,29.56992],[48.17532,29.56933],[48.17397,29.56917],[48.17392,29.56788],[48.17619,29.5681],[48.17751,29.56781],[48.18207,29.56074],[48.18401,29.55881],[48.18698,29.55257],[48.18792,29.54689],[48.18766,29.5462],[48.18694,29.5459],[48.18397,29.54178],[48.18262,29.53803],[48.18,29.53691],[48.17736,29.53426],[48.17346,29.52759],[48.17199,29.52456],[48.16951,29.5174],[48.16753,29.51451],[48.16639,29.51521],[48.16541,29.51734],[48.16393,29.51886],[48.16269,29.52151],[48.15951,29.52536],[48.15067,29.53211],[48.14894,29.53439],[48.14456,29.53779],[48.14402,29.53779],[48.14327,29.53878],[48.13797,29.54117],[48.13328,29.54408],[48.11742,29.55246],[48.10059,29.55974],[48.09963,29.56048],[48.09488,29.56217],[48.0937,29.56228],[48.09369,29.56279],[48.09428,29.56255],[48.09427,29.56306],[48.09368,29.56305],[48.09366,29.56356],[48.0922,29.56327],[48.09219,29.56379],[48.0913,29.5639],[48.09099,29.56453],[48.08746,29.56471],[48.08714,29.56535],[48.08568,29.56519],[48.08034,29.56674],[48.07917,29.56659],[48.07901,29.5671],[48.07799,29.56682],[48.07561,29.56779],[48.06733,29.56941],[48.06585,29.56976],[48.06524,29.57026],[48.06229,29.57058],[48.05903,29.5718],[48.05638,29.57174],[48.05578,29.57211],[48.05431,29.57221],[48.05192,29.57344],[48.04538,29.57334],[48.044,29.57206],[48.04237,29.57152],[48.041,29.57136],[48.04101,29.57169],[48.04178,29.57152],[48.04306,29.57211],[48.04361,29.57316],[48.04308,29.57392],[48.04163,29.57401],[48.04184,29.57498],[48.04158,29.57503],[48.0414,29.57427],[48.03718,29.57497],[48.03724,29.57557],[48.03678,29.57557],[48.03537,29.5748],[48.03621,29.5754],[48.03542,29.57651],[48.03388,29.57702],[48.02916,29.57743],[48.02797,29.57791],[47.99165,29.57278],[47.98498,29.5714],[47.97783,29.5693],[47.956,29.56044],[47.94444,29.55519],[47.93649,29.55034],[47.92404,29.54396],[47.91181,29.5395],[47.90223,29.53398],[47.9009,29.5329],[47.89734,29.53132],[47.8957,29.53009],[47.87977,29.52244],[47.86916,29.5157],[47.86545,29.51376],[47.85139,29.50454],[47.84727,29.50126],[47.84688,29.5001],[47.83306,29.48926],[47.82068,29.47732],[47.81894,29.4762],[47.81478,29.47451],[47.81258,29.4731],[47.80894,29.46996],[47.80456,29.46689],[47.80203,29.46447],[47.79771,29.45962],[47.79543,29.45518],[47.79296,29.45178],[47.79061,29.44659],[47.78391,29.43778],[47.77955,29.43302],[47.77281,29.42793],[47.77081,29.42527],[47.76907,29.42375],[47.76707,29.41948],[47.76264,29.41539],[47.76135,29.41452],[47.75982,29.41476],[47.75814,29.41425],[47.7573,29.41448],[47.75627,29.41373],[47.75557,29.41212],[47.75487,29.40741],[47.75233,29.40378],[47.75165,29.40221],[47.75053,29.4011],[47.75073,29.39989],[47.75003,29.39968],[47.74984,29.39824],[47.74914,29.3971],[47.74845,29.39682],[47.74751,29.39747],[47.74539,29.39789],[47.74461,29.39713],[47.74385,29.39711],[47.74398,29.39568],[47.74343,29.39719],[47.74255,29.39759],[47.74336,29.39993],[47.7428,29.40051],[47.74302,29.40149],[47.7426,29.40225],[47.73982,29.40413],[47.73606,29.40472],[47.73348,29.40418],[47.72894,29.40395],[47.7285,29.40282],[47.72481,29.39952],[47.72072,29.39886],[47.71901,29.39785],[47.71805,29.39787],[47.71778,29.39677],[47.71488,29.39387],[47.71443,29.38775],[47.71485,29.38667],[47.71387,29.3849],[47.71407,29.38381],[47.71304,29.38337],[47.7129,29.38046],[47.71204,29.37996],[47.71002,29.38006],[47.70948,29.3794],[47.70692,29.37833],[47.70208,29.37965],[47.70126,29.37934],[47.70081,29.37862],[47.70059,29.3763],[47.70146,29.37166],[47.70214,29.37047],[47.70232,29.36749],[47.70269,29.36666],[47.70397,29.3658],[47.70379,29.3649],[47.70514,29.36189],[47.70432,29.36004],[47.70723,29.3588],[47.71061,29.35915],[47.71162,29.35755],[47.71204,29.35842],[47.71525,29.35821],[47.71456,29.35789],[47.71514,29.35747],[47.71787,29.35754],[47.71797,29.35821],[47.7216,29.35939],[47.7225,29.36041],[47.72249,29.35965],[47.72293,29.35921],[47.72583,29.35921],[47.72518,29.35873],[47.72551,29.35821],[47.72471,29.35783],[47.72496,29.35668],[47.72618,29.35674],[47.72721,29.35602],[47.72896,29.35644],[47.7297,29.3569],[47.73024,29.35867],[47.73289,29.35983],[47.73357,29.36067],[47.73527,29.36153],[47.73984,29.36497],[47.74212,29.36567],[47.7431,29.36638],[47.74363,29.36752],[47.7414,29.36888],[47.74229,29.36948],[47.74395,29.36803],[47.74482,29.36946],[47.74434,29.36968],[47.74462,29.3698],[47.74428,29.37034],[47.7435,29.37072],[47.74233,29.37051],[47.74151,29.36964],[47.74177,29.37026],[47.74238,29.37069],[47.74407,29.37125],[47.74439,29.37205],[47.74516,29.37108],[47.74506,29.3721],[47.74585,29.37238],[47.74609,29.37139],[47.74537,29.37128],[47.74504,29.36998],[47.74779,29.37142],[47.74786,29.37169],[47.7461,29.37233],[47.74682,29.3732],[47.74759,29.37216],[47.7485,29.37177],[47.74808,29.37287],[47.74708,29.37351],[47.74678,29.37328],[47.74776,29.37412],[47.75021,29.37407],[47.74992,29.37367],[47.74801,29.37396],[47.748,29.37321],[47.74877,29.37187],[47.75132,29.37153],[47.75443,29.37492],[47.75312,29.37469],[47.75256,29.37415],[47.7529,29.37401],[47.75105,29.37326],[47.75281,29.3745],[47.75283,29.37546],[47.75432,29.37635],[47.75513,29.37575],[47.75665,29.37541],[47.75661,29.37355],[47.75621,29.37428],[47.75549,29.37418],[47.75469,29.3746],[47.7517,29.37128],[47.75952,29.36901],[47.75793,29.37283],[47.75814,29.37403],[47.75762,29.37428],[47.75781,29.37471],[47.75864,29.37419],[47.76121,29.37368],[47.76326,29.37121],[47.76625,29.37055],[47.76968,29.37048],[47.76923,29.37324],[47.77032,29.37036],[47.77209,29.36984],[47.77532,29.37049],[47.77619,29.37088],[47.77629,29.37138],[47.78195,29.373],[47.78289,29.37427],[47.78254,29.37632],[47.78391,29.3765],[47.78486,29.3711],[47.78577,29.37084],[47.78731,29.37106],[47.78809,29.37156],[47.78716,29.37693],[47.79039,29.37738],[47.79313,29.37868],[47.79243,29.38382],[47.79115,29.38659],[47.7929,29.38725],[47.79513,29.38325],[47.79834,29.38654],[47.79895,29.38624],[47.7984,29.38637],[47.79739,29.38536],[47.7978,29.38505],[47.79696,29.38417],[47.7973,29.38331],[47.79556,29.38276],[47.79572,29.38236],[47.79668,29.38265],[47.79687,29.38223],[47.7959,29.38191],[47.79607,29.38151],[47.79704,29.38184],[47.79738,29.381],[47.79774,29.38112],[47.7974,29.38197],[47.79795,29.38118],[47.79833,29.38128],[47.79799,29.38214],[47.79854,29.38135],[47.79891,29.38147],[47.79856,29.38233],[47.79965,29.38184],[47.7999,29.38212],[47.7991,29.38269],[47.80006,29.38225],[47.80031,29.38251],[47.79954,29.38311],[47.80045,29.38265],[47.80071,29.38294],[47.80007,29.38365],[47.80086,29.38308],[47.80112,29.38334],[47.80032,29.38392],[47.80102,29.38479],[47.79933,29.38712],[47.80118,29.3848],[47.80209,29.38237],[47.79996,29.3801],[47.80071,29.37165],[47.80349,29.37145],[47.80385,29.37051],[47.80503,29.3712],[47.80518,29.37197],[47.806,29.37249],[47.83465,29.38291],[47.83801,29.38496],[47.83865,29.38606],[47.83743,29.38904],[47.83432,29.38933],[47.8329,29.39118],[47.83562,29.39122],[47.83555,29.3916],[47.83166,29.39201],[47.83224,29.39226],[47.83217,29.3929],[47.8332,29.39212],[47.83377,29.39212],[47.83373,29.39255],[47.83456,29.39197],[47.83515,29.392],[47.83386,29.39344],[47.83186,29.39355],[47.83368,29.39391],[47.83296,29.39525],[47.83519,29.39283],[47.83685,29.39303],[47.83761,29.39276],[47.83543,29.39267],[47.83841,29.38825],[47.83908,29.38596],[47.84045,29.38608],[47.84128,29.38654],[47.83988,29.38992],[47.83977,29.39058],[47.84016,29.3908],[47.84101,29.39063],[47.84249,29.38675],[47.8469,29.38696],[47.84746,29.38749],[47.8474,29.38643],[47.8486,29.38611],[47.84759,29.38418],[47.84833,29.38106],[47.84733,29.38067],[47.84597,29.38088],[47.83672,29.37674],[47.83453,29.37664],[47.83005,29.37379],[47.82639,29.37281],[47.82603,29.37223],[47.82545,29.37246],[47.82542,29.37173],[47.82484,29.3716],[47.82536,29.37024],[47.82443,29.36995],[47.82379,29.37028],[47.82311,29.36986],[47.82356,29.36902],[47.81984,29.36426],[47.82018,29.3639],[47.81924,29.36323],[47.81921,29.36191],[47.81885,29.36167],[47.81676,29.36226],[47.81659,29.3602],[47.81722,29.35731],[47.81729,29.35838],[47.81839,29.35857],[47.81909,29.35824],[47.81932,29.35765],[47.81908,29.35703],[47.81819,29.35655],[47.82318,29.35725],[47.82419,29.35632],[47.82528,29.35414],[47.82571,29.34953],[47.82481,29.3472],[47.82391,29.34678],[47.82055,29.34357],[47.82185,29.34351],[47.82236,29.34253],[47.82147,29.34216],[47.82087,29.34236],[47.82062,29.34295],[47.82016,29.34288],[47.81967,29.34091],[47.81981,29.33826],[47.81813,29.33273],[47.81834,29.33247],[47.82027,29.33286],[47.82046,29.33238],[47.8179,29.33156],[47.81815,29.33079],[47.81889,29.3301],[47.81875,29.32947],[47.82013,29.3271],[47.82234,29.32462],[47.82472,29.32351],[47.82533,29.32476],[47.82623,29.3254],[47.82718,29.32442],[47.82874,29.32363],[47.82967,29.32392],[47.83043,29.32359],[47.8305,29.32139],[47.83215,29.32166],[47.83437,29.32122],[47.83707,29.32123],[47.84013,29.32227],[47.84494,29.32008],[47.84642,29.32001],[47.84783,29.31928],[47.85,29.3198],[47.85535,29.31891],[47.85782,29.32033],[47.85956,29.31964],[47.8612,29.31955],[47.86313,29.31999],[47.86392,29.32243],[47.86568,29.32361],[47.86841,29.32329],[47.87135,29.32343],[47.87876,29.326],[47.88093,29.32716],[47.88249,29.32749],[47.88423,29.32757],[47.88634,29.32544],[47.88828,29.32611],[47.88979,29.32701],[47.8903,29.32849],[47.8924,29.32953],[47.89778,29.33348],[47.9026,29.33492],[47.90298,29.33564],[47.90252,29.33701],[47.90392,29.33769],[47.90489,29.33754],[47.90585,29.33787],[47.90496,29.33921],[47.9051,29.33997],[47.90685,29.34174],[47.90779,29.34189],[47.91052,29.34342],[47.91033,29.34431],[47.91126,29.34375],[47.91246,29.34451],[47.91538,29.34528],[47.91555,29.34547],[47.91299,29.34729],[47.90055,29.35434],[47.90096,29.35551],[47.9045,29.35824],[47.9071,29.3594],[47.90935,29.361],[47.91312,29.36187],[47.91829,29.36041],[47.9202,29.36038],[47.92469,29.36261],[47.92613,29.36104],[47.92754,29.36074],[47.93228,29.35852],[47.93217,29.35803],[47.93267,29.35756],[47.92969,29.35879],[47.92823,29.35612],[47.92883,29.35535],[47.92832,29.355],[47.92771,29.35579],[47.92556,29.35449],[47.92443,29.35587],[47.92366,29.35545],[47.92482,29.35399],[47.92403,29.35347],[47.9228,29.35495],[47.92205,29.35445],[47.9231,29.35314],[47.92261,29.35284],[47.92141,29.35424],[47.921,29.35402],[47.92162,29.35326],[47.92081,29.35389],[47.91898,29.35275],[47.91941,29.35189],[47.91875,29.35267],[47.91804,29.35221],[47.91889,29.35107],[47.92078,29.35079],[47.92061,29.35008],[47.91858,29.35041],[47.91842,29.34933],[47.92224,29.34872],[47.9226,29.34824],[47.92094,29.34723],[47.9216,29.34637],[47.92329,29.34742],[47.92366,29.34699],[47.92198,29.34592],[47.92263,29.3451],[47.92441,29.34622],[47.92386,29.34563],[47.92449,29.34489],[47.92511,29.34529],[47.9248,29.34591],[47.92523,29.34538],[47.92921,29.3477],[47.92838,29.34824],[47.92529,29.34631],[47.92501,29.34661],[47.92818,29.34852],[47.93634,29.35333],[47.9363,29.35293],[47.93488,29.3521],[47.93512,29.3517],[47.9362,29.35267],[47.93648,29.35231],[47.9374,29.35257],[47.93692,29.35383],[47.93759,29.35262],[47.94128,29.35383],[47.94109,29.35518],[47.94214,29.35583],[47.94208,29.35612],[47.9424,29.35563],[47.94364,29.3566],[47.94743,29.35709],[47.94872,29.35764],[47.95582,29.36208],[47.95632,29.36271],[47.9562,29.36336],[47.95571,29.36375],[47.95586,29.36414],[47.95493,29.36412],[47.95622,29.36435],[47.95739,29.36515],[47.95711,29.36551],[47.95874,29.36609],[47.96039,29.36736],[47.96062,29.36784],[47.96016,29.36942],[47.96116,29.37029],[47.96087,29.37059],[47.9626,29.37138],[47.96343,29.37221],[47.96299,29.37257],[47.9636,29.37234],[47.96527,29.37426],[47.96505,29.3745],[47.96349,29.37388],[47.9629,29.37272],[47.96302,29.37364],[47.96391,29.37427],[47.96521,29.37459],[47.96602,29.37533],[47.96615,29.38195],[47.97009,29.38509],[47.97208,29.38508],[47.9735,29.38376],[47.97206,29.38225],[47.97264,29.3818],[47.97526,29.38424],[47.97526,29.38464],[47.97351,29.38461],[47.97341,29.38486],[47.97584,29.38479],[47.97635,29.38555],[47.97638,29.38673],[47.97649,29.38551],[47.97597,29.38474],[47.97681,29.38383],[47.97891,29.38526],[47.97763,29.38702],[47.97696,29.38672],[47.98032,29.3908],[47.98405,29.39159],[47.98438,29.3914],[47.98409,29.38989],[47.98175,29.38909],[47.97996,29.3874],[47.98089,29.38647],[47.98433,29.38855],[47.98378,29.38945],[47.98435,29.38972],[47.98495,29.38948],[47.98482,29.38974],[47.98575,29.39034],[47.98541,29.39094],[47.98624,29.39015],[47.98768,29.39042],[47.98876,29.39098],[47.98867,29.39133],[47.98934,29.39172],[47.98927,29.3924],[47.98949,29.39183],[47.99038,29.39203],[47.9899,29.39267],[47.99127,29.39164],[47.99317,29.39199],[47.99682,29.39158],[47.99956,29.39225],[48.00108,29.39114],[48.00347,29.39197],[48.00386,29.39258],[48.00343,29.39312],[48.00394,29.39332],[48.00531,29.39275],[48.00583,29.39166],[48.00556,29.39071],[48.00367,29.38893],[48.00425,29.38828],[48.00369,29.38744],[48.0038,29.38513],[48.00436,29.38492],[48.00389,29.38459],[48.00404,29.38306],[48.00452,29.38154],[48.00514,29.38137],[48.00422,29.38081],[48.00391,29.37987],[48.00521,29.37849],[48.00787,29.37978],[48.009,29.37963],[48.00792,29.37967],[48.00599,29.37879],[48.00651,29.37763],[48.00861,29.37854],[48.00868,29.37901],[48.00921,29.37929],[48.00874,29.37844],[48.0057,29.37707],[48.00647,29.37554],[48.00704,29.37543],[48.00678,29.37493],[48.0074,29.37365],[48.00838,29.37368],[48.00934,29.37227],[48.01222,29.37056],[48.01327,29.37037],[48.0142,29.37101],[48.01438,29.36969],[48.01587,29.3687],[48.02067,29.3677],[48.02199,29.36781],[48.02183,29.36695],[48.02351,29.36542],[48.02556,29.36529],[48.02622,29.36649],[48.02756,29.36698],[48.02795,29.36616],[48.02716,29.36554],[48.02803,29.36508],[48.02777,29.36496],[48.02757,29.36434],[48.02904,29.36392],[48.02938,29.36346],[48.02792,29.36295],[48.02584,29.36371],[48.02514,29.36269],[48.02511,29.36128],[48.02636,29.36068],[48.02643,29.35881],[48.02905,29.35513],[48.03007,29.35454],[48.03059,29.35516],[48.03112,29.35507],[48.03124,29.35458],[48.03063,29.35409],[48.03149,29.35278],[48.03238,29.35224],[48.03321,29.35251],[48.03307,29.35172],[48.03424,29.35084],[48.03502,29.35067],[48.0352,29.35096],[48.03665,29.35026],[48.03719,29.35044],[48.03697,29.34947],[48.03738,29.34908],[48.03985,29.34828],[48.04169,29.34837],[48.04129,29.3471],[48.04187,29.34655],[48.04425,29.34594],[48.04523,29.34615],[48.04507,29.34552],[48.04612,29.34509],[48.04973,29.34486],[48.0501,29.3451],[48.0498,29.34471],[48.04856,29.34475],[48.04824,29.34447],[48.04998,29.34311],[48.05014,29.34445],[48.05039,29.34487],[48.05076,29.34476],[48.05038,29.3438],[48.0504,29.34311],[48.05108,29.34256],[48.05081,29.34213],[48.05336,29.34076],[48.05453,29.34073],[48.05543,29.34203],[48.05471,29.34312],[48.05498,29.34354],[48.05503,29.34313],[48.05652,29.34203],[48.05601,29.34126],[48.05677,29.34067],[48.06057,29.34101],[48.06178,29.34186],[48.06247,29.34148],[48.06378,29.34167],[48.06538,29.34208],[48.06551,29.34249],[48.06174,29.34331],[48.06111,29.34273],[48.0632,29.34535],[48.06454,29.34611],[48.06362,29.34545],[48.06386,29.34496],[48.06473,29.34418],[48.06586,29.34396],[48.06786,29.34451],[48.06761,29.34535],[48.06901,29.34597],[48.06922,29.34562],[48.06872,29.34551],[48.06848,29.34483],[48.06874,29.34412],[48.06947,29.3434],[48.07052,29.34318],[48.07372,29.34417],[48.07372,29.34496],[48.07843,29.34601],[48.07861,29.34572],[48.08058,29.34671],[48.08096,29.34656],[48.08458,29.34794],[48.08724,29.34913],[48.08773,29.34985],[48.08866,29.34983],[48.08878,29.35015],[48.09168,29.35123],[48.09287,29.35139],[48.09302,29.35077],[48.09509,29.35164],[48.09643,29.35165],[48.0966,29.35245],[48.0972,29.35239],[48.09825,29.34911],[48.09988,29.34984],[48.09982,29.35134],[48.09826,29.35142],[48.09781,29.3527],[48.09855,29.35196],[48.09971,29.3521],[48.10043,29.3527],[48.10138,29.35259],[48.10198,29.35057],[48.10165,29.34882],[48.10078,29.3473],[48.10181,29.34673],[48.10058,29.3472],[48.10055,29.34636],[48.10111,29.34615],[48.10163,29.34651],[48.10116,29.34592],[48.09932,29.3465],[48.09843,29.34406],[48.09888,29.34391],[48.0987,29.34358],[48.09969,29.34321],[48.10024,29.34345],[48.1001,29.34388],[48.10041,29.34353],[48.10154,29.34403],[48.10173,29.3438],[48.09999,29.34275],[48.09892,29.34321],[48.09721,29.34086],[48.09752,29.33979],[48.09633,29.33808],[48.09668,29.33774],[48.09456,29.33379],[48.09479,29.33299],[48.09441,29.33212],[48.09508,29.33134],[48.09362,29.3281],[48.09389,29.32796],[48.09363,29.32609],[48.09334,29.32613],[48.09364,29.32768],[48.09174,29.32767],[48.09159,29.32723],[48.092,29.32498],[48.09373,29.32569],[48.0948,29.32542],[48.09384,29.32547],[48.09273,29.32501],[48.09293,29.32372],[48.09442,29.32437],[48.09476,29.32507],[48.09497,29.32489],[48.09449,29.32416],[48.09227,29.32338],[48.09165,29.32234],[48.09058,29.31877],[48.09116,29.31855],[48.09051,29.31741],[48.0909,29.31716],[48.09078,29.31623],[48.09144,29.31619],[48.09064,29.31589],[48.09044,29.31519],[48.09055,29.31265],[48.08972,29.31045],[48.08995,29.31007],[48.08889,29.30603],[48.08893,29.30554],[48.08978,29.30542],[48.09005,29.30486],[48.08964,29.3053],[48.08876,29.30538],[48.08863,29.30486],[48.08873,29.3045],[48.08993,29.3044],[48.09061,29.30472],[48.09018,29.30423],[48.08889,29.30431],[48.08863,29.30334],[48.08895,29.30302],[48.08868,29.30174],[48.09012,29.30179],[48.09018,29.30137],[48.09004,29.30103],[48.08873,29.30095],[48.08824,29.2977],[48.0887,29.29523],[48.08965,29.29469],[48.08852,29.29482],[48.08859,29.29424],[48.09024,29.29439],[48.08902,29.29399],[48.08864,29.29253],[48.0884,29.28937],[48.08879,29.28846],[48.08931,29.28839],[48.08858,29.2856],[48.08918,29.28328],[48.08889,29.28197],[48.0892,29.27987],[48.09027,29.27745],[48.08999,29.27398],[48.09036,29.2735],[48.09061,29.2698],[48.09152,29.26947],[48.09133,29.26907],[48.09231,29.26846],[48.09281,29.26844],[48.09313,29.26886],[48.09234,29.26953],[48.09314,29.26937],[48.09337,29.26897],[48.09306,29.26835],[48.09162,29.26839],[48.09135,29.26797],[48.09086,29.26589],[48.09118,29.26582],[48.09091,29.26352],[48.09287,29.25749],[48.09329,29.25722],[48.09536,29.25219],[48.0982,29.25317],[48.09851,29.25378],[48.09872,29.25356],[48.09863,29.25292],[48.09594,29.25203],[48.09587,29.2498],[48.09665,29.24779],[48.09812,29.24679],[48.10191,29.24818],[48.10238,29.24803],[48.10208,29.24759],[48.09877,29.24626],[48.09673,29.24624],[48.09731,29.24475],[48.09803,29.24503],[48.09813,29.24552],[48.10298,29.2474],[48.1034,29.24718],[48.10292,29.24656],[48.09959,29.24558],[48.09859,29.24428],[48.09867,29.24336],[48.09947,29.24318],[48.09886,29.24261],[48.09945,29.24136],[48.10036,29.24102],[48.09975,29.24302],[48.10051,29.24187],[48.10063,29.2407],[48.10016,29.24084],[48.09972,29.24047],[48.10004,29.23932],[48.10122,29.23956],[48.10001,29.23912],[48.10013,29.23852],[48.10184,29.23885],[48.10172,29.23966],[48.10255,29.23894],[48.10078,29.23834],[48.10065,29.2374],[48.10134,29.23477],[48.10228,29.23488],[48.10254,29.23454],[48.10206,29.23335],[48.10224,29.23306],[48.1029,29.23329],[48.10325,29.23298],[48.1021,29.23289],[48.10236,29.23196],[48.10337,29.23202],[48.10363,29.23282],[48.10344,29.23195],[48.10277,29.23189],[48.10262,29.23117],[48.10262,29.2287],[48.10298,29.22786],[48.10262,29.22535],[48.10316,29.22257],[48.10442,29.22021],[48.10846,29.2212],[48.10873,29.22091],[48.1076,29.22072],[48.10767,29.22041],[48.10693,29.22068],[48.1057,29.22037],[48.10578,29.22001],[48.106,29.21974],[48.1072,29.22029],[48.10778,29.21996],[48.10895,29.22049],[48.10929,29.22029],[48.10836,29.21973],[48.10849,29.21917],[48.10708,29.21984],[48.10625,29.21961],[48.10622,29.2189],[48.10688,29.21814],[48.10837,29.2189],[48.10747,29.21825],[48.10747,29.21531],[48.10814,29.21444],[48.10834,29.2126],[48.11126,29.20423],[48.11248,29.20232],[48.11341,29.19951],[48.11402,29.19953],[48.11538,29.1977],[48.11513,29.19439],[48.11683,29.18839],[48.11781,29.18674],[48.11875,29.18622],[48.11889,29.18525],[48.11985,29.18398],[48.12045,29.18366],[48.12035,29.1828],[48.12144,29.18042],[48.12261,29.1792],[48.12375,29.17368],[48.12469,29.17255],[48.12772,29.1733],[48.12867,29.17322],[48.12838,29.1727],[48.12711,29.17234],[48.12664,29.17182],[48.12501,29.17179],[48.12444,29.17126],[48.12462,29.17013],[48.12537,29.17003],[48.12691,29.17027],[48.12785,29.17128],[48.12834,29.17124],[48.12826,29.16991],[48.12635,29.16963],[48.12563,29.1689],[48.12645,29.16869],[48.12633,29.16635],[48.12854,29.16617],[48.12736,29.16617],[48.12738,29.16518],[48.12444,29.16502],[48.12446,29.1645],[48.12612,29.1642],[48.12683,29.16344],[48.12794,29.16385],[48.12746,29.16467],[48.12819,29.16404],[48.12753,29.16333],[48.12442,29.16325],[48.12408,29.16137],[48.12453,29.16112],[48.12432,29.16035],[48.12502,29.15819],[48.12808,29.15881],[48.12854,29.15839],[48.12835,29.15803],[48.12797,29.15859],[48.12721,29.15834],[48.12723,29.1579],[48.12786,29.15786],[48.12622,29.15741],[48.12645,29.15475],[48.12665,29.15434],[48.1271,29.15434],[48.12669,29.15424],[48.12692,29.153],[48.12825,29.15086],[48.12855,29.15062],[48.13161,29.15141],[48.13204,29.15124],[48.12861,29.15026],[48.12881,29.14954],[48.12938,29.14916],[48.13008,29.14935],[48.13033,29.14994],[48.13228,29.15066],[48.13221,29.15019],[48.13071,29.14949],[48.13074,29.14602],[48.13176,29.14428],[48.13302,29.1405],[48.13359,29.13103],[48.13383,29.13017],[48.13552,29.12878],[48.13564,29.1271],[48.13639,29.12518],[48.13696,29.12428],[48.13788,29.12392],[48.13782,29.12268],[48.13738,29.12265],[48.13705,29.12104],[48.13717,29.11788],[48.13735,29.11762],[48.13887,29.11774],[48.13797,29.11755],[48.13762,29.11633],[48.13829,29.11554],[48.13772,29.11323],[48.13833,29.11245],[48.13792,29.11188],[48.138,29.11017],[48.13858,29.10959],[48.13814,29.10919],[48.13807,29.1067],[48.13841,29.10535],[48.1393,29.10472],[48.13864,29.09846],[48.13884,29.0945],[48.13906,29.09339],[48.13968,29.09282],[48.14098,29.09344],[48.14157,29.09339],[48.14013,29.09241],[48.14049,29.09137],[48.14095,29.09113],[48.14006,29.09045],[48.14024,29.08637],[48.14088,29.08626],[48.14047,29.08564],[48.14062,29.08433],[48.14128,29.08304],[48.14065,29.08253],[48.14119,29.08114],[48.14252,29.08187],[48.143,29.08128],[48.14255,29.0811],[48.14281,29.08051],[48.14338,29.08071],[48.1434,29.08113],[48.14363,29.08005],[48.14202,29.0795],[48.14271,29.07817],[48.14349,29.07806],[48.14251,29.07717],[48.14405,29.07472],[48.14581,29.0728],[48.14695,29.07232],[48.14826,29.0724],[48.14906,29.07149],[48.14979,29.06982],[48.15066,29.06444],[48.15153,29.0632],[48.15246,29.06334],[48.15261,29.06291],[48.15105,29.06233],[48.15234,29.05957],[48.15448,29.06034],[48.15483,29.05959],[48.1568,29.06031],[48.15785,29.05959],[48.1527,29.05798],[48.15282,29.05616],[48.15229,29.05593],[48.15219,29.05535],[48.15256,29.05228],[48.15201,29.05137],[48.15224,29.05069],[48.15518,29.05068],[48.15583,29.0503],[48.16189,29.05045],[48.16547,29.04524],[48.16458,29.04479],[48.16142,29.04942],[48.15492,29.04933],[48.15505,29.04142],[48.15968,29.04148],[48.15969,29.04058],[48.15712,29.04053],[48.15717,29.03796],[48.15879,29.03798],[48.16003,29.03954],[48.16039,29.03937],[48.16134,29.04029],[48.16294,29.03935],[48.16292,29.03904],[48.16126,29.03982],[48.16009,29.03834],[48.16095,29.03781],[48.16346,29.03786],[48.16417,29.03867],[48.166,29.04311],[48.16697,29.04282],[48.16469,29.03749],[48.17362,29.04168],[48.17239,29.04373],[48.17228,29.04423],[48.17633,29.03744],[48.17609,29.03721],[48.17422,29.04072],[48.17346,29.04133],[48.16476,29.03731],[48.15727,29.03716],[48.15675,29.03489],[48.15626,29.03469],[48.15675,29.03434],[48.15656,29.03324],[48.1578,29.03265],[48.15826,29.03149],[48.15825,29.03107],[48.15723,29.03071],[48.15762,29.03008],[48.15783,29.02501],[48.15916,29.02391],[48.15862,29.02244],[48.15917,29.01796],[48.15949,29.01749],[48.16115,29.01744],[48.15981,29.01732],[48.15953,29.01616],[48.16076,29.01596],[48.16006,29.01569],[48.16006,29.01468],[48.16199,29.00754],[48.16948,28.98727],[48.1723,28.9822],[48.17318,28.98155],[48.17315,28.98109],[48.17398,28.98136],[48.1749,28.98016],[48.17366,28.97945],[48.17526,28.97373],[48.17692,28.97026],[48.17962,28.96534],[48.18296,28.96058],[48.1836,28.96007],[48.18568,28.96064],[48.18286,28.95933],[48.18323,28.95873],[48.18374,28.95916],[48.18592,28.95997],[48.18586,28.95964],[48.18338,28.95865],[48.18446,28.95636],[48.18717,28.95401],[48.19229,28.95134],[48.19822,28.94673],[48.20278,28.94172],[48.20587,28.93699],[48.20912,28.92491],[48.21066,28.92211],[48.21071,28.92006],[48.21219,28.91794],[48.21854,28.91187],[48.22551,28.907],[48.2322,28.90398],[48.23238,28.90337],[48.23133,28.90274],[48.23154,28.90184],[48.2321,28.90074],[48.23325,28.89954],[48.23367,28.8996],[48.2342,28.89869],[48.23462,28.8987],[48.23517,28.89771],[48.24191,28.89324],[48.2518,28.88889],[48.25776,28.88729],[48.25958,28.88648],[48.26495,28.88532],[48.27325,28.8841],[48.28266,28.88341],[48.28532,28.8826],[48.28574,28.88204],[48.28987,28.87996],[48.28896,28.87827],[48.28907,28.87766],[48.28663,28.87458],[48.28449,28.86833],[48.28467,28.86791],[48.28413,28.86799],[48.28391,28.8675],[48.28402,28.86549],[48.28257,28.86573],[48.28164,28.86183],[48.28265,28.86163],[48.28256,28.86128],[48.28158,28.86145],[48.28151,28.86111],[48.28214,28.86097],[48.28167,28.86012],[48.28052,28.85429],[48.28014,28.84913],[48.281,28.82685],[48.27965,28.82018],[48.27949,28.80969],[48.28015,28.80752],[48.28567,28.79561],[48.29558,28.78012],[48.29916,28.77546],[48.30742,28.76848],[48.31709,28.76226],[48.32926,28.75602],[48.33062,28.75461],[48.33457,28.75277],[48.33583,28.75168],[48.33571,28.7514],[48.33806,28.75002],[48.34999,28.74526],[48.35909,28.74278],[48.36853,28.74173],[48.38169,28.74222],[48.38177,28.74183],[48.38334,28.74188],[48.38819,28.74265],[48.39516,28.74484],[48.39651,28.74429],[48.39604,28.74431],[48.39616,28.74317],[48.39418,28.74065],[48.3912,28.73402],[48.39047,28.73381],[48.3893,28.73236],[48.38759,28.72903],[48.38526,28.72346],[48.3853,28.72132],[48.38569,28.72055],[48.3918,28.72162],[48.39971,28.71943],[48.40017,28.71966],[48.40276,28.719],[48.40355,28.7182],[48.40291,28.7163],[48.40235,28.71647],[48.40188,28.71562],[48.40071,28.71517],[48.39213,28.71749],[48.39148,28.71664],[48.39185,28.71764],[48.39088,28.71891],[48.38965,28.71923],[48.3872,28.71862],[48.38474,28.71929],[48.38442,28.71842],[48.38795,28.7175],[48.38781,28.71711],[48.38981,28.71741],[48.38829,28.71682],[48.38368,28.71809],[48.38316,28.71788],[48.38242,28.71621],[48.38361,28.71578],[48.38071,28.70699],[48.38156,28.7067],[48.37918,28.69956],[48.37968,28.69904],[48.37878,28.69822],[48.37859,28.69426],[48.37974,28.69176],[48.38022,28.69132],[48.3836,28.6917],[48.38607,28.69116],[48.38866,28.68925],[48.38954,28.68776],[48.38931,28.686],[48.388,28.68464],[48.38791,28.68495],[48.38912,28.68611],[48.38921,28.68799],[48.38739,28.69009],[48.3858,28.69103],[48.38385,28.69151],[48.37978,28.69091],[48.38039,28.69096],[48.38094,28.69055],[48.38322,28.69052],[48.38338,28.69087],[48.38343,28.69048],[48.3857,28.68991],[48.38566,28.68963],[48.38737,28.6887],[48.38718,28.68847],[48.38806,28.68734],[48.38747,28.68614],[48.38768,28.68586],[48.38578,28.6854],[48.38579,28.68582],[48.38526,28.68604],[48.38406,28.68607],[48.38153,28.68523],[48.38154,28.68408],[48.38183,28.68358],[48.38248,28.68376],[48.38246,28.68287],[48.38332,28.68088],[48.38785,28.67573],[48.39058,28.66878],[48.39214,28.66564],[48.39375,28.66372],[48.39401,28.66261],[48.39275,28.66171],[48.39191,28.65946],[48.39184,28.65849],[48.39251,28.65679],[48.39071,28.64915],[48.39061,28.64591],[48.39125,28.643],[48.39373,28.63624],[48.3941,28.63287],[48.39385,28.63047],[48.39505,28.6288],[48.39573,28.62552],[48.39619,28.62529],[48.39624,28.62333],[48.39662,28.62318],[48.39622,28.62256],[48.39576,28.62271],[48.39456,28.62119],[48.39469,28.62192],[48.39304,28.62175],[48.39241,28.62221],[48.39286,28.62256],[48.39227,28.62322],[48.39174,28.62322],[48.39288,28.62355],[48.39276,28.62393],[48.39323,28.62402],[48.39281,28.62533],[48.39128,28.62569],[48.39199,28.62583],[48.39206,28.62663],[48.39108,28.63017],[48.39151,28.63132],[48.39137,28.63491],[48.39091,28.63527],[48.38979,28.63529],[48.38961,28.63592],[48.38784,28.63576],[48.38784,28.63068],[48.38665,28.62546],[48.38563,28.62277],[48.38543,28.61873],[48.38592,28.61692],[48.38669,28.61614],[48.38871,28.61519],[48.38972,28.61584],[48.39007,28.61565],[48.39021,28.60978],[48.39096,28.60587],[48.39086,28.60508],[48.39033,28.60446],[48.39076,28.60544],[48.39012,28.60591],[48.3899,28.6077],[48.38895,28.61015],[48.38803,28.60976],[48.38741,28.60878],[48.38797,28.60691],[48.39056,28.60335],[48.39709,28.59714],[48.39797,28.59586],[48.39808,28.59217],[48.39937,28.58902],[48.3987,28.5866],[48.39869,28.58415],[48.40139,28.58061],[48.40057,28.57914],[48.40063,28.57675],[48.40217,28.57219],[48.40593,28.56778],[48.41155,28.55998],[48.41476,28.5575],[48.41606,28.5554],[48.41754,28.55428],[48.41723,28.55412],[48.41814,28.55282],[48.41906,28.54981],[48.42223,28.5473],[48.42272,28.54412],[48.42392,28.54215],[48.42669,28.53802],[48.42789,28.53764],[48.43036,28.5343],[47.70446,28.52436]]],[[[48.26534,29.60559],[48.25582,29.59742],[48.24719,29.59167],[48.23517,29.58544],[48.22771,29.58271],[48.22243,29.58167],[48.21818,29.58137],[48.2105,29.58234],[48.20179,29.5851],[48.19509,29.5866],[48.18616,29.59197],[48.18552,29.59331],[48.18166,29.59742],[48.17714,29.60536],[48.17618,29.6059],[48.17608,29.60753],[48.16938,29.61868],[48.16921,29.62682],[48.16762,29.63454],[48.16578,29.6379],[48.16368,29.64006],[48.16076,29.64185],[48.1581,29.64409],[48.15587,29.65054],[48.15522,29.66251],[48.15436,29.66628],[48.15252,29.6706],[48.15153,29.67471],[48.15123,29.68142],[48.15007,29.68354],[48.14806,29.68488],[48.14617,29.68526],[48.14454,29.68608],[48.14291,29.68757],[48.1405,29.69204],[48.13849,29.69398],[48.13668,29.69473],[48.13475,29.69793],[48.129,29.70289],[48.12561,29.70453],[48.12505,29.70524],[48.12587,29.70602],[48.12634,29.70833],[48.1254,29.71169],[48.1234,29.71581],[48.12063,29.71857],[48.11588,29.71786],[48.12004,29.71891],[48.11827,29.72145],[48.12188,29.73613],[48.12123,29.7393],[48.12007,29.74172],[48.1184,29.74348],[48.11638,29.74445],[48.11188,29.74482],[48.10965,29.74571],[48.10797,29.7475],[48.1069,29.74988],[48.10724,29.7522],[48.10832,29.75518],[48.10789,29.75737],[48.1069,29.75935],[48.10415,29.76177],[48.10068,29.76393],[48.09772,29.76483],[48.09574,29.76475],[48.09394,29.76531],[48.09175,29.7671],[48.08922,29.76792],[48.07793,29.77026],[48.07068,29.77064],[48.06845,29.77172],[48.06609,29.77429],[48.06519,29.77671],[48.06523,29.78233],[48.06398,29.78751],[48.06416,29.78967],[48.06544,29.79291],[48.06695,29.79451],[48.06493,29.7966],[48.06257,29.79552],[48.06038,29.79511],[48.06437,29.79943],[48.06802,29.80196],[48.07214,29.80378],[48.07493,29.80594],[48.0763,29.80766],[48.07986,29.8084],[48.07746,29.80956],[48.07896,29.81276],[48.08115,29.81402],[48.08338,29.8144],[48.08647,29.81414],[48.09029,29.81522],[48.09385,29.81533],[48.099,29.81443],[48.10527,29.81242],[48.10754,29.81112],[48.10694,29.8122],[48.10484,29.8135],[48.10051,29.81529],[48.09197,29.81689],[48.08609,29.81555],[48.08248,29.81566],[48.07806,29.81402],[48.07853,29.82035],[48.07922,29.82181],[48.08042,29.82244],[48.08536,29.82229],[48.09132,29.8233],[48.09411,29.82449],[48.09806,29.82683],[48.10003,29.82642],[48.10617,29.82374],[48.11059,29.82274],[48.11694,29.82367],[48.119,29.8227],[48.12201,29.81976],[48.1308,29.81857],[48.13359,29.81894],[48.1363,29.82076],[48.13904,29.82426],[48.13793,29.82572],[48.13269,29.82635],[48.12544,29.82516],[48.12201,29.82523],[48.119,29.8259],[48.11514,29.82583],[48.10939,29.8246],[48.10793,29.82464],[48.099,29.8284],[48.09681,29.8284],[48.10248,29.83469],[48.10402,29.837],[48.10613,29.83759],[48.10802,29.83707],[48.10986,29.83718],[48.10535,29.8383],[48.10347,29.83778],[48.09639,29.82989],[48.0945,29.82814],[48.09158,29.8262],[48.08827,29.82475],[48.0851,29.82467],[48.08179,29.82523],[48.07793,29.82665],[48.07497,29.82936],[48.07158,29.83111],[48.07248,29.83175],[48.07531,29.83253],[48.07647,29.83346],[48.07656,29.83469],[48.0757,29.83592],[48.07454,29.83674],[48.07463,29.8377],[48.07686,29.83916],[48.08003,29.84273],[48.08197,29.8431],[48.0854,29.84269],[48.08956,29.84344],[48.09497,29.84582],[48.09609,29.846],[48.09913,29.84552],[48.10076,29.84612],[48.10128,29.84764],[48.10398,29.84857],[48.10844,29.84939],[48.10939,29.84865],[48.10965,29.84667],[48.11093,29.84485],[48.11394,29.84273],[48.11737,29.84128],[48.12244,29.84057],[48.12316,29.84098],[48.12244,29.8421],[48.12141,29.84239],[48.12188,29.84321],[48.12355,29.8444],[48.12467,29.84466],[48.1269,29.84079],[48.12758,29.83841],[48.12913,29.83659],[48.13093,29.83633],[48.1357,29.8367],[48.13741,29.83778],[48.13806,29.83618],[48.13998,29.83502],[48.14344,29.83547],[48.14474,29.83509],[48.14543,29.83599],[48.1483,29.83633],[48.14909,29.83625],[48.14965,29.83557],[48.15073,29.83513],[48.15231,29.83545],[48.15289,29.8338],[48.15327,29.83361],[48.15396,29.83405],[48.15337,29.83432],[48.15251,29.83716],[48.1525,29.83645],[48.15188,29.83618],[48.15071,29.83622],[48.14935,29.8373],[48.14268,29.83656],[48.14075,29.83699],[48.13791,29.83919],[48.1369,29.83945],[48.13952,29.84247],[48.14299,29.84064],[48.14364,29.84176],[48.14209,29.84448],[48.13836,29.84522],[48.14072,29.84786],[48.14252,29.84827],[48.14441,29.84801],[48.14483,29.8484],[48.14776,29.84863],[48.14472,29.84886],[48.14355,29.84857],[48.142,29.84962],[48.13776,29.85148],[48.13621,29.85349],[48.13424,29.85323],[48.13136,29.85174],[48.12956,29.8523],[48.12033,29.85055],[48.11995,29.85084],[48.12072,29.85174],[48.12115,29.85334],[48.12076,29.8552],[48.11982,29.85609],[48.11076,29.85602],[48.10673,29.85557],[48.10638,29.85617],[48.10789,29.85788],[48.11111,29.85922],[48.11724,29.86275],[48.1275,29.86651],[48.1296,29.86811],[48.13119,29.87083],[48.13209,29.87083],[48.13364,29.86767],[48.13518,29.86595],[48.13711,29.86521],[48.1399,29.86491],[48.14072,29.86402],[48.14235,29.86339],[48.14514,29.86346],[48.14681,29.86435],[48.14848,29.86469],[48.15003,29.86372],[48.15363,29.86007],[48.15539,29.85888],[48.15582,29.85814],[48.15539,29.85665],[48.15587,29.85497],[48.15883,29.8517],[48.15698,29.84939],[48.15685,29.84749],[48.15801,29.8456],[48.15988,29.84325],[48.16134,29.84236],[48.16299,29.84031],[48.16805,29.83796],[48.16891,29.83692],[48.16797,29.83513],[48.16818,29.83156],[48.16968,29.83063],[48.17046,29.82873],[48.17239,29.82806],[48.17372,29.82698],[48.17539,29.82657],[48.17647,29.82709],[48.17677,29.82963],[48.17604,29.83052],[48.17647,29.83145],[48.17943,29.83164],[48.17964,29.83205],[48.17801,29.83387],[48.17788,29.83484],[48.17617,29.83614],[48.17634,29.83711],[48.17702,29.83837],[48.1793,29.83968],[48.1793,29.84072],[48.17823,29.84124],[48.17865,29.84206],[48.17956,29.84265],[48.17977,29.84388],[48.18041,29.84426],[48.17973,29.84522],[48.18071,29.84772],[48.1781,29.84615],[48.17672,29.84433],[48.17325,29.84258],[48.172,29.84314],[48.17054,29.84459],[48.16814,29.84452],[48.1666,29.84504],[48.16539,29.84638],[48.16544,29.84742],[48.16617,29.84816],[48.16707,29.84839],[48.16767,29.84742],[48.16835,29.84734],[48.16853,29.84809],[48.16758,29.84935],[48.16634,29.84902],[48.16526,29.85006],[48.16677,29.85196],[48.16767,29.85471],[48.16964,29.85587],[48.17084,29.85717],[48.17071,29.85899],[48.16973,29.86119],[48.17016,29.86223],[48.17355,29.86022],[48.17762,29.85933],[48.17702,29.86037],[48.17419,29.86194],[48.17368,29.86458],[48.17179,29.86573],[48.16994,29.86569],[48.16565,29.86863],[48.16454,29.86904],[48.15771,29.86871],[48.15488,29.86975],[48.15338,29.8709],[48.15067,29.87161],[48.14754,29.87165],[48.14196,29.87031],[48.14059,29.87235],[48.13909,29.87284],[48.13853,29.87356],[48.13823,29.8757],[48.13718,29.87742],[48.13585,29.87795],[48.13226,29.87838],[48.13143,29.87822],[48.13063,29.87747],[48.12982,29.87749],[48.12934,29.87818],[48.1296,29.8793],[48.13166,29.88179],[48.13271,29.88177],[48.13623,29.88013],[48.14198,29.88],[48.14857,29.88058],[48.15054,29.87956],[48.15368,29.87956],[48.15509,29.87868],[48.15533,29.87758],[48.15445,29.87598],[48.15443,29.8752],[48.15499,29.87397],[48.15597,29.87304],[48.1572,29.87289],[48.15559,29.87544],[48.15593,29.87569],[48.15733,29.87531],[48.15784,29.87576],[48.15649,29.88277],[48.15694,29.88378],[48.16325,29.88782],[48.16469,29.8891],[48.16578,29.88973],[48.16685,29.88973],[48.16771,29.88921],[48.16808,29.88836],[48.16713,29.88467],[48.16709,29.8811],[48.16765,29.87851],[48.16799,29.87797],[48.16938,29.87732],[48.16928,29.87667],[48.16859,29.8763],[48.16904,29.8742],[48.16865,29.87306],[48.16994,29.87014],[48.1725,29.86858],[48.17348,29.86752],[48.17636,29.86659],[48.17767,29.86534],[48.17814,29.86569],[48.17823,29.86681],[48.17904,29.86711],[48.18196,29.86461],[48.18187,29.8667],[48.18097,29.86837],[48.18119,29.86919],[48.18174,29.86953],[48.18192,29.8683],[48.18389,29.86655],[48.18621,29.86517],[48.18749,29.86554],[48.18835,29.867],[48.18496,29.86901],[48.18531,29.87105],[48.18286,29.87217],[48.18213,29.87195],[48.18067,29.87321],[48.17792,29.87355],[48.17569,29.87299],[48.17445,29.87321],[48.17436,29.87455],[48.17604,29.87715],[48.17608,29.8789],[48.17483,29.88248],[48.17522,29.8833],[48.17655,29.88404],[48.17694,29.88266],[48.17792,29.88132],[48.18101,29.88058],[48.18226,29.88088],[48.18299,29.88155],[48.18419,29.88106],[48.18389,29.87987],[48.1844,29.87939],[48.18526,29.87928],[48.18471,29.8801],[48.18711,29.88199],[48.1908,29.88103],[48.18964,29.88251],[48.18797,29.88344],[48.18582,29.88337],[48.18415,29.88374],[48.18226,29.88318],[48.18153,29.88344],[48.18265,29.88478],[48.18183,29.88802],[48.18054,29.8888],[48.17904,29.88906],[48.17814,29.88877],[48.1775,29.8894],[48.17741,29.89014],[48.17805,29.89077],[48.18183,29.89126],[48.18398,29.89208],[48.18737,29.8926],[48.19084,29.89394],[48.19573,29.89665],[48.19608,29.89743],[48.19436,29.89766],[48.19406,29.89818],[48.19269,29.89795],[48.19252,29.89751],[48.19299,29.89669],[48.19222,29.89658],[48.1914,29.89706],[48.1914,29.89781],[48.19316,29.90045],[48.19496,29.90212],[48.19573,29.90365],[48.19698,29.90491],[48.19741,29.90629],[48.19702,29.90733],[48.19818,29.90912],[48.19848,29.91034],[48.20024,29.91153],[48.20183,29.91205],[48.20337,29.91176],[48.20565,29.91072],[48.20432,29.91235],[48.20483,29.91499],[48.20719,29.91574],[48.21118,29.91559],[48.21144,29.91622],[48.20904,29.91722],[48.2093,29.91823],[48.21024,29.91868],[48.20998,29.91938],[48.21161,29.92132],[48.21178,29.92236],[48.21024,29.92057],[48.2093,29.92027],[48.20694,29.91808],[48.20621,29.91849],[48.20492,29.91786],[48.20183,29.91778],[48.20003,29.91696],[48.1999,29.91745],[48.2014,29.91979],[48.20423,29.92098],[48.20578,29.9224],[48.20728,29.92299],[48.20724,29.9237],[48.20505,29.92291],[48.2035,29.9218],[48.2029,29.92236],[48.2026,29.9237],[48.2017,29.92236],[48.19985,29.9212],[48.19925,29.92124],[48.20003,29.92254],[48.1996,29.92336],[48.19895,29.92254],[48.1987,29.92362],[48.20015,29.92544],[48.20024,29.92671],[48.19908,29.92582],[48.19861,29.92489],[48.19758,29.9244],[48.19689,29.92258],[48.19668,29.91987],[48.19621,29.91916],[48.19586,29.92054],[48.19653,29.92286],[48.19642,29.92379],[48.19745,29.92504],[48.19855,29.92844],[48.19945,29.92918],[48.19925,29.93026],[48.19973,29.93095],[48.19872,29.93056],[48.19859,29.92967],[48.19803,29.92944],[48.19773,29.92978],[48.19722,29.92946],[48.1973,29.9284],[48.19591,29.92747],[48.19614,29.92664],[48.19578,29.92541],[48.19453,29.92327],[48.19348,29.92228],[48.19432,29.92431],[48.19395,29.92582],[48.19423,29.92719],[48.19337,29.92626],[48.19312,29.92682],[48.19273,29.92597],[48.19286,29.92424],[48.19213,29.92373],[48.19211,29.9255],[48.19119,29.9265],[48.19097,29.92743],[48.19144,29.92887],[48.19271,29.9306],[48.19232,29.93132],[48.19183,29.93125],[48.19144,29.9321],[48.19217,29.9327],[48.19097,29.93381],[48.19116,29.9345],[48.18947,29.93233],[48.18928,29.93474],[48.18857,29.9337],[48.18698,29.93558],[48.18627,29.93588],[48.18599,29.93541],[48.18681,29.93419],[48.18666,29.93318],[48.18569,29.93342],[48.18458,29.93467],[48.18329,29.93543],[48.18447,29.93366],[48.18432,29.93141],[48.18471,29.93009],[48.18359,29.92968],[48.18565,29.92526],[48.18591,29.92288],[48.18509,29.92065],[48.18393,29.92221],[48.18273,29.92507],[48.18196,29.92552],[48.1823,29.92675],[48.18187,29.92753],[48.18071,29.92842],[48.18063,29.92968],[48.17878,29.93169],[48.17917,29.92946],[48.17865,29.92831],[48.17964,29.92604],[48.17904,29.92407],[48.17561,29.92571],[48.17698,29.92388],[48.17681,29.92102],[48.17771,29.91715],[48.17625,29.91689],[48.17522,29.91797],[48.17346,29.91886],[48.17535,29.91566],[48.17445,29.91492],[48.1732,29.91469],[48.17625,29.91272],[48.17831,29.90975],[48.18166,29.90659],[48.182,29.90532],[48.18329,29.90387],[48.18333,29.90104],[48.18269,29.8997],[48.1817,29.89978],[48.18222,29.90156],[48.18123,29.9051],[48.18024,29.90413],[48.1805,29.90309],[48.17878,29.90034],[48.17745,29.89922],[48.17591,29.89915],[48.17548,29.89989],[48.17591,29.90097],[48.17492,29.90153],[48.1738,29.90127],[48.1729,29.90264],[48.17299,29.90119],[48.17372,29.90056],[48.17466,29.90045],[48.17419,29.9],[48.16951,29.89881],[48.16518,29.89717],[48.16248,29.89695],[48.15939,29.89609],[48.15685,29.89453],[48.15501,29.89263],[48.15338,29.89237],[48.15102,29.89472],[48.14921,29.89918],[48.14831,29.90045],[48.14951,29.90316],[48.15149,29.90309],[48.1563,29.90506],[48.15715,29.90618],[48.15445,29.90685],[48.15222,29.90662],[48.14685,29.90365],[48.14518,29.90372],[48.14394,29.90592],[48.14235,29.91343],[48.14278,29.91641],[48.14419,29.91931],[48.14711,29.92291],[48.14857,29.92652],[48.14879,29.9295],[48.14793,29.93277],[48.14574,29.93497],[48.14188,29.93671],[48.1387,29.93697],[48.13316,29.93653],[48.13123,29.93772],[48.12578,29.94437],[48.12046,29.94787],[48.11999,29.94854],[48.12046,29.95025],[48.12171,29.95226],[48.12145,29.95505],[48.11982,29.95865],[48.11793,29.9601],[48.11557,29.96066],[48.10862,29.96048],[48.10604,29.96152],[48.1051,29.96338],[48.10508,29.96631],[48.10578,29.96901],[48.10748,29.97287],[48.10838,29.97479],[48.10926,29.97555],[48.12462,29.98001],[48.13093,29.98146],[48.13782,29.98245],[48.14565,29.98293],[48.15469,29.98278],[48.16681,29.98053],[48.17698,29.97799],[48.19685,29.96981],[48.21447,29.95945],[48.22702,29.95083],[48.23457,29.94341],[48.27642,29.90729],[48.28826,29.89617],[48.29603,29.88679],[48.30876,29.862],[48.32025,29.87272],[48.3199,29.87351],[48.32085,29.87429],[48.32168,29.87339],[48.32028,29.87191],[48.3224,29.87366],[48.33528,29.86321],[48.33492,29.86287],[48.33197,29.86526],[48.3302,29.86358],[48.33325,29.86112],[48.33465,29.861],[48.337,29.86271],[48.33543,29.86083],[48.33391,29.86021],[48.3326,29.86063],[48.33053,29.86239],[48.33007,29.8622],[48.32715,29.85945],[48.32489,29.85941],[48.31925,29.85331],[48.3189,29.85314],[48.31819,29.85351],[48.31734,29.85278],[48.33435,29.82423],[48.34105,29.81432],[48.34341,29.81235],[48.34864,29.81119],[48.35551,29.80799],[48.36263,29.80393],[48.3683,29.79943],[48.37126,29.79514],[48.3725,29.79127],[48.37396,29.78397],[48.37482,29.77209],[48.37714,29.76333],[48.37757,29.75849],[48.37735,29.75048],[48.37624,29.74538],[48.3722,29.73297],[48.36546,29.71761],[48.35843,29.7042],[48.34697,29.68593],[48.33787,29.67482],[48.32178,29.65748],[48.31191,29.64789],[48.30998,29.64692],[48.30041,29.63771],[48.26534,29.60559]]],[[[48.30319,29.46863],[48.30719,29.4702],[48.31016,29.47193],[48.31028,29.47319],[48.31128,29.47446],[48.31107,29.47466],[48.31139,29.47508],[48.31208,29.47505],[48.31434,29.47158],[48.31585,29.4678],[48.31631,29.46622],[48.31558,29.4652],[48.31577,29.4648],[48.31879,29.46324],[48.32215,29.46079],[48.32369,29.46005],[48.32849,29.45902],[48.32974,29.45931],[48.32995,29.45989],[48.331,29.4597],[48.33159,29.46007],[48.33125,29.45953],[48.33248,29.45839],[48.33491,29.45747],[48.33706,29.45578],[48.3432,29.45326],[48.34328,29.45291],[48.34859,29.45143],[48.35473,29.4513],[48.3582,29.44878],[48.35927,29.447],[48.36322,29.44432],[48.36343,29.44404],[48.36306,29.44372],[48.36585,29.43999],[48.37147,29.43488],[48.37337,29.43395],[48.37353,29.43346],[48.37289,29.43316],[48.37306,29.43233],[48.37443,29.43072],[48.38028,29.42574],[48.3829,29.42301],[48.39296,29.41592],[48.39835,29.41276],[48.40299,29.40827],[48.40349,29.40672],[48.40308,29.40493],[48.4031,29.40032],[48.40235,29.39644],[48.40308,29.39505],[48.40055,29.39348],[48.40052,29.39296],[48.39962,29.39321],[48.39945,29.39364],[48.39245,29.39213],[48.3918,29.3925],[48.3879,29.39246],[48.38694,29.39289],[48.38637,29.39423],[48.3749,29.39911],[48.36172,29.40253],[48.36139,29.40394],[48.35902,29.40587],[48.35768,29.40862],[48.35545,29.4107],[48.35357,29.41133],[48.35311,29.41208],[48.35337,29.41312],[48.35309,29.41456],[48.35171,29.41677],[48.34931,29.41769],[48.34903,29.41929],[48.34377,29.4215],[48.34232,29.42172],[48.3426,29.42217],[48.34227,29.42254],[48.3408,29.42337],[48.34048,29.42391],[48.33937,29.42411],[48.33929,29.42598],[48.33845,29.42708],[48.33422,29.42761],[48.32689,29.4272],[48.32211,29.4285],[48.32165,29.42977],[48.32042,29.42991],[48.3088,29.42782],[48.30427,29.42752],[48.30365,29.42879],[48.30277,29.42903],[48.30179,29.42986],[48.29646,29.43067],[48.29471,29.43132],[48.29385,29.4323],[48.28802,29.43156],[48.2758,29.42775],[48.27133,29.42774],[48.26744,29.42903],[48.26901,29.42881],[48.27015,29.42949],[48.27039,29.43002],[48.26957,29.43067],[48.2687,29.43005],[48.26953,29.43072],[48.26885,29.43175],[48.26757,29.43119],[48.26713,29.42974],[48.2674,29.43117],[48.26839,29.43178],[48.26859,29.43357],[48.27231,29.4425],[48.27266,29.44435],[48.27224,29.44452],[48.27195,29.44478],[48.27183,29.44514],[48.27186,29.44547],[48.27214,29.44463],[48.27341,29.4442],[48.27395,29.44544],[48.27461,29.44865],[48.27324,29.44875],[48.27356,29.44886],[48.27463,29.44868],[48.27508,29.44939],[48.2762,29.45431],[48.27863,29.45883],[48.28777,29.46955],[48.28815,29.46944],[48.28801,29.46816],[48.28884,29.46679],[48.28972,29.46681],[48.29224,29.46786],[48.2927,29.46908],[48.29103,29.46983],[48.29103,29.47011],[48.29256,29.47047],[48.29582,29.46938],[48.29534,29.46834],[48.29572,29.46783],[48.29737,29.46763],[48.30319,29.46863]]],[[[48.27264,29.44778],[48.27277,29.44836],[48.27308,29.44869],[48.27324,29.44875],[48.27264,29.44778]]],[[[48.12269,29.94118],[48.1275,29.93664],[48.13119,29.93426],[48.13497,29.93322],[48.14003,29.93344],[48.14312,29.93218],[48.14509,29.92995],[48.14501,29.92823],[48.13857,29.91782],[48.13291,29.90525],[48.13025,29.90272],[48.12578,29.90101],[48.12321,29.89892],[48.11977,29.89401],[48.11737,29.8926],[48.11488,29.89275],[48.11153,29.89505],[48.10596,29.89736],[48.10166,29.89795],[48.09634,29.89729],[48.093,29.89602],[48.09059,29.89632],[48.08896,29.90115],[48.0833,29.90532],[48.07454,29.90971],[48.06682,29.91239],[48.06175,29.91284],[48.05789,29.91209],[48.05489,29.91224],[48.05343,29.91343],[48.04725,29.92786],[48.04441,29.9321],[48.04296,29.93567],[48.0433,29.93783],[48.04399,29.93902],[48.04931,29.94088],[48.05394,29.94058],[48.05849,29.94147],[48.06261,29.94475],[48.06785,29.95151],[48.07291,29.95546],[48.08501,29.96096],[48.09351,29.96549],[48.09686,29.96787],[48.09832,29.96758],[48.10089,29.96103],[48.10501,29.95791],[48.10896,29.95672],[48.1142,29.95605],[48.11651,29.95538],[48.11729,29.95471],[48.11505,29.95181],[48.11454,29.94847],[48.11565,29.94579],[48.12269,29.94118]]],[[[48.06387,29.96877],[48.05067,29.96276],[48.04253,29.96153],[48.03456,29.9611],[48.03297,29.96062],[48.02988,29.95886],[48.02888,29.95783],[48.0267,29.95415],[48.02516,29.95309],[48.02337,29.95303],[48.02058,29.95376],[48.01861,29.95522],[48.01775,29.95654],[48.01719,29.95994],[48.01757,29.9675],[48.01828,29.9717],[48.02427,29.97845],[48.03412,29.9872],[48.03793,29.99211],[48.04444,30.00286],[48.04424,30.00564],[48.04282,30.00946],[48.04375,30.01143],[48.04763,30.01383],[48.05273,30.01627],[48.06097,30.01901],[48.06494,30.01997],[48.07551,30.02174],[48.08576,30.0224],[48.09629,30.02228],[48.10514,30.02153],[48.10729,30.02088],[48.11177,30.01811],[48.11902,30.01645],[48.14444,30.01228],[48.14888,30.01237],[48.15049,30.01374],[48.15206,30.01403],[48.1548,30.01329],[48.15756,30.01094],[48.1579,30.00873],[48.15577,30.00594],[48.12988,29.9998],[48.12087,29.99708],[48.11558,29.99518],[48.10151,29.98873],[48.09089,29.98458],[48.08087,29.97962],[48.06387,29.96877]]],[[[48.07413,29.83337],[48.07298,29.83272],[48.07081,29.83238],[48.05875,29.83255],[48.05126,29.83169],[48.04838,29.83199],[48.04596,29.83277],[48.03884,29.83796],[48.03253,29.84191],[48.03197,29.84321],[48.0318,29.8479],[48.033,29.8498],[48.03579,29.85207],[48.03686,29.85244],[48.03879,29.85105],[48.04105,29.85053],[48.04246,29.85092],[48.04529,29.85085],[48.04493,29.85179],[48.04407,29.85237],[48.04156,29.85324],[48.03948,29.85347],[48.03313,29.85602],[48.03193,29.85721],[48.03171,29.85892],[48.03223,29.85981],[48.03167,29.86063],[48.02824,29.86242],[48.02656,29.86458],[48.02592,29.86655],[48.02755,29.87053],[48.02738,29.87221],[48.02437,29.87522],[48.02283,29.87794],[48.0215,29.88482],[48.02287,29.88973],[48.02412,29.89133],[48.02613,29.89159],[48.02802,29.89059],[48.03008,29.88824],[48.03321,29.88326],[48.03562,29.87816],[48.03957,29.87329],[48.04227,29.8715],[48.04532,29.86875],[48.04832,29.867],[48.04965,29.86651],[48.05137,29.86707],[48.05111,29.8677],[48.05025,29.86804],[48.05038,29.86889],[48.05115,29.86956],[48.05287,29.86968],[48.05682,29.86871],[48.0669,29.87001],[48.07313,29.86982],[48.08132,29.86573],[48.08664,29.86201],[48.08935,29.86182],[48.09115,29.86082],[48.09179,29.85952],[48.09209,29.85698],[48.09347,29.85724],[48.09398,29.85899],[48.09566,29.85922],[48.0966,29.85881],[48.0972,29.85468],[48.09673,29.85226],[48.09724,29.84781],[48.09383,29.84699],[48.08928,29.84455],[48.08435,29.84392],[48.08053,29.84418],[48.07933,29.84359],[48.07516,29.83971],[48.07317,29.83839],[48.07283,29.83748],[48.07302,29.83657],[48.0745,29.83402],[48.07413,29.83337]]],[[[48.06034,29.83022],[48.06411,29.82966],[48.07536,29.82568],[48.07664,29.82504],[48.07673,29.82393],[48.07617,29.8217],[48.07626,29.81645],[48.07514,29.8119],[48.07257,29.80848],[48.06733,29.80337],[48.0624,29.79961],[48.05768,29.79505],[48.05656,29.79503],[48.05493,29.79704],[48.05317,29.80144],[48.05072,29.80985],[48.04682,29.81734],[48.0436,29.82259],[48.03755,29.82828],[48.03618,29.83044],[48.03519,29.83424],[48.0357,29.8351],[48.03699,29.83528],[48.03918,29.83406],[48.0439,29.8297],[48.04617,29.82884],[48.05029,29.82918],[48.05592,29.83033],[48.06034,29.83022]]],[[[48.02662,29.90592],[48.02796,29.90562],[48.02985,29.90133],[48.03365,29.8968],[48.03652,29.89227],[48.03716,29.88988],[48.03702,29.88884],[48.03589,29.88865],[48.03477,29.88933],[48.03456,29.89055],[48.0328,29.89276],[48.02859,29.89435],[48.02556,29.89466],[48.02472,29.89551],[48.0243,29.8979],[48.02444,29.90054],[48.02374,29.90299],[48.02409,29.90427],[48.02662,29.90592]]],[[[47.854,29.37772],[47.85657,29.37905],[47.85971,29.37966],[47.86355,29.38109],[47.86545,29.38236],[47.86499,29.38476],[47.8665,29.38627],[47.86649,29.38715],[47.86966,29.38779],[47.87147,29.38763],[47.87022,29.38602],[47.8708,29.38403],[47.87213,29.38226],[47.87137,29.38133],[47.86726,29.38013],[47.86272,29.37933],[47.85646,29.37701],[47.85506,29.37701],[47.85366,29.37764],[47.85346,29.37812],[47.854,29.37772]]],[[[48.24935,29.48526],[48.24767,29.48856],[48.25107,29.48922],[48.2537,29.48817],[48.25482,29.48636],[48.25521,29.48171],[48.25081,29.48402],[48.24935,29.48526]]],[[[48.01813,29.50274],[48.01871,29.50212],[48.01399,29.50332],[48.01379,29.50704],[48.01491,29.50969],[48.01794,29.50726],[48.02074,29.50255],[48.02028,29.50159],[48.01847,29.50083],[48.01817,29.50109],[48.0201,29.50188],[48.02028,29.50229],[48.0195,29.50362],[48.01869,29.50382],[48.01813,29.50274]]],[[[47.93812,29.39951],[47.93749,29.39765],[47.93711,29.39778],[47.93761,29.39864],[47.93761,29.39973],[47.93608,29.40027],[47.93558,29.39967],[47.93619,29.39875],[47.93669,29.39871],[47.93608,29.39828],[47.93273,29.39683],[47.9288,29.39618],[47.92962,29.39941],[47.9317,29.40159],[47.93438,29.40134],[47.93766,29.40049],[47.93812,29.39951]]],[[[48.65326,28.68276],[48.65309,28.68118],[48.65357,28.67934],[48.65264,28.67821],[48.65258,28.67759],[48.65081,28.67764],[48.65074,28.67689],[48.65176,28.67639],[48.65057,28.6768],[48.65058,28.67733],[48.64968,28.67735],[48.65039,28.67868],[48.65048,28.67928],[48.65003,28.67987],[48.65052,28.68173],[48.65142,28.68248],[48.65326,28.68276]]],[[[48.4945,29.07353],[48.49479,29.07163],[48.49324,29.07038],[48.49078,29.07049],[48.49032,29.07157],[48.49116,29.07344],[48.49185,29.07402],[48.4945,29.07353]]],[[[48.44149,29.37734],[48.43838,29.37651],[48.43822,29.37765],[48.43725,29.37891],[48.44177,29.37945],[48.44245,29.37909],[48.44254,29.37813],[48.44149,29.37734]]],[[[48.77538,28.81806],[48.77614,28.81854],[48.77705,28.81821],[48.77759,28.81743],[48.7763,28.81667],[48.77562,28.8168],[48.77538,28.81806]]],[[[48.02948,29.36505],[48.02899,29.36614],[48.02793,29.3665],[48.02809,29.36708],[48.0292,29.36675],[48.03017,29.36558],[48.03015,29.36446],[48.02972,29.36372],[48.02941,29.36375],[48.02948,29.36505]]],[[[48.05352,29.3434],[48.051,29.34455],[48.05367,29.34358],[48.05445,29.3438],[48.05421,29.34339],[48.05352,29.3434]]],[[[48.09966,29.34481],[48.10085,29.3442],[48.10076,29.34414],[48.09966,29.34481]]],[[[48.02768,29.36441],[48.0278,29.36466],[48.02809,29.36454],[48.02768,29.36441]]]]}}],"metadata":{"derived_from":"vector/admin/kuwait_land.geojson","simplification":"Douglas-Peucker, 25 m tolerance in LAEA(29.3N,47.7E), topology preserved; 5-decimal coordinates; measured max deviation from source 25.2 m","dropped_features":[],"note":"A web view of the full-resolution file named in derived_from. Measure from that file, not this one."}}