{"type":"FeatureCollection","features":[{"type":"Feature","properties":{"id":"kw-maritime-boundary-1902","name_en":"Saudi Arabia - Kuwait","name_ar":null,"feature_class":"maritime_boundary_line","source":"Marine Regions (VLIZ), Maritime Boundaries (v12, world, 2023)","license":"CC BY 4.0","neighbour":"Saudi Arabia","line_type":"Treaty","length_km":117.63},"geometry":{"type":"LineString","coordinates":[[48.43306,28.53402],[48.58944,28.63889],[48.66389,28.66556],[48.68833,28.69694],[49.445,28.935],[49.52611,28.935]]}},{"type":"Feature","properties":{"id":"kw-maritime-boundary-1903","name_en":"Kuwait - Iraq","name_ar":null,"feature_class":"maritime_boundary_line","source":"Marine Regions (VLIZ), Maritime Boundaries (v12, world, 2023)","license":"CC BY 4.0","neighbour":"Iraq","line_type":"Treaty","length_km":53.52},"geometry":{"type":"LineString","coordinates":[[47.9544,30.00886],[47.95776,30.00473],[47.96252,30.00069],[47.97083,29.99681],[47.99772,29.99193],[48.0094,29.99085],[48.01169,29.98991],[48.01484,29.99375],[48.01463,29.99648],[48.01757,29.99665],[48.02242,29.99949],[48.03733,30.014],[48.04417,30.01917],[48.05,30.02192],[48.06813,30.02788],[48.07612,30.02931],[48.08896,30.03015],[48.09825,30.02992],[48.10865,30.02844],[48.14641,30.02577],[48.15483,30.02458],[48.16438,30.02211],[48.18444,30.01444],[48.20733,29.99417],[48.22815,29.98468],[48.24296,29.97603],[48.25492,29.96505],[48.27507,29.95495],[48.33791,29.90703],[48.41412,29.85268]]}},{"type":"Feature","properties":{"id":"kw-maritime-boundary-1971","name_en":"Iran - Kuwait","name_ar":null,"feature_class":"maritime_boundary_line","source":"Marine Regions (VLIZ), Maritime Boundaries (v12, world, 2023)","license":"CC BY 4.0","neighbour":"Iran","line_type":"Unsettled median line (maritime)","length_km":90.8},"geometry":{"type":"LineString","coordinates":[[49.52611,28.935],[49.50238,28.98135],[49.48244,29.01755],[49.46166,29.05295],[49.43454,29.09611],[49.40611,29.13804],[49.38242,29.17069],[49.35162,29.21038],[49.3214,29.24663],[49.28114,29.26116],[49.23777,29.27541],[49.19469,29.28811],[49.15191,29.29926],[49.10941,29.30886],[49.06721,29.31691],[49.02529,29.3234],[48.994,29.32726],[48.95745,29.35968],[48.92125,29.38996],[48.88546,29.41803],[48.86103,29.43609]]}},{"type":"Feature","properties":{"id":"kw-maritime-boundary-3423","name_en":"Kuwait - Iraq","name_ar":null,"feature_class":"maritime_boundary_line","source":"Marine Regions (VLIZ), Maritime Boundaries (v12, world, 2023)","license":"CC BY 4.0","neighbour":"Iraq","line_type":"Median line","length_km":65.78},"geometry":{"type":"LineString","coordinates":[[48.86103,29.43609],[48.7378,29.50973],[48.69682,29.53223],[48.66539,29.54718],[48.64454,29.55598],[48.58883,29.57682],[48.56646,29.58422],[48.53213,29.6439],[48.5136,29.67357],[48.48297,29.72001],[48.45599,29.76435],[48.44174,29.78526],[48.43203,29.80356],[48.42637,29.81256],[48.41353,29.82861],[48.4008,29.84064]]}},{"type":"Feature","properties":{"id":"kw-maritime-boundary-3877","name_en":"Connection line Kuwait - Iraq","name_ar":null,"feature_class":"maritime_boundary_line","source":"Marine Regions (VLIZ), Maritime Boundaries (v12, world, 2023)","license":"CC BY 4.0","neighbour":"Iraq","line_type":"Connection line","length_km":1.85},"geometry":{"type":"LineString","coordinates":[[48.41412,29.85268],[48.4008,29.84064]]}},{"type":"Feature","properties":{"id":"kw-maritime-boundary-3986","name_en":"Connection line Saudi Arabia - Kuwait","name_ar":null,"feature_class":"maritime_boundary_line","source":"Marine Regions (VLIZ), Maritime Boundaries (v12, world, 2023)","license":"CC BY 4.0","neighbour":"Saudi Arabia","line_type":"Connection line","length_km":0.16},"geometry":{"type":"LineString","coordinates":[[48.43139,28.53402],[48.43306,28.53402]]}}],"metadata":{"derived_from":"vector/maritime/kuwait_maritime_boundaries.geojson","simplification":"Douglas-Peucker, 50 m tolerance in LAEA(29.3N,47.7E), topology preserved; 5-decimal coordinates; measured max deviation from source 49.6 m","dropped_features":["kw-maritime-boundary-3817"],"note":"A web view of the full-resolution file named in derived_from. Measure from that file, not this one."}}