{"type":"FeatureCollection","features":[{"type":"Feature","properties":{"id":"kw-pa-mubarak-al-kabeer","name_en":"Mubarak Al-Kabeer Natural Reserve","name_ar":"محمية مبارك الكبير الطبيعية","feature_class":"protected_area","source":"Environment Public Authority (EPA), State of Kuwait - reserve page","license":"Coordinates published by the Environment Public Authority, State of Kuwait; licence not stated; reproduced as published legal boundary coordinates with citation","designation":"marine reserve (border reserve)","area_km2":409.4625,"area_km2_text":638.0,"area_km2_table":510.22},"geometry":{"type":"Polygon","coordinates":[[[48.20216,29.77672],[48.20388,29.82492],[48.11413,29.82709],[48.0993,29.77832],[48.15254,29.75576],[48.15353,29.7498],[48.1211,29.73188],[48.11897,29.73235],[48.11808,29.73531],[48.10774,29.73912],[48.0937,29.74933],[48.09083,29.75461],[48.08399,29.76025],[48.07072,29.76573],[48.06006,29.77762],[48.05042,29.79606],[48.02951,29.83237],[48.02417,29.84903],[48.01968,29.87601],[48.02235,29.90489],[48.01226,29.94426],[48.01978,29.97983],[48.03904,30.01361],[48.0837,30.02659],[48.12279,30.0227],[48.15694,30.0148],[48.16949,29.99771],[48.20041,29.97247],[48.23125,29.95096],[48.23376,29.9433],[48.25986,29.92665],[48.13005,29.89762],[48.2386,29.79672],[48.20216,29.77672]]]}},{"type":"Feature","properties":{"id":"kw-pa-huwaymiliyah","name_en":"Al-Huwaymiliyah Natural Reserve","name_ar":"محمية الهويملية الطبيعية","feature_class":"protected_area","source":"Environment Public Authority (EPA), State of Kuwait - reserve page","license":"Coordinates published by the Environment Public Authority, State of Kuwait; licence not stated; reproduced as published legal boundary coordinates with citation","designation":"natural wildlife reserve (border reserve)","area_km2":123.7197,"area_km2_text":402.0,"area_km2_table":172.41},"geometry":{"type":"MultiPolygon","coordinates":[[[[47.14491,29.80225],[47.14656,29.80346],[47.19078,29.76739],[47.1559,29.7936],[47.14491,29.80225]]],[[[47.14491,29.80225],[47.09913,29.76894],[47.10598,29.78736],[47.11998,29.81196],[47.12389,29.80868],[47.13215,29.8124],[47.14491,29.80225]]],[[[47.22726,29.88326],[47.24959,29.85299],[47.25568,29.83709],[47.24441,29.76646],[47.18662,29.83262],[47.14656,29.80346],[47.13357,29.81379],[47.13314,29.8269],[47.12786,29.82765],[47.17622,29.94306],[47.19866,29.91816],[47.22726,29.88326]]]]}},{"type":"Feature","properties":{"id":"kw-pa-sabah-al-ahmad","name_en":"Sabah Al-Ahmad Natural Reserve","name_ar":"محمية صباح الأحمد الطبيعية","feature_class":"protected_area","source":"Environment Public Authority (EPA), State of Kuwait - reserve page","license":"Coordinates published by the Environment Public Authority, State of Kuwait; licence not stated; reproduced as published legal boundary coordinates with citation","designation":"natural reserve (terrestrial and coastal)","area_km2":335.0935,"area_km2_text":330.0,"area_km2_table":325.03},"geometry":{"type":"Polygon","coordinates":[[[47.68846,29.44528],[47.69685,29.54319],[47.71585,29.55051],[47.74157,29.58945],[47.80177,29.60397],[47.78571,29.65462],[47.74784,29.64568],[47.74431,29.69634],[47.87178,29.6898],[47.87098,29.66761],[47.88908,29.63643],[47.8879,29.59006],[47.91314,29.5435],[47.79755,29.46092],[47.74849,29.50024],[47.68846,29.44528]]]}},{"type":"Feature","properties":{"id":"kw-pa-jal-al-liyah","name_en":"Jal Al-Liyah Fenced Area","name_ar":"مسيجة جال اللياح","feature_class":"protected_area","source":"Environment Public Authority (EPA), State of Kuwait - reserve page","license":"Coordinates published by the Environment Public Authority, State of Kuwait; licence not stated; reproduced as published legal boundary coordinates with citation","designation":"wildlife fenced area (rehabilitation)","area_km2":138.2304,"area_km2_text":147.0,"area_km2_table":179.47},"geometry":{"type":"Polygon","coordinates":[[[47.66308,29.65419],[47.66437,29.64719],[47.66473,29.64058],[47.66154,29.6252],[47.66204,29.6209],[47.66466,29.61064],[47.66509,29.60517],[47.66463,29.60027],[47.66252,29.59391],[47.65504,29.58095],[47.65342,29.57725],[47.65297,29.56867],[47.65885,29.54011],[47.65857,29.52915],[47.65764,29.52512],[47.65431,29.51746],[47.65335,29.5108],[47.65378,29.50123],[47.65117,29.48865],[47.64776,29.48091],[47.64636,29.4728],[47.64617,29.46679],[47.64388,29.46801],[47.62867,29.48024],[47.54643,29.5402],[47.5475,29.57856],[47.56044,29.62438],[47.60248,29.59617],[47.66286,29.65954],[47.66308,29.65419]]]}},{"type":"Feature","properties":{"id":"kw-pa-sulaibikhat-marine","name_en":"Sulaibikhat Marine Natural Reserve","name_ar":"محمية الصليبيخات البحرية الطبيعية","feature_class":"protected_area","source":"Environment Public Authority (EPA), State of Kuwait - reserve page","license":"Coordinates published by the Environment Public Authority, State of Kuwait; licence not stated; reproduced as published legal boundary coordinates with citation","designation":"marine reserve","area_km2":7.0866,"area_km2_text":null,"area_km2_table":15.68},"geometry":{"type":"Polygon","coordinates":[[[47.82847,29.37327],[47.85275,29.37368],[47.84841,29.31936],[47.82847,29.37327]]]}},{"type":"Feature","properties":{"id":"kw-pa-sulaibikhat-gulf-beach-doha","name_en":"Sulaibikhat Gulf Beach (Al-Doha) Natural Reserve","name_ar":"محمية الصليبيخات الساحلية الطبيعية","feature_class":"protected_area","source":"Environment Public Authority (EPA), State of Kuwait - reserve page","license":"Coordinates published by the Environment Public Authority, State of Kuwait; licence not stated; reproduced as published legal boundary coordinates with citation","designation":"coastal reserve (bird sanctuary)","area_km2":1.3286,"area_km2_text":4.5,"area_km2_table":1.31},"geometry":{"type":"MultiPolygon","coordinates":[[[[47.81681,29.35428],[47.82221,29.35406],[47.82169,29.34414],[47.81881,29.34426],[47.8184,29.33479],[47.81681,29.35428]]],[[[47.81775,29.36767],[47.8216,29.36533],[47.81641,29.35911],[47.81681,29.35428],[47.80916,29.35458],[47.81142,29.35933],[47.81775,29.36767]]]]}},{"type":"Feature","properties":{"id":"kw-pa-khuwaisat-jahra","name_en":"Al-Khuwaisat (Al-Jahra) Natural Reserve","name_ar":"محمية الخويسات (الجهراء) الطبيعية","feature_class":"protected_area","source":"Environment Public Authority (EPA), State of Kuwait - reserve page","license":"Coordinates published by the Environment Public Authority, State of Kuwait; licence not stated; reproduced as published legal boundary coordinates with citation","designation":"natural reserve (wetland, bird sanctuary)","area_km2":17.9488,"area_km2_text":18.0,"area_km2_table":17.91},"geometry":{"type":"Polygon","coordinates":[[[47.73919,29.35989],[47.73128,29.3515],[47.72023,29.35148],[47.71917,29.34968],[47.72736,29.34438],[47.72314,29.33975],[47.67849,29.36039],[47.66862,29.37062],[47.66742,29.3723],[47.66671,29.37424],[47.69744,29.40318],[47.70002,29.39969],[47.6983,29.36998],[47.73699,29.36239],[47.73919,29.35989]]]}},{"type":"Feature","properties":{"id":"kw-pa-wadi-al-batin","name_en":"Wadi Al-Batin Natural Reserve","name_ar":"محمية وادي الباطن الطبيعية","feature_class":"protected_area","source":"Environment Public Authority (EPA), State of Kuwait - reserve page","license":"Coordinates published by the Environment Public Authority, State of Kuwait; licence not stated; reproduced as published legal boundary coordinates with citation","designation":"natural wildlife reserve (border reserve)","area_km2":517.3402,"area_km2_text":910.0,"area_km2_table":521.04},"geometry":{"type":"Polygon","coordinates":[[[46.67262,29.14106],[46.69717,29.16159],[46.72088,29.18368],[46.75306,29.22909],[46.81058,29.2959],[46.81502,29.30186],[46.83052,29.32657],[46.86432,29.35672],[46.90841,29.4071],[46.92347,29.42937],[46.93967,29.36876],[46.97515,29.28991],[46.99345,29.215],[46.98045,29.212],[46.97943,29.16135],[47.02158,29.13984],[47.00903,29.12983],[46.97256,29.14094],[46.78691,29.14482],[46.75076,29.14884],[46.71524,29.13268],[46.6988,29.13406],[46.68283,29.12776],[46.68342,29.1187],[46.64806,29.1138],[46.61452,29.09502],[46.63655,29.11694],[46.67262,29.14106]],[[46.86671,29.23619],[46.64202,29.11296],[46.64806,29.1138],[46.86671,29.23619]]]}},{"type":"Feature","properties":{"id":"kw-pa-saad","name_en":"Saad Natural Reserve","name_ar":"محمية سعد","feature_class":"protected_area","source":"Environment Public Authority (EPA), State of Kuwait - reserve page","license":"Coordinates published by the Environment Public Authority, State of Kuwait; licence not stated; reproduced as published legal boundary coordinates with citation","designation":"wildlife reserve (seed store)","area_km2":0.8902,"area_km2_text":null,"area_km2_table":1.31},"geometry":{"type":"MultiPolygon","coordinates":[[[[48.21044,28.74637],[48.20741,28.73125],[48.20058,28.73404],[48.20897,28.74595],[48.21044,28.74637]]],[[[48.21235,28.75596],[48.21722,28.7373],[48.2144,28.74752],[48.21044,28.74637],[48.21235,28.75596]]]]}},{"type":"Feature","properties":{"id":"kw-pa-al-qurain-hill","name_en":"Al-Qurain Hill Natural Reserve","name_ar":"محمية ضلع القرين الطبيعية","feature_class":"protected_area","source":"Environment Public Authority (EPA), State of Kuwait - reserve page","license":"Coordinates published by the Environment Public Authority, State of Kuwait; licence not stated; reproduced as published legal boundary coordinates with citation","designation":"wild nature reserve","area_km2":3.1084,"area_km2_text":6.0,"area_km2_table":6.21},"geometry":{"type":"Polygon","coordinates":[[[48.01876,28.76655],[47.9954,28.77666],[48.01254,28.78158],[48.0295,28.78662],[48.01876,28.76655]]]}},{"type":"Feature","properties":{"id":"kw-pa-umm-gudair","name_en":"Umm Gudair Natural Reserve","name_ar":"محمية أم قدير الطبيعية","feature_class":"protected_area","source":"Environment Public Authority (EPA), State of Kuwait - reserve page","license":"Coordinates published by the Environment Public Authority, State of Kuwait; licence not stated; reproduced as published legal boundary coordinates with citation","designation":"natural wildlife reserve (border reserve)","area_km2":262.9149,"area_km2_text":580.0,"area_km2_table":295.18},"geometry":{"type":"Polygon","coordinates":[[[47.64922,28.86687],[47.64882,28.86124],[47.65,28.85454],[47.62846,28.83518],[47.65921,28.78265],[47.67287,28.78654],[47.697,28.77112],[47.71986,28.77319],[47.72347,28.77853],[47.79159,28.7047],[47.69492,28.5899],[47.67568,28.6084],[47.65547,28.63329],[47.64965,28.64678],[47.63622,28.66137],[47.63232,28.66753],[47.62872,28.67941],[47.63151,28.69087],[47.62488,28.69663],[47.62234,28.716],[47.60995,28.72584],[47.61708,28.76176],[47.61649,28.77252],[47.61113,28.77733],[47.60195,28.81337],[47.60242,28.83152],[47.67465,28.7343],[47.57878,28.91338],[47.64922,28.86687]]]}},{"type":"Feature","properties":{"id":"kw-pa-judailiyat","name_en":"Judailiyat Protected Area","name_ar":"محمية الجديلات الطبيعية","feature_class":"protected_area","source":"Environment Public Authority (EPA), State of Kuwait - reserve page","license":"Coordinates published by the Environment Public Authority, State of Kuwait; licence not stated; reproduced as published legal boundary coordinates with citation","designation":"coastal marine reserve","area_km2":0.7062,"area_km2_text":0.7,"area_km2_table":0.71},"geometry":{"type":"Polygon","coordinates":[[[47.74332,29.37084],[47.74378,29.37025],[47.75016,29.37391],[47.75148,29.37111],[47.74008,29.36374],[47.73686,29.36788],[47.73792,29.37148],[47.74332,29.37084]]]}},{"type":"Feature","properties":{"id":"kw-pa-faidat-alsidr","name_en":"Faidat Alsidr Fenced Area","name_ar":"محمية فيضة السدر","feature_class":"protected_area","source":"Environment Public Authority (EPA), State of Kuwait - reserve page","license":"Coordinates published by the Environment Public Authority, State of Kuwait; licence not stated; reproduced as published legal boundary coordinates with citation","designation":"fenced area","area_km2":9.9821,"area_km2_text":1.0,"area_km2_table":1.0},"geometry":{"type":"Polygon","coordinates":[[[47.17955,29.5933],[47.17335,29.5933],[47.29408,29.99337],[47.17955,29.59875],[47.17955,29.5933]]]}},{"type":"Feature","properties":{"id":"kw-pa-nuwaiseeb","name_en":"Al Numaiseb Fanced Area","name_ar":"مسيجة النويصيب","feature_class":"protected_area","source":"Environment Public Authority (EPA), State of Kuwait - reserve page","license":"Coordinates published by the Environment Public Authority, State of Kuwait; licence not stated; reproduced as published legal boundary coordinates with citation","designation":"wildlife fenced area (seed bank)","area_km2":2.9391,"area_km2_text":null,"area_km2_table":3.12},"geometry":{"type":"Polygon","coordinates":[[[48.38541,28.53934],[48.37659,28.57011],[48.40323,28.56431],[48.38887,28.5569],[48.38541,28.53934]]]}},{"type":"Feature","properties":{"id":"kw-pa-kubbar","name_en":"Kubbar Island Natural Reserve","name_ar":"محمية جزيرة كبر الطبيعية","feature_class":"protected_area","source":"Environment Public Authority (EPA), State of Kuwait - reserve page","license":"Coordinates published by the Environment Public Authority, State of Kuwait; licence not stated; reproduced as published legal boundary coordinates with citation","designation":"marine reserve","area_km2":null,"area_km2_text":75.0,"area_km2_table":75.0},"geometry":{"type":"Point","coordinates":[48.2934,29.042]}},{"type":"Feature","properties":{"id":"kw-pa-qaruh","name_en":"Qaruh Island Natural Reserve","name_ar":"محمية جزيرة قاروه الطبيعية","feature_class":"protected_area","source":"Environment Public Authority (EPA), State of Kuwait - reserve page","license":"Coordinates published by the Environment Public Authority, State of Kuwait; licence not stated; reproduced as published legal boundary coordinates with citation","designation":"marine reserve","area_km2":null,"area_km2_text":75.0,"area_km2_table":75.0},"geometry":{"type":"Point","coordinates":[48.4635,28.4903]}},{"type":"Feature","properties":{"id":"kw-pa-umm-al-maradim","name_en":"Umm Almradim Island Natural Reserve","name_ar":"محمية جزيرة أم المرادم الطبيعية","feature_class":"protected_area","source":"Environment Public Authority (EPA), State of Kuwait - reserve page","license":"Coordinates published by the Environment Public Authority, State of Kuwait; licence not stated; reproduced as published legal boundary coordinates with citation","designation":"marine reserve","area_km2":null,"area_km2_text":75.0,"area_km2_table":75.0},"geometry":{"type":"Point","coordinates":[48.3905,28.405]}},{"type":"Feature","properties":{"id":"kw-pa-dmz","name_en":"Demilitarized Zone Natural Reserve","name_ar":"محمية المنطقة منزوعة السلاح الطبيعية","feature_class":"protected_area","source":"Environment Public Authority (EPA), State of Kuwait - reserve page","license":"Coordinates published by the Environment Public Authority, State of Kuwait; licence not stated; reproduced as published legal boundary coordinates with citation","designation":"wild natural reserve","area_km2":859.1209,"area_km2_text":null,"area_km2_table":1008.11},"geometry":{"type":"MultiPolygon","coordinates":[[[[46.55777,29.10266],[46.5536,29.1014],[46.56189,29.10979],[46.55777,29.10266]]],[[[46.56724,29.11901],[46.57805,29.1308],[46.59434,29.14636],[46.61049,29.15895],[46.56189,29.10979],[46.56724,29.11901]]],[[[46.61049,29.15895],[46.72236,29.27212],[46.71549,29.26328],[46.70343,29.24995],[46.69442,29.23583],[46.6848,29.22245],[46.67133,29.20685],[46.64857,29.18564],[46.62789,29.16841],[46.61049,29.15895]]],[[[46.81502,29.30186],[46.81058,29.2959],[46.75306,29.22909],[46.72088,29.18368],[46.69717,29.16159],[46.67262,29.14106],[46.63655,29.11694],[46.94271,29.46563],[46.93843,29.45745],[46.9319,29.44118],[46.90841,29.4071],[46.86432,29.35672],[46.83052,29.32657],[46.81502,29.30186]]],[[[46.97107,29.52373],[47.17371,29.72873],[46.94271,29.46563],[46.9485,29.47671],[46.97107,29.52373]]],[[[46.86684,29.43664],[46.87708,29.45499],[46.88443,29.47197],[46.89312,29.48997],[46.90265,29.50508],[46.90322,29.50681],[46.9048,29.52434],[46.91941,29.53889],[46.92736,29.55474],[46.93983,29.57091],[46.95491,29.60328],[46.9707,29.61778],[46.97886,29.63563],[46.99883,29.66337],[47.004,29.68281],[47.00736,29.72179],[47.01773,29.73765],[47.03194,29.75191],[47.03869,29.76904],[47.04875,29.78467],[47.05416,29.80061],[47.06317,29.81871],[47.08246,29.85143],[47.09036,29.87133],[47.10139,29.90348],[47.10499,29.92081],[47.1132,29.93677],[47.12445,29.95313],[47.12999,29.97031],[47.13963,29.9861],[47.15725,30.00087],[47.17248,30.0163],[47.19065,30.02809],[47.22811,30.04257],[47.24829,30.04788],[47.26893,30.05126],[47.28794,30.05802],[47.30592,30.0682],[47.33946,30.09057],[47.36168,30.09646],[47.37127,30.10294],[47.70749,30.10321],[47.88085,30.03663],[47.95473,30.00869],[47.95826,30.00422],[47.95795,30.00117],[47.9605,29.9973],[47.96816,29.99415],[47.97345,29.99508],[47.98618,29.99333],[47.99796,29.99093],[48.00466,29.98894],[48.01176,29.98782],[48.00708,29.97946],[48.00385,29.96835],[48.00215,29.96435],[48.00175,29.96062],[48.00248,29.9562],[48.00786,29.94649],[48.00861,29.94235],[48.00789,29.93622],[47.95003,29.94715],[47.9382,29.95235],[47.94203,29.98594],[47.94,29.9864],[47.93625,29.9535],[47.90282,29.97294],[47.85052,29.99155],[47.8467,29.99664],[47.83764,30.00152],[47.82917,30.03677],[47.81357,30.04858],[47.74961,30.07436],[47.7403,30.08024],[47.73184,30.08337],[47.70035,30.08941],[47.66962,30.05225],[47.63164,30.05671],[47.53101,30.0551],[47.39051,30.05604],[47.36523,30.049],[47.33109,30.0267],[47.31499,30.0178],[47.3047,30.01323],[47.28819,30.00761],[47.24737,29.99892],[47.20842,29.98205],[47.19494,29.96433],[47.18204,29.95652],[47.12786,29.82765],[47.12938,29.81725],[47.12865,29.81539],[47.11998,29.81196],[47.10598,29.78736],[47.09498,29.75708],[47.08135,29.73131],[47.06096,29.70499],[47.05826,29.67314],[47.05239,29.64608],[47.02448,29.6111],[47.01977,29.59925],[46.98218,29.54361],[46.97107,29.52373],[46.72236,29.27212],[46.72814,29.27956],[46.76725,29.32125],[46.78461,29.3549],[46.79816,29.36833],[46.81527,29.38032],[46.82579,29.39423],[46.86684,29.43664]]]]}},{"type":"Feature","properties":{"id":"kw-pa-umm-niqa","name_en":"Umm Niqa Natural Reserve","name_ar":"Umm Niqa Natural Reserve","feature_class":"protected_area","source":"Environment Public Authority (EPA), State of Kuwait - reserve page","license":"Coordinates published by the Environment Public Authority, State of Kuwait; licence not stated; reproduced as published legal boundary coordinates with citation","designation":"natural wildlife reserve (terrestrial rehabilitation)","area_km2":48.3944,"area_km2_text":246.0,"area_km2_table":69.55},"geometry":{"type":"MultiPolygon","coordinates":[[[[47.90213,29.86628],[47.9024,29.86627],[47.90175,29.8579],[47.90213,29.86628]]],[[[47.93788,29.9019],[47.95222,29.85668],[47.93276,29.85713],[47.93285,29.86546],[47.9024,29.86627],[47.90584,29.91026],[47.90292,29.92277],[47.93413,29.93936],[47.93497,29.93915],[47.93362,29.92712],[47.93365,29.9174],[47.93788,29.9019]]],[[[47.8738,29.93408],[47.87497,29.9491],[47.87799,29.94889],[47.87829,29.9528],[47.88551,29.95106],[47.88457,29.94819],[47.89517,29.94557],[47.8961,29.94851],[47.89697,29.9483],[47.90292,29.92277],[47.85798,29.89889],[47.85903,29.906],[47.862,29.90583],[47.86289,29.91775],[47.87178,29.91722],[47.8738,29.93408]]],[[[47.89377,29.94979],[47.89475,29.96151],[47.89107,29.96596],[47.88874,29.97017],[47.88701,29.97137],[47.88696,29.97405],[47.88487,29.97658],[47.88266,29.97671],[47.88396,29.97808],[47.88271,29.97855],[47.88273,29.97913],[47.90016,29.97356],[47.93673,29.95255],[47.93506,29.93985],[47.93413,29.93936],[47.89697,29.9483],[47.89672,29.94937],[47.89377,29.94979]]]]}}],"metadata":{"derived_from":"vector/environment/protected_areas_epa.geojson","simplification":"Douglas-Peucker, 25 m tolerance in LAEA(29.3N,47.7E), topology preserved; 5-decimal coordinates; measured max deviation from source 24.6 m","dropped_features":[],"note":"A web view of the full-resolution file named in derived_from. Measure from that file, not this one."}}