{"type":"FeatureCollection","features":[{"type":"Feature","properties":{"id":"kw-pa-way-566335925","name_en":null,"name_ar":null,"feature_class":"protected_area","source":"OpenStreetMap (Geofabrik GCC extract 2026-09-22)","license":"ODbL 1.0 (c) OpenStreetMap contributors","area_km2":40.0295},"geometry":{"type":"Polygon","coordinates":[[[47.63366,29.1935],[47.73642,29.1918],[47.73602,29.15566],[47.63281,29.15749],[47.63366,29.1935]]]}},{"type":"Feature","properties":{"id":"kw-pa-way-1345201569","name_en":"Jahra Nature Reserve","name_ar":"محمية الجهراء الطبيعية","feature_class":"protected_area","source":"OpenStreetMap (Geofabrik GCC extract 2026-09-22)","license":"ODbL 1.0 (c) OpenStreetMap contributors; Wikidata columns CC0 1.0 (Wikidata)","area_km2":1.5297},"geometry":{"type":"Polygon","coordinates":[[[47.68796,29.35774],[47.68478,29.35785],[47.68372,29.35881],[47.68345,29.36002],[47.68445,29.36078],[47.68781,29.36191],[47.69012,29.36654],[47.69274,29.36837],[47.69534,29.36945],[47.69868,29.36637],[47.70122,29.36662],[47.70387,29.36571],[47.70286,29.36061],[47.69881,29.3601],[47.69413,29.35859],[47.6924,29.35645],[47.68796,29.35774]]]}},{"type":"Feature","properties":{"id":"kw-pa-way-1316039120","name_en":"Gulf of Sulaibikhat Bird Sanctuary","name_ar":"محمية طيور خليج الصليبخات","feature_class":"protected_area","source":"OpenStreetMap (Geofabrik GCC extract 2026-09-22)","license":"ODbL 1.0 (c) OpenStreetMap contributors","area_km2":0.1996},"geometry":{"type":"Polygon","coordinates":[[[47.88093,29.32716],[47.884,29.32763],[47.88577,29.32598],[47.88453,29.3258],[47.88275,29.32472],[47.88292,29.32435],[47.87967,29.3231],[47.87811,29.32575],[47.88093,29.32716]]]}},{"type":"Feature","properties":{"id":"kw-pa-way-441854126","name_en":null,"name_ar":null,"feature_class":"protected_area","source":"OpenStreetMap (Geofabrik GCC extract 2026-09-22)","license":"ODbL 1.0 (c) OpenStreetMap contributors","area_km2":0.1325},"geometry":{"type":"Polygon","coordinates":[[[47.79311,29.329],[47.79278,29.32713],[47.79385,29.32505],[47.79147,29.32415],[47.79015,29.32684],[47.79061,29.32936],[47.79311,29.329]]]}},{"type":"Feature","properties":{"id":"kw-pa-node-9445269947","name_en":"Bird's Pool Reserve","name_ar":"محمية بركة الطيور","feature_class":"protected_area","source":"OpenStreetMap (Geofabrik GCC extract 2026-09-22)","license":"ODbL 1.0 (c) OpenStreetMap contributors","area_km2":null},"geometry":{"type":"Point","coordinates":[47.66917,29.37115]}},{"type":"Feature","properties":{"id":"kw-pa-node-12181093176","name_en":null,"name_ar":"محمية جزيرة كبر الطبيعية","feature_class":"protected_area","source":"OpenStreetMap (Geofabrik GCC extract 2026-09-22)","license":"ODbL 1.0 (c) OpenStreetMap contributors","area_km2":null},"geometry":{"type":"Point","coordinates":[48.49252,29.07236]}}],"metadata":{"derived_from":"vector/environment/protected_areas.geojson","simplification":"Douglas-Peucker, 25 m tolerance in LAEA(29.3N,47.7E), topology preserved; 5-decimal coordinates; measured max deviation from source 24.7 m","dropped_features":[],"note":"A web view of the full-resolution file named in derived_from. Measure from that file, not this one."}}