{"type":"FeatureCollection","features":[{"type":"Feature","properties":{"id":"kw-place-city-node-1760623214","name_en":"Ahmadi","name_ar":"الأحمدي","feature_class":"settlement","source":"OpenStreetMap (Geofabrik GCC extract 2026-09-22)","license":"ODbL 1.0 (c) OpenStreetMap contributors","place":"city"},"geometry":{"type":"Point","coordinates":[48.06102,29.08907]}},{"type":"Feature","properties":{"id":"kw-place-city-node-1278188834","name_en":"Al Jahra","name_ar":"الجهراء","feature_class":"settlement","source":"OpenStreetMap (Geofabrik GCC extract 2026-09-22)","license":"ODbL 1.0 (c) OpenStreetMap contributors ; GeoNames match columns CC BY 4.0","place":"city"},"geometry":{"type":"Point","coordinates":[47.67221,29.34746]}},{"type":"Feature","properties":{"id":"kw-place-city-node-544060405","name_en":"Kuwait City","name_ar":"مدينة الكويت","feature_class":"settlement","source":"OpenStreetMap (Geofabrik GCC extract 2026-09-22)","license":"ODbL 1.0 (c) OpenStreetMap contributors ; GeoNames match columns CC BY 4.0","place":"city"},"geometry":{"type":"Point","coordinates":[47.97342,29.37965]}},{"type":"Feature","properties":{"id":"kw-place-town-node-12135776171","name_en":"Abu Al-Hasani","name_ar":null,"feature_class":"settlement","source":"OpenStreetMap (Geofabrik GCC extract 2026-09-22)","license":"ODbL 1.0 (c) OpenStreetMap contributors ; GeoNames match columns CC BY 4.0","place":"town"},"geometry":{"type":"Point","coordinates":[48.11257,29.19391]}},{"type":"Feature","properties":{"id":"kw-place-town-node-4600587315","name_en":"Ali Subah Al Salem","name_ar":"علي صباح السالم","feature_class":"settlement","source":"OpenStreetMap (Geofabrik GCC extract 2026-09-22)","license":"ODbL 1.0 (c) OpenStreetMap contributors","place":"town"},"geometry":{"type":"Point","coordinates":[48.1508,28.95559]}},{"type":"Feature","properties":{"id":"kw-place-town-node-4588169807","name_en":"Sabah Al-Ahmad","name_ar":"صباح الأحمد","feature_class":"settlement","source":"OpenStreetMap (Geofabrik GCC extract 2026-09-22)","license":"ODbL 1.0 (c) OpenStreetMap contributors","place":"town"},"geometry":{"type":"Point","coordinates":[48.06365,28.78236]}},{"type":"Feature","properties":{"id":"kw-place-town-node-10707750005","name_en":"Subiya","name_ar":"الصبية","feature_class":"settlement","source":"OpenStreetMap (Geofabrik GCC extract 2026-09-22)","license":"ODbL 1.0 (c) OpenStreetMap contributors","place":"town"},"geometry":{"type":"Point","coordinates":[47.74365,29.44883]}},{"type":"Feature","properties":{"id":"kw-place-village-node-3621660962","name_en":"Abdali","name_ar":"العبدلي","feature_class":"settlement","source":"OpenStreetMap (Geofabrik GCC extract 2026-09-22)","license":"ODbL 1.0 (c) OpenStreetMap contributors","place":"village"},"geometry":{"type":"Point","coordinates":[47.72014,30.02319]}},{"type":"Feature","properties":{"id":"kw-place-village-node-1441184269","name_en":"Al Abraq","name_ar":null,"feature_class":"settlement","source":"OpenStreetMap (Geofabrik GCC extract 2026-09-22)","license":"ODbL 1.0 (c) OpenStreetMap contributors","place":"village"},"geometry":{"type":"Point","coordinates":[46.95786,29.37273]}},{"type":"Feature","properties":{"id":"kw-place-village-node-1441184270","name_en":"Al Khiran","name_ar":null,"feature_class":"settlement","source":"OpenStreetMap (Geofabrik GCC extract 2026-09-22)","license":"ODbL 1.0 (c) OpenStreetMap contributors ; GeoNames match columns CC BY 4.0","place":"village"},"geometry":{"type":"Point","coordinates":[48.3891,28.66143]}},{"type":"Feature","properties":{"id":"kw-place-village-node-9876599816","name_en":"Al Salmi","name_ar":"السالمي","feature_class":"settlement","source":"OpenStreetMap (Geofabrik GCC extract 2026-09-22)","license":"ODbL 1.0 (c) OpenStreetMap contributors","place":"village"},"geometry":{"type":"Point","coordinates":[46.67878,29.09864]}},{"type":"Feature","properties":{"id":"kw-place-village-node-1441184271","name_en":"Al Wafrah","name_ar":null,"feature_class":"settlement","source":"OpenStreetMap (Geofabrik GCC extract 2026-09-22)","license":"ODbL 1.0 (c) OpenStreetMap contributors ; GeoNames match columns CC BY 4.0","place":"village"},"geometry":{"type":"Point","coordinates":[47.93124,28.63959]}},{"type":"Feature","properties":{"id":"kw-place-village-node-1441184272","name_en":"Az Zawr","name_ar":null,"feature_class":"settlement","source":"OpenStreetMap (Geofabrik GCC extract 2026-09-22)","license":"ODbL 1.0 (c) OpenStreetMap contributors ; GeoNames match columns CC BY 4.0","place":"village"},"geometry":{"type":"Point","coordinates":[48.38225,28.73543]}},{"type":"Feature","properties":{"id":"kw-place-village-node-1440254592","name_en":null,"name_ar":null,"feature_class":"settlement","source":"OpenStreetMap (Geofabrik GCC extract 2026-09-22)","license":"ODbL 1.0 (c) OpenStreetMap contributors","place":"village"},"geometry":{"type":"Point","coordinates":[48.09425,29.74035]}},{"type":"Feature","properties":{"id":"kw-place-village-node-2988967397","name_en":null,"name_ar":null,"feature_class":"settlement","source":"OpenStreetMap (Geofabrik GCC extract 2026-09-22)","license":"ODbL 1.0 (c) OpenStreetMap contributors","place":"village"},"geometry":{"type":"Point","coordinates":[48.24818,29.48806]}},{"type":"Feature","properties":{"id":"kw-place-suburb-node-12143388455","name_en":"Abbasiya","name_ar":null,"feature_class":"settlement","source":"OpenStreetMap (Geofabrik GCC extract 2026-09-22)","license":"ODbL 1.0 (c) OpenStreetMap contributors ; GeoNames match columns CC BY 4.0","place":"suburb"},"geometry":{"type":"Point","coordinates":[47.93219,29.26013]}},{"type":"Feature","properties":{"id":"kw-place-suburb-node-4602123783","name_en":"Abdullah Al-Salem (Dahya)","name_ar":null,"feature_class":"settlement","source":"OpenStreetMap (Geofabrik GCC extract 2026-09-22)","license":"ODbL 1.0 (c) OpenStreetMap contributors ; GeoNames match columns CC BY 4.0","place":"suburb"},"geometry":{"type":"Point","coordinates":[47.98029,29.3536]}},{"type":"Feature","properties":{"id":"kw-place-suburb-node-4603691780","name_en":"Abdullah Mubarak Al-Sabah","name_ar":"عبدالله المبارك الصباح","feature_class":"settlement","source":"OpenStreetMap (Geofabrik GCC extract 2026-09-22)","license":"ODbL 1.0 (c) OpenStreetMap contributors","place":"suburb"},"geometry":{"type":"Point","coordinates":[47.90455,29.24111]}},{"type":"Feature","properties":{"id":"kw-place-suburb-node-4665677912","name_en":"Abu Fatira","name_ar":"أبو فطيرة","feature_class":"settlement","source":"OpenStreetMap (Geofabrik GCC extract 2026-09-22)","license":"ODbL 1.0 (c) OpenStreetMap contributors ; GeoNames match columns CC BY 4.0","place":"suburb"},"geometry":{"type":"Point","coordinates":[48.10097,29.19898]}},{"type":"Feature","properties":{"id":"kw-place-suburb-node-4665677903","name_en":"Abu Halifa","name_ar":"أبو حليفة","feature_class":"settlement","source":"OpenStreetMap (Geofabrik GCC extract 2026-09-22)","license":"ODbL 1.0 (c) OpenStreetMap contributors ; GeoNames match columns CC BY 4.0","place":"suburb"},"geometry":{"type":"Point","coordinates":[48.12402,29.13011]}},{"type":"Feature","properties":{"id":"kw-place-suburb-node-4603691896","name_en":"Adailiya","name_ar":"العديلية","feature_class":"settlement","source":"OpenStreetMap (Geofabrik GCC extract 2026-09-22)","license":"ODbL 1.0 (c) OpenStreetMap contributors ; GeoNames match columns CC BY 4.0","place":"suburb"},"geometry":{"type":"Point","coordinates":[47.98148,29.32634]}},{"type":"Feature","properties":{"id":"kw-place-suburb-node-4665677916","name_en":"Al Masayel","name_ar":"المسايل","feature_class":"settlement","source":"OpenStreetMap (Geofabrik GCC extract 2026-09-22)","license":"ODbL 1.0 (c) OpenStreetMap contributors ; GeoNames match columns CC BY 4.0","place":"suburb"},"geometry":{"type":"Point","coordinates":[48.0893,29.23779]}},{"type":"Feature","properties":{"id":"kw-place-suburb-node-1759971873","name_en":"Al-Adan","name_ar":"العدان","feature_class":"settlement","source":"OpenStreetMap (Geofabrik GCC extract 2026-09-22)","license":"ODbL 1.0 (c) OpenStreetMap contributors ; GeoNames match columns CC BY 4.0","place":"suburb"},"geometry":{"type":"Point","coordinates":[48.07042,29.23166]}},{"type":"Feature","properties":{"id":"kw-place-suburb-node-4665677907","name_en":"Al-Fintas","name_ar":"الفنطاس","feature_class":"settlement","source":"OpenStreetMap (Geofabrik GCC extract 2026-09-22)","license":"ODbL 1.0 (c) OpenStreetMap contributors ; GeoNames match columns CC BY 4.0","place":"suburb"},"geometry":{"type":"Point","coordinates":[48.1179,29.1705]}},{"type":"Feature","properties":{"id":"kw-place-suburb-node-4665677914","name_en":"Al-Funaitees","name_ar":"الفنيطيس","feature_class":"settlement","source":"OpenStreetMap (Geofabrik GCC extract 2026-09-22)","license":"ODbL 1.0 (c) OpenStreetMap contributors ; GeoNames match columns CC BY 4.0","place":"suburb"},"geometry":{"type":"Point","coordinates":[48.09451,29.22034]}},{"type":"Feature","properties":{"id":"kw-place-suburb-node-4665677913","name_en":"Al-Qurain","name_ar":"القرين","feature_class":"settlement","source":"OpenStreetMap (Geofabrik GCC extract 2026-09-22)","license":"ODbL 1.0 (c) OpenStreetMap contributors ; GeoNames match columns CC BY 4.0","place":"suburb"},"geometry":{"type":"Point","coordinates":[48.07618,29.20328]}},{"type":"Feature","properties":{"id":"kw-place-suburb-node-4665677915","name_en":"Al-Qusour","name_ar":"القصور","feature_class":"settlement","source":"OpenStreetMap (Geofabrik GCC extract 2026-09-22)","license":"ODbL 1.0 (c) OpenStreetMap contributors ; GeoNames match columns CC BY 4.0","place":"suburb"},"geometry":{"type":"Point","coordinates":[48.07348,29.21607]}},{"type":"Feature","properties":{"id":"kw-place-suburb-node-5416931359","name_en":"Al-Wafra","name_ar":"الوفرة","feature_class":"settlement","source":"OpenStreetMap (Geofabrik GCC extract 2026-09-22)","license":"ODbL 1.0 (c) OpenStreetMap contributors","place":"suburb"},"geometry":{"type":"Point","coordinates":[48.02191,28.60698]}},{"type":"Feature","properties":{"id":"kw-place-suburb-node-12114092256","name_en":"Andalus","name_ar":null,"feature_class":"settlement","source":"OpenStreetMap (Geofabrik GCC extract 2026-09-22)","license":"ODbL 1.0 (c) OpenStreetMap contributors ; GeoNames match columns CC BY 4.0","place":"suburb"},"geometry":{"type":"Point","coordinates":[47.88696,29.3042]}},{"type":"Feature","properties":{"id":"kw-place-suburb-node-4603691771","name_en":"Ardhiya","name_ar":"العارضية","feature_class":"settlement","source":"OpenStreetMap (Geofabrik GCC extract 2026-09-22)","license":"ODbL 1.0 (c) OpenStreetMap contributors ; GeoNames match columns CC BY 4.0","place":"suburb"},"geometry":{"type":"Point","coordinates":[47.89467,29.28934]}},{"type":"Feature","properties":{"id":"kw-place-suburb-node-4603691774","name_en":"Ardhiya 4","name_ar":"العارضية 4","feature_class":"settlement","source":"OpenStreetMap (Geofabrik GCC extract 2026-09-22)","license":"ODbL 1.0 (c) OpenStreetMap contributors","place":"suburb"},"geometry":{"type":"Point","coordinates":[47.91713,29.27861]}},{"type":"Feature","properties":{"id":"kw-place-suburb-node-4603691775","name_en":"Ardhiya 6","name_ar":"العارضية 6","feature_class":"settlement","source":"OpenStreetMap (Geofabrik GCC extract 2026-09-22)","license":"ODbL 1.0 (c) OpenStreetMap contributors","place":"suburb"},"geometry":{"type":"Point","coordinates":[47.92221,29.2945]}},{"type":"Feature","properties":{"id":"kw-place-suburb-node-1759552757","name_en":"Bayan","name_ar":"بيان","feature_class":"settlement","source":"OpenStreetMap (Geofabrik GCC extract 2026-09-22)","license":"ODbL 1.0 (c) OpenStreetMap contributors ; GeoNames match columns CC BY 4.0","place":"suburb"},"geometry":{"type":"Point","coordinates":[48.04785,29.29751]}},{"type":"Feature","properties":{"id":"kw-place-suburb-node-4602123786","name_en":"Bnaid Al Qar","name_ar":"بنيد القار","feature_class":"settlement","source":"OpenStreetMap (Geofabrik GCC extract 2026-09-22)","license":"ODbL 1.0 (c) OpenStreetMap contributors ; GeoNames match columns CC BY 4.0","place":"suburb"},"geometry":{"type":"Point","coordinates":[48.0028,29.37348]}},{"type":"Feature","properties":{"id":"kw-place-suburb-node-4602123773","name_en":"Da'iya","name_ar":"الدعية","feature_class":"settlement","source":"OpenStreetMap (Geofabrik GCC extract 2026-09-22)","license":"ODbL 1.0 (c) OpenStreetMap contributors ; GeoNames match columns CC BY 4.0","place":"suburb"},"geometry":{"type":"Point","coordinates":[48.01177,29.3569]}},{"type":"Feature","properties":{"id":"kw-place-suburb-node-4665677910","name_en":"Dahar","name_ar":"الظهر","feature_class":"settlement","source":"OpenStreetMap (Geofabrik GCC extract 2026-09-22)","license":"ODbL 1.0 (c) OpenStreetMap contributors ; GeoNames match columns CC BY 4.0","place":"suburb"},"geometry":{"type":"Point","coordinates":[48.06531,29.16461]}},{"type":"Feature","properties":{"id":"kw-place-suburb-node-4602123785","name_en":"Dasma","name_ar":"الدسمة","feature_class":"settlement","source":"OpenStreetMap (Geofabrik GCC extract 2026-09-22)","license":"ODbL 1.0 (c) OpenStreetMap contributors ; GeoNames match columns CC BY 4.0","place":"suburb"},"geometry":{"type":"Point","coordinates":[48.00067,29.3657]}},{"type":"Feature","properties":{"id":"kw-place-suburb-node-4600718142","name_en":"Dasman","name_ar":"دسمان","feature_class":"settlement","source":"OpenStreetMap (Geofabrik GCC extract 2026-09-22)","license":"ODbL 1.0 (c) OpenStreetMap contributors","place":"suburb"},"geometry":{"type":"Point","coordinates":[47.99824,29.38665]}},{"type":"Feature","properties":{"id":"kw-place-suburb-node-11166002698","name_en":"Doha","name_ar":null,"feature_class":"settlement","source":"OpenStreetMap (Geofabrik GCC extract 2026-09-22)","license":"ODbL 1.0 (c) OpenStreetMap contributors ; GeoNames match columns CC BY 4.0","place":"suburb"},"geometry":{"type":"Point","coordinates":[47.81798,29.31655]}},{"type":"Feature","properties":{"id":"kw-place-suburb-node-4588115193","name_en":"East Ahmadi","name_ar":"شرق الاحمدي","feature_class":"settlement","source":"OpenStreetMap (Geofabrik GCC extract 2026-09-22)","license":"ODbL 1.0 (c) OpenStreetMap contributors","place":"suburb"},"geometry":{"type":"Point","coordinates":[48.08809,29.07842]}},{"type":"Feature","properties":{"id":"kw-place-suburb-node-4665677908","name_en":"Eqaila","name_ar":"العقيلة","feature_class":"settlement","source":"OpenStreetMap (Geofabrik GCC extract 2026-09-22)","license":"ODbL 1.0 (c) OpenStreetMap contributors ; GeoNames match columns CC BY 4.0","place":"suburb"},"geometry":{"type":"Point","coordinates":[48.10216,29.17119]}},{"type":"Feature","properties":{"id":"kw-place-suburb-node-4665677904","name_en":"Fahad Al-Ahmad","name_ar":"فهد الأحمد","feature_class":"settlement","source":"OpenStreetMap (Geofabrik GCC extract 2026-09-22)","license":"ODbL 1.0 (c) OpenStreetMap contributors ; GeoNames match columns CC BY 4.0","place":"suburb"},"geometry":{"type":"Point","coordinates":[48.10435,29.12723]}},{"type":"Feature","properties":{"id":"kw-place-suburb-node-1760011686","name_en":"Fahaheel","name_ar":"الفحيحيل","feature_class":"settlement","source":"OpenStreetMap (Geofabrik GCC extract 2026-09-22)","license":"ODbL 1.0 (c) OpenStreetMap contributors ; GeoNames match columns CC BY 4.0","place":"suburb"},"geometry":{"type":"Point","coordinates":[48.12753,29.08336]}},{"type":"Feature","properties":{"id":"kw-place-suburb-node-4602123777","name_en":"Faiha","name_ar":"الفيحاء","feature_class":"settlement","source":"OpenStreetMap (Geofabrik GCC extract 2026-09-22)","license":"ODbL 1.0 (c) OpenStreetMap contributors ; GeoNames match columns CC BY 4.0","place":"suburb"},"geometry":{"type":"Point","coordinates":[47.97954,29.33848]}},{"type":"Feature","properties":{"id":"kw-place-suburb-node-4603691782","name_en":"Farwaniya","name_ar":"الفروانية","feature_class":"settlement","source":"OpenStreetMap (Geofabrik GCC extract 2026-09-22)","license":"ODbL 1.0 (c) OpenStreetMap contributors ; GeoNames match columns CC BY 4.0","place":"suburb"},"geometry":{"type":"Point","coordinates":[47.96016,29.28141]}},{"type":"Feature","properties":{"id":"kw-place-suburb-node-4603691772","name_en":"Firdous","name_ar":"الفردوس","feature_class":"settlement","source":"OpenStreetMap (Geofabrik GCC extract 2026-09-22)","license":"ODbL 1.0 (c) OpenStreetMap contributors ; GeoNames match columns CC BY 4.0","place":"suburb"},"geometry":{"type":"Point","coordinates":[47.87477,29.28332]}},{"type":"Feature","properties":{"id":"kw-place-suburb-node-12143388697","name_en":"Granada","name_ar":null,"feature_class":"settlement","source":"OpenStreetMap (Geofabrik GCC extract 2026-09-22)","license":"ODbL 1.0 (c) OpenStreetMap contributors ; GeoNames match columns CC BY 4.0","place":"suburb"},"geometry":{"type":"Point","coordinates":[47.86559,29.31349]}},{"type":"Feature","properties":{"id":"kw-place-suburb-node-4665677905","name_en":"Hadiya","name_ar":"هدية","feature_class":"settlement","source":"OpenStreetMap (Geofabrik GCC extract 2026-09-22)","license":"ODbL 1.0 (c) OpenStreetMap contributors ; GeoNames match columns CC BY 4.0","place":"suburb"},"geometry":{"type":"Point","coordinates":[48.09024,29.14859]}},{"type":"Feature","properties":{"id":"kw-place-suburb-node-4603691895","name_en":"Hawally","name_ar":"حولي","feature_class":"settlement","source":"OpenStreetMap (Geofabrik GCC extract 2026-09-22)","license":"ODbL 1.0 (c) OpenStreetMap contributors ; GeoNames match columns CC BY 4.0","place":"suburb"},"geometry":{"type":"Point","coordinates":[48.02355,29.33787]}},{"type":"Feature","properties":{"id":"kw-place-suburb-node-4603691786","name_en":"Hitteen","name_ar":"حطين","feature_class":"settlement","source":"OpenStreetMap (Geofabrik GCC extract 2026-09-22)","license":"ODbL 1.0 (c) OpenStreetMap contributors ; GeoNames match columns CC BY 4.0","place":"suburb"},"geometry":{"type":"Point","coordinates":[48.02065,29.28266]}},{"type":"Feature","properties":{"id":"kw-place-suburb-node-12135506402","name_en":"Industrial Sulaibiya","name_ar":null,"feature_class":"settlement","source":"OpenStreetMap (Geofabrik GCC extract 2026-09-22)","license":"ODbL 1.0 (c) OpenStreetMap contributors ; GeoNames match columns CC BY 4.0","place":"suburb"},"geometry":{"type":"Point","coordinates":[47.84752,29.28724]}},{"type":"Feature","properties":{"id":"kw-place-suburb-node-4603691779","name_en":"Ishbilya","name_ar":"إشبيلية","feature_class":"settlement","source":"OpenStreetMap (Geofabrik GCC extract 2026-09-22)","license":"ODbL 1.0 (c) OpenStreetMap contributors ; GeoNames match columns CC BY 4.0","place":"suburb"},"geometry":{"type":"Point","coordinates":[47.93909,29.27406]}},{"type":"Feature","properties":{"id":"kw-place-suburb-node-4602123782","name_en":"Jaber Al-Ahmad","name_ar":"جابر الأحمد","feature_class":"settlement","source":"OpenStreetMap (Geofabrik GCC extract 2026-09-22)","license":"ODbL 1.0 (c) OpenStreetMap contributors","place":"suburb"},"geometry":{"type":"Point","coordinates":[47.76394,29.34271]}},{"type":"Feature","properties":{"id":"kw-place-suburb-node-4665677909","name_en":"Jaber Al-Ali","name_ar":"جابر العلي","feature_class":"settlement","source":"OpenStreetMap (Geofabrik GCC extract 2026-09-22)","license":"ODbL 1.0 (c) OpenStreetMap contributors ; GeoNames match columns CC BY 4.0","place":"suburb"},"geometry":{"type":"Point","coordinates":[48.08215,29.17]}},{"type":"Feature","properties":{"id":"kw-place-suburb-node-4603691892","name_en":"Jabriya","name_ar":"الجابرية","feature_class":"settlement","source":"OpenStreetMap (Geofabrik GCC extract 2026-09-22)","license":"ODbL 1.0 (c) OpenStreetMap contributors ; GeoNames match columns CC BY 4.0","place":"suburb"},"geometry":{"type":"Point","coordinates":[48.03296,29.31925]}},{"type":"Feature","properties":{"id":"kw-place-suburb-node-4603691781","name_en":"Jileeb Al-Shiyukh","name_ar":"جليب الشيوخ","feature_class":"settlement","source":"OpenStreetMap (Geofabrik GCC extract 2026-09-22)","license":"ODbL 1.0 (c) OpenStreetMap contributors ; GeoNames match columns CC BY 4.0","place":"suburb"},"geometry":{"type":"Point","coordinates":[47.93367,29.2596]}},{"type":"Feature","properties":{"id":"kw-place-suburb-node-4602123778","name_en":"Kaifan","name_ar":"كيفان","feature_class":"settlement","source":"OpenStreetMap (Geofabrik GCC extract 2026-09-22)","license":"ODbL 1.0 (c) OpenStreetMap contributors ; GeoNames match columns CC BY 4.0","place":"suburb"},"geometry":{"type":"Point","coordinates":[47.96182,29.33857]}},{"type":"Feature","properties":{"id":"kw-place-suburb-node-4603691784","name_en":"Khaitan","name_ar":"خيطان","feature_class":"settlement","source":"OpenStreetMap (Geofabrik GCC extract 2026-09-22)","license":"ODbL 1.0 (c) OpenStreetMap contributors ; GeoNames match columns CC BY 4.0","place":"suburb"},"geometry":{"type":"Point","coordinates":[47.97582,29.28286]}},{"type":"Feature","properties":{"id":"kw-place-suburb-node-4603691897","name_en":"Khaldiya","name_ar":"الخالدية","feature_class":"settlement","source":"OpenStreetMap (Geofabrik GCC extract 2026-09-22)","license":"ODbL 1.0 (c) OpenStreetMap contributors ; GeoNames match columns CC BY 4.0","place":"suburb"},"geometry":{"type":"Point","coordinates":[47.96309,29.32663]}},{"type":"Feature","properties":{"id":"kw-place-suburb-node-3621949230","name_en":"Mahboula","name_ar":"المهبولة","feature_class":"settlement","source":"OpenStreetMap (Geofabrik GCC extract 2026-09-22)","license":"ODbL 1.0 (c) OpenStreetMap contributors ; GeoNames match columns CC BY 4.0","place":"suburb"},"geometry":{"type":"Point","coordinates":[48.11904,29.14913]}},{"type":"Feature","properties":{"id":"kw-place-suburb-node-9535528377","name_en":"Maidan Hawalli","name_ar":"ميدان حولي","feature_class":"settlement","source":"OpenStreetMap (Geofabrik GCC extract 2026-09-22)","license":"ODbL 1.0 (c) OpenStreetMap contributors ; GeoNames match columns CC BY 4.0","place":"suburb"},"geometry":{"type":"Point","coordinates":[48.0435,29.33698]}},{"type":"Feature","properties":{"id":"kw-place-suburb-node-4665677901","name_en":"Mangaf","name_ar":"المنقف","feature_class":"settlement","source":"OpenStreetMap (Geofabrik GCC extract 2026-09-22)","license":"ODbL 1.0 (c) OpenStreetMap contributors ; GeoNames match columns CC BY 4.0","place":"suburb"},"geometry":{"type":"Point","coordinates":[48.12816,29.10743]}},{"type":"Feature","properties":{"id":"kw-place-suburb-node-4602123784","name_en":"Mansouriya","name_ar":"المنصورية","feature_class":"settlement","source":"OpenStreetMap (Geofabrik GCC extract 2026-09-22)","license":"ODbL 1.0 (c) OpenStreetMap contributors ; GeoNames match columns CC BY 4.0","place":"suburb"},"geometry":{"type":"Point","coordinates":[47.99356,29.35877]}},{"type":"Feature","properties":{"id":"kw-place-suburb-node-4588154070","name_en":"Middle Ahmadi","name_ar":"وسط أحمدي","feature_class":"settlement","source":"OpenStreetMap (Geofabrik GCC extract 2026-09-22)","license":"ODbL 1.0 (c) OpenStreetMap contributors","place":"suburb"},"geometry":{"type":"Point","coordinates":[48.06815,29.08622]}},{"type":"Feature","properties":{"id":"kw-place-suburb-node-4588375897","name_en":"Mirqab","name_ar":"المرقاب","feature_class":"settlement","source":"OpenStreetMap (Geofabrik GCC extract 2026-09-22)","license":"ODbL 1.0 (c) OpenStreetMap contributors ; GeoNames match columns CC BY 4.0","place":"suburb"},"geometry":{"type":"Point","coordinates":[47.98424,29.3678]}},{"type":"Feature","properties":{"id":"kw-place-suburb-node-1759971892","name_en":"Mishrif","name_ar":"مشرف","feature_class":"settlement","source":"OpenStreetMap (Geofabrik GCC extract 2026-09-22)","license":"ODbL 1.0 (c) OpenStreetMap contributors ; GeoNames match columns CC BY 4.0","place":"suburb"},"geometry":{"type":"Point","coordinates":[48.06984,29.27931]}},{"type":"Feature","properties":{"id":"kw-place-suburb-node-4603691889","name_en":"Mubarak Al-Abdullah","name_ar":"مبارك العبد الله","feature_class":"settlement","source":"OpenStreetMap (Geofabrik GCC extract 2026-09-22)","license":"ODbL 1.0 (c) OpenStreetMap contributors","place":"suburb"},"geometry":{"type":"Point","coordinates":[48.04632,29.27588]}},{"type":"Feature","properties":{"id":"kw-place-suburb-node-4665677911","name_en":"Mubarak Al-Kabeer","name_ar":"مبارك الكبير","feature_class":"settlement","source":"OpenStreetMap (Geofabrik GCC extract 2026-09-22)","license":"ODbL 1.0 (c) OpenStreetMap contributors ; GeoNames match columns CC BY 4.0","place":"suburb"},"geometry":{"type":"Point","coordinates":[48.08188,29.18858]}},{"type":"Feature","properties":{"id":"kw-place-suburb-node-4587861838","name_en":"Naeem","name_ar":"النعيم","feature_class":"settlement","source":"OpenStreetMap (Geofabrik GCC extract 2026-09-22)","license":"ODbL 1.0 (c) OpenStreetMap contributors ; GeoNames match columns CC BY 4.0","place":"suburb"},"geometry":{"type":"Point","coordinates":[47.69521,29.33305]}},{"type":"Feature","properties":{"id":"kw-place-suburb-node-12114092260","name_en":"Nahdha","name_ar":null,"feature_class":"settlement","source":"OpenStreetMap (Geofabrik GCC extract 2026-09-22)","license":"ODbL 1.0 (c) OpenStreetMap contributors","place":"suburb"},"geometry":{"type":"Point","coordinates":[47.8609,29.30288]}},{"type":"Feature","properties":{"id":"kw-place-suburb-node-4587927544","name_en":"Nasseem","name_ar":"النسيم","feature_class":"settlement","source":"OpenStreetMap (Geofabrik GCC extract 2026-09-22)","license":"ODbL 1.0 (c) OpenStreetMap contributors ; GeoNames match columns CC BY 4.0","place":"suburb"},"geometry":{"type":"Point","coordinates":[47.67133,29.32235]}},{"type":"Feature","properties":{"id":"kw-place-suburb-node-4588166643","name_en":"North Ahmadi","name_ar":"شمال الاحمدي","feature_class":"settlement","source":"OpenStreetMap (Geofabrik GCC extract 2026-09-22)","license":"ODbL 1.0 (c) OpenStreetMap contributors","place":"suburb"},"geometry":{"type":"Point","coordinates":[48.06625,29.10218]}},{"type":"Feature","properties":{"id":"kw-place-suburb-node-10840179098","name_en":"North West Sulaibikhat","name_ar":null,"feature_class":"settlement","source":"OpenStreetMap (Geofabrik GCC extract 2026-09-22)","license":"ODbL 1.0 (c) OpenStreetMap contributors","place":"suburb"},"geometry":{"type":"Point","coordinates":[47.80689,29.32817]}},{"type":"Feature","properties":{"id":"kw-place-suburb-node-4602123776","name_en":"Nuzha","name_ar":"النزهة","feature_class":"settlement","source":"OpenStreetMap (Geofabrik GCC extract 2026-09-22)","license":"ODbL 1.0 (c) OpenStreetMap contributors ; GeoNames match columns CC BY 4.0","place":"suburb"},"geometry":{"type":"Point","coordinates":[47.99151,29.34163]}},{"type":"Feature","properties":{"id":"kw-place-suburb-node-3609387988","name_en":"Omariya","name_ar":"العمرية","feature_class":"settlement","source":"OpenStreetMap (Geofabrik GCC extract 2026-09-22)","license":"ODbL 1.0 (c) OpenStreetMap contributors ; GeoNames match columns CC BY 4.0","place":"suburb"},"geometry":{"type":"Point","coordinates":[47.95547,29.29596]}},{"type":"Feature","properties":{"id":"kw-place-suburb-node-4587937773","name_en":"Oyoun","name_ar":"العيون","feature_class":"settlement","source":"OpenStreetMap (Geofabrik GCC extract 2026-09-22)","license":"ODbL 1.0 (c) OpenStreetMap contributors ; GeoNames match columns CC BY 4.0","place":"suburb"},"geometry":{"type":"Point","coordinates":[47.65522,29.32987]}},{"type":"Feature","properties":{"id":"kw-place-suburb-node-4602123775","name_en":"Qadsiya","name_ar":"القادسية","feature_class":"settlement","source":"OpenStreetMap (Geofabrik GCC extract 2026-09-22)","license":"ODbL 1.0 (c) OpenStreetMap contributors ; GeoNames match columns CC BY 4.0","place":"suburb"},"geometry":{"type":"Point","coordinates":[48.00307,29.34878]}},{"type":"Feature","properties":{"id":"kw-place-suburb-node-11866163109","name_en":"Qairawan","name_ar":null,"feature_class":"settlement","source":"OpenStreetMap (Geofabrik GCC extract 2026-09-22)","license":"ODbL 1.0 (c) OpenStreetMap contributors","place":"suburb"},"geometry":{"type":"Point","coordinates":[47.80041,29.30138]}},{"type":"Feature","properties":{"id":"kw-place-suburb-node-4587847067","name_en":"Qasr","name_ar":"القصر","feature_class":"settlement","source":"OpenStreetMap (Geofabrik GCC extract 2026-09-22)","license":"ODbL 1.0 (c) OpenStreetMap contributors ; GeoNames match columns CC BY 4.0","place":"suburb"},"geometry":{"type":"Point","coordinates":[47.69364,29.34189]}},{"type":"Feature","properties":{"id":"kw-place-suburb-node-4588225929","name_en":"Qibla","name_ar":"القبلة","feature_class":"settlement","source":"OpenStreetMap (Geofabrik GCC extract 2026-09-22)","license":"ODbL 1.0 (c) OpenStreetMap contributors ; GeoNames match columns CC BY 4.0","place":"suburb"},"geometry":{"type":"Point","coordinates":[47.96956,29.36876]}},{"type":"Feature","properties":{"id":"kw-place-suburb-node-1759971888","name_en":"Qurtuba","name_ar":"قرطبة","feature_class":"settlement","source":"OpenStreetMap (Geofabrik GCC extract 2026-09-22)","license":"ODbL 1.0 (c) OpenStreetMap contributors ; GeoNames match columns CC BY 4.0","place":"suburb"},"geometry":{"type":"Point","coordinates":[47.98727,29.31194]}},{"type":"Feature","properties":{"id":"kw-place-suburb-node-4603691777","name_en":"Rabiya","name_ar":"الرابية","feature_class":"settlement","source":"OpenStreetMap (Geofabrik GCC extract 2026-09-22)","license":"ODbL 1.0 (c) OpenStreetMap contributors ; GeoNames match columns CC BY 4.0","place":"suburb"},"geometry":{"type":"Point","coordinates":[47.93791,29.29532]}},{"type":"Feature","properties":{"id":"kw-place-suburb-node-2852960214","name_en":"Rai","name_ar":"الري","feature_class":"settlement","source":"OpenStreetMap (Geofabrik GCC extract 2026-09-22)","license":"ODbL 1.0 (c) OpenStreetMap contributors ; GeoNames match columns CC BY 4.0","place":"suburb"},"geometry":{"type":"Point","coordinates":[47.94356,29.30895]}},{"type":"Feature","properties":{"id":"kw-place-suburb-node-1759971858","name_en":"Rawda","name_ar":"الروضة","feature_class":"settlement","source":"OpenStreetMap (Geofabrik GCC extract 2026-09-22)","license":"ODbL 1.0 (c) OpenStreetMap contributors ; GeoNames match columns CC BY 4.0","place":"suburb"},"geometry":{"type":"Point","coordinates":[47.99842,29.32992]}},{"type":"Feature","properties":{"id":"kw-place-suburb-node-4603691776","name_en":"Riggai","name_ar":"الرقعي","feature_class":"settlement","source":"OpenStreetMap (Geofabrik GCC extract 2026-09-22)","license":"ODbL 1.0 (c) OpenStreetMap contributors ; GeoNames match columns CC BY 4.0","place":"suburb"},"geometry":{"type":"Point","coordinates":[47.9166,29.30458]}},{"type":"Feature","properties":{"id":"kw-place-suburb-node-4603691778","name_en":"Rihab","name_ar":"الرحاب","feature_class":"settlement","source":"OpenStreetMap (Geofabrik GCC extract 2026-09-22)","license":"ODbL 1.0 (c) OpenStreetMap contributors ; GeoNames match columns CC BY 4.0","place":"suburb"},"geometry":{"type":"Point","coordinates":[47.93872,29.28437]}},{"type":"Feature","properties":{"id":"kw-place-suburb-node-4665677906","name_en":"Riqqa","name_ar":"الرقة","feature_class":"settlement","source":"OpenStreetMap (Geofabrik GCC extract 2026-09-22)","license":"ODbL 1.0 (c) OpenStreetMap contributors ; GeoNames match columns CC BY 4.0","place":"suburb"},"geometry":{"type":"Point","coordinates":[48.1052,29.15041]}},{"type":"Feature","properties":{"id":"kw-place-suburb-node-4603691891","name_en":"Rumaithiya","name_ar":"الرميثية","feature_class":"settlement","source":"OpenStreetMap (Geofabrik GCC extract 2026-09-22)","license":"ODbL 1.0 (c) OpenStreetMap contributors ; GeoNames match columns CC BY 4.0","place":"suburb"},"geometry":{"type":"Point","coordinates":[48.07117,29.31602]}},{"type":"Feature","properties":{"id":"kw-place-suburb-node-3589746727","name_en":"Saad Al-Abdulla","name_ar":"سعد العبد الله","feature_class":"settlement","source":"OpenStreetMap (Geofabrik GCC extract 2026-09-22)","license":"ODbL 1.0 (c) OpenStreetMap contributors","place":"suburb"},"geometry":{"type":"Point","coordinates":[47.72073,29.30995]}},{"type":"Feature","properties":{"id":"kw-place-suburb-node-4603691773","name_en":"Sabah Al Nasser","name_ar":"صباح الناصر","feature_class":"settlement","source":"OpenStreetMap (Geofabrik GCC extract 2026-09-22)","license":"ODbL 1.0 (c) OpenStreetMap contributors ; GeoNames match columns CC BY 4.0","place":"suburb"},"geometry":{"type":"Point","coordinates":[47.88582,29.27095]}},{"type":"Feature","properties":{"id":"kw-place-suburb-node-4665677917","name_en":"Sabah Al Salem","name_ar":"صباح السالم","feature_class":"settlement","source":"OpenStreetMap (Geofabrik GCC extract 2026-09-22)","license":"ODbL 1.0 (c) OpenStreetMap contributors ; GeoNames match columns CC BY 4.0","place":"suburb"},"geometry":{"type":"Point","coordinates":[48.06491,29.2549]}},{"type":"Feature","properties":{"id":"kw-place-suburb-node-4665677902","name_en":"Sabahiya","name_ar":"الصباحية","feature_class":"settlement","source":"OpenStreetMap (Geofabrik GCC extract 2026-09-22)","license":"ODbL 1.0 (c) OpenStreetMap contributors ; GeoNames match columns CC BY 4.0","place":"suburb"},"geometry":{"type":"Point","coordinates":[48.107,29.10802]}},{"type":"Feature","properties":{"id":"kw-place-suburb-node-4721453939","name_en":"Salam","name_ar":"السلام","feature_class":"settlement","source":"OpenStreetMap (Geofabrik GCC extract 2026-09-22)","license":"ODbL 1.0 (c) OpenStreetMap contributors ; GeoNames match columns CC BY 4.0","place":"suburb"},"geometry":{"type":"Point","coordinates":[48.01432,29.29703]}},{"type":"Feature","properties":{"id":"kw-place-suburb-node-4603691893","name_en":"Salmiya","name_ar":"السالمية","feature_class":"settlement","source":"OpenStreetMap (Geofabrik GCC extract 2026-09-22)","license":"ODbL 1.0 (c) OpenStreetMap contributors ; GeoNames match columns CC BY 4.0","place":"suburb"},"geometry":{"type":"Point","coordinates":[48.06849,29.33278]}},{"type":"Feature","properties":{"id":"kw-place-suburb-node-4603691890","name_en":"Salwa","name_ar":"سلوى","feature_class":"settlement","source":"OpenStreetMap (Geofabrik GCC extract 2026-09-22)","license":"ODbL 1.0 (c) OpenStreetMap contributors ; GeoNames match columns CC BY 4.0","place":"suburb"},"geometry":{"type":"Point","coordinates":[48.07809,29.29626]}},{"type":"Feature","properties":{"id":"kw-place-suburb-node-1759971852","name_en":"Shaab","name_ar":"الشعب","feature_class":"settlement","source":"OpenStreetMap (Geofabrik GCC extract 2026-09-22)","license":"ODbL 1.0 (c) OpenStreetMap contributors ; GeoNames match columns CC BY 4.0","place":"suburb"},"geometry":{"type":"Point","coordinates":[48.02467,29.35111]}},{"type":"Feature","properties":{"id":"kw-place-suburb-node-4602123780","name_en":"Shamiya","name_ar":"الشامية","feature_class":"settlement","source":"OpenStreetMap (Geofabrik GCC extract 2026-09-22)","license":"ODbL 1.0 (c) OpenStreetMap contributors ; GeoNames match columns CC BY 4.0","place":"suburb"},"geometry":{"type":"Point","coordinates":[47.96835,29.35416]}},{"type":"Feature","properties":{"id":"kw-place-suburb-node-4721422409","name_en":"Sharq","name_ar":"شرق","feature_class":"settlement","source":"OpenStreetMap (Geofabrik GCC extract 2026-09-22)","license":"ODbL 1.0 (c) OpenStreetMap contributors ; GeoNames match columns CC BY 4.0","place":"suburb"},"geometry":{"type":"Point","coordinates":[47.98571,29.38168]}},{"type":"Feature","properties":{"id":"kw-place-suburb-node-4603691788","name_en":"Shuhada","name_ar":"الشهداء","feature_class":"settlement","source":"OpenStreetMap (Geofabrik GCC extract 2026-09-22)","license":"ODbL 1.0 (c) OpenStreetMap contributors ; GeoNames match columns CC BY 4.0","place":"suburb"},"geometry":{"type":"Point","coordinates":[48.03063,29.2713]}},{"type":"Feature","properties":{"id":"kw-place-suburb-node-12125798672","name_en":"Shuwaikh Educational","name_ar":null,"feature_class":"settlement","source":"OpenStreetMap (Geofabrik GCC extract 2026-09-22)","license":"ODbL 1.0 (c) OpenStreetMap contributors ; GeoNames match columns CC BY 4.0","place":"suburb"},"geometry":{"type":"Point","coordinates":[47.91572,29.33502]}},{"type":"Feature","properties":{"id":"kw-place-suburb-node-12133633110","name_en":"Shuwaikh Industrial","name_ar":null,"feature_class":"settlement","source":"OpenStreetMap (Geofabrik GCC extract 2026-09-22)","license":"ODbL 1.0 (c) OpenStreetMap contributors","place":"suburb"},"geometry":{"type":"Point","coordinates":[47.93612,29.32357]}},{"type":"Feature","properties":{"id":"kw-place-suburb-node-12125798677","name_en":"Shuwaikh Medical","name_ar":null,"feature_class":"settlement","source":"OpenStreetMap (Geofabrik GCC extract 2026-09-22)","license":"ODbL 1.0 (c) OpenStreetMap contributors ; GeoNames match columns CC BY 4.0","place":"suburb"},"geometry":{"type":"Point","coordinates":[47.89661,29.32582]}},{"type":"Feature","properties":{"id":"kw-place-suburb-node-4603691785","name_en":"Siddeeq","name_ar":"الصدّيق","feature_class":"settlement","source":"OpenStreetMap (Geofabrik GCC extract 2026-09-22)","license":"ODbL 1.0 (c) OpenStreetMap contributors ; GeoNames match columns CC BY 4.0","place":"suburb"},"geometry":{"type":"Point","coordinates":[47.99191,29.29443]}},{"type":"Feature","properties":{"id":"kw-place-suburb-node-4588162042","name_en":"South Ahmadi","name_ar":"جنوب الاحمدي","feature_class":"settlement","source":"OpenStreetMap (Geofabrik GCC extract 2026-09-22)","license":"ODbL 1.0 (c) OpenStreetMap contributors","place":"suburb"},"geometry":{"type":"Point","coordinates":[48.06704,29.07986]}},{"type":"Feature","properties":{"id":"kw-place-suburb-node-9570866695","name_en":"South Mitla","name_ar":"جنوب المطلاع","feature_class":"settlement","source":"OpenStreetMap (Geofabrik GCC extract 2026-09-22)","license":"ODbL 1.0 (c) OpenStreetMap contributors","place":"suburb"},"geometry":{"type":"Point","coordinates":[47.57988,29.46261]}},{"type":"Feature","properties":{"id":"kw-place-suburb-node-11850261210","name_en":"Sulaibikhat","name_ar":null,"feature_class":"settlement","source":"OpenStreetMap (Geofabrik GCC extract 2026-09-22)","license":"ODbL 1.0 (c) OpenStreetMap contributors ; GeoNames match columns CC BY 4.0","place":"suburb"},"geometry":{"type":"Point","coordinates":[47.847,29.31473]}},{"type":"Feature","properties":{"id":"kw-place-suburb-node-12135506403","name_en":"Sulaibiya Agricultural","name_ar":null,"feature_class":"settlement","source":"OpenStreetMap (Geofabrik GCC extract 2026-09-22)","license":"ODbL 1.0 (c) OpenStreetMap contributors ; GeoNames match columns CC BY 4.0","place":"suburb"},"geometry":{"type":"Point","coordinates":[47.80538,29.28562]}},{"type":"Feature","properties":{"id":"kw-place-suburb-node-12135506439","name_en":"Sulaibiya Residential","name_ar":null,"feature_class":"settlement","source":"OpenStreetMap (Geofabrik GCC extract 2026-09-22)","license":"ODbL 1.0 (c) OpenStreetMap contributors","place":"suburb"},"geometry":{"type":"Point","coordinates":[47.82266,29.2896]}},{"type":"Feature","properties":{"id":"kw-place-suburb-node-1759971859","name_en":"Surra","name_ar":"السرة","feature_class":"settlement","source":"OpenStreetMap (Geofabrik GCC extract 2026-09-22)","license":"ODbL 1.0 (c) OpenStreetMap contributors ; GeoNames match columns CC BY 4.0","place":"suburb"},"geometry":{"type":"Point","coordinates":[48.00696,29.3145]}},{"type":"Feature","properties":{"id":"kw-place-suburb-node-4587876130","name_en":"Taima","name_ar":"تيماء","feature_class":"settlement","source":"OpenStreetMap (Geofabrik GCC extract 2026-09-22)","license":"ODbL 1.0 (c) OpenStreetMap contributors ; GeoNames match columns CC BY 4.0","place":"suburb"},"geometry":{"type":"Point","coordinates":[47.67998,29.32907]}},{"type":"Feature","properties":{"id":"kw-place-suburb-node-1277024215","name_en":"Waha","name_ar":"الواحة","feature_class":"settlement","source":"OpenStreetMap (Geofabrik GCC extract 2026-09-22)","license":"ODbL 1.0 (c) OpenStreetMap contributors ; GeoNames match columns CC BY 4.0","place":"suburb"},"geometry":{"type":"Point","coordinates":[47.65851,29.34248]}},{"type":"Feature","properties":{"id":"kw-place-suburb-node-4987265386","name_en":"West of Abdullah Al Mubarak Al Sabah","name_ar":"غرب عبدالله المبارك","feature_class":"settlement","source":"OpenStreetMap (Geofabrik GCC extract 2026-09-22)","license":"ODbL 1.0 (c) OpenStreetMap contributors","place":"suburb"},"geometry":{"type":"Point","coordinates":[47.85196,29.23657]}},{"type":"Feature","properties":{"id":"kw-place-suburb-node-4603691783","name_en":"Yarmouk","name_ar":"اليرموك","feature_class":"settlement","source":"OpenStreetMap (Geofabrik GCC extract 2026-09-22)","license":"ODbL 1.0 (c) OpenStreetMap contributors ; GeoNames match columns CC BY 4.0","place":"suburb"},"geometry":{"type":"Point","coordinates":[47.96949,29.3112]}},{"type":"Feature","properties":{"id":"kw-place-suburb-node-4603691787","name_en":"Zahra","name_ar":"الزهراء","feature_class":"settlement","source":"OpenStreetMap (Geofabrik GCC extract 2026-09-22)","license":"ODbL 1.0 (c) OpenStreetMap contributors ; GeoNames match columns CC BY 4.0","place":"suburb"},"geometry":{"type":"Point","coordinates":[48.00179,29.27583]}},{"type":"Feature","properties":{"id":"kw-place-neighbourhood-node-12146588988","name_en":"Ministries Area","name_ar":null,"feature_class":"settlement","source":"OpenStreetMap (Geofabrik GCC extract 2026-09-22)","license":"ODbL 1.0 (c) OpenStreetMap contributors","place":"neighbourhood"},"geometry":{"type":"Point","coordinates":[48.01931,29.27144]}},{"type":"Feature","properties":{"id":"kw-place-neighbourhood-node-4602123779","name_en":"Shuwaikh Residential","name_ar":"الشويخ السكنية","feature_class":"settlement","source":"OpenStreetMap (Geofabrik GCC extract 2026-09-22)","license":"ODbL 1.0 (c) OpenStreetMap contributors","place":"neighbourhood"},"geometry":{"type":"Point","coordinates":[47.95638,29.35441]}},{"type":"Feature","properties":{"id":"kw-place-neighbourhood-node-9557637168","name_en":null,"name_ar":null,"feature_class":"settlement","source":"OpenStreetMap (Geofabrik GCC extract 2026-09-22)","license":"ODbL 1.0 (c) OpenStreetMap contributors","place":"neighbourhood"},"geometry":{"type":"Point","coordinates":[47.71937,29.09892]}},{"type":"Feature","properties":{"id":"kw-place-locality-node-2487924212","name_en":"Al Hulaybah","name_ar":"الحليبة","feature_class":"settlement","source":"OpenStreetMap (Geofabrik GCC extract 2026-09-22)","license":"ODbL 1.0 (c) OpenStreetMap contributors","place":"locality"},"geometry":{"type":"Point","coordinates":[47.26667,30.05]}},{"type":"Feature","properties":{"id":"kw-place-locality-node-3892887033","name_en":"Kuwait Free Trade Zone","name_ar":"المنطقة الحرة الكويت","feature_class":"settlement","source":"OpenStreetMap (Geofabrik GCC extract 2026-09-22)","license":"ODbL 1.0 (c) OpenStreetMap contributors","place":"locality"},"geometry":{"type":"Point","coordinates":[47.91346,29.34903]}},{"type":"Feature","properties":{"id":"kw-place-locality-node-12143388698","name_en":"Mubarkiya Camps","name_ar":null,"feature_class":"settlement","source":"OpenStreetMap (Geofabrik GCC extract 2026-09-22)","license":"ODbL 1.0 (c) OpenStreetMap contributors ; GeoNames match columns CC BY 4.0","place":"locality"},"geometry":{"type":"Point","coordinates":[47.90943,29.31517]}},{"type":"Feature","properties":{"id":"kw-place-locality-node-12117992871","name_en":"Sabiriya Project","name_ar":null,"feature_class":"settlement","source":"OpenStreetMap (Geofabrik GCC extract 2026-09-22)","license":"ODbL 1.0 (c) OpenStreetMap contributors","place":"locality"},"geometry":{"type":"Point","coordinates":[48.02351,29.77029]}},{"type":"Feature","properties":{"id":"kw-place-locality-node-12143388660","name_en":"Shaddadiya","name_ar":null,"feature_class":"settlement","source":"OpenStreetMap (Geofabrik GCC extract 2026-09-22)","license":"ODbL 1.0 (c) OpenStreetMap contributors","place":"locality"},"geometry":{"type":"Point","coordinates":[47.87312,29.21864]}},{"type":"Feature","properties":{"id":"kw-place-locality-node-12117992870","name_en":"South Qairawan Project","name_ar":null,"feature_class":"settlement","source":"OpenStreetMap (Geofabrik GCC extract 2026-09-22)","license":"ODbL 1.0 (c) OpenStreetMap contributors","place":"locality"},"geometry":{"type":"Point","coordinates":[47.79636,29.29194]}},{"type":"Feature","properties":{"id":"kw-place-locality-node-5203029768","name_en":"Umm Niqa'","name_ar":"ام نقاء","feature_class":"settlement","source":"OpenStreetMap (Geofabrik GCC extract 2026-09-22)","license":"ODbL 1.0 (c) OpenStreetMap contributors","place":"locality"},"geometry":{"type":"Point","coordinates":[47.79608,29.9861]}},{"type":"Feature","properties":{"id":"kw-place-locality-node-12125798698","name_en":null,"name_ar":null,"feature_class":"settlement","source":"OpenStreetMap (Geofabrik GCC extract 2026-09-22)","license":"ODbL 1.0 (c) OpenStreetMap contributors","place":"locality"},"geometry":{"type":"Point","coordinates":[47.94576,29.3468]}}],"metadata":{"derived_from":"vector/places/settlements.geojson","simplification":"5-decimal coordinates","dropped_features":[],"note":"A web view of the full-resolution file named in derived_from. Measure from that file, not this one."}}