{"type":"FeatureCollection","features":[{"type":"Feature","properties":{"id":"kw-water-osm-way-1546921015","name_en":"Khawr Abdullah Altamimi","name_ar":"خور عبد الله التميمي","feature_class":"bay","source":"OpenStreetMap (Geofabrik GCC extract dated 2026-09-22, via _raw/shared/osm_kuwait.gpkg)","license":"ODbL 1.0 (c) OpenStreetMap contributors"},"geometry":{"type":"Polygon","coordinates":[[[48.37387,29.77946],[48.37206,29.79152],[48.36969,29.79689],[48.36775,29.79938],[48.35451,29.80907],[48.35037,29.80968],[48.34309,29.81231],[48.3387,29.81597],[48.33316,29.82511],[48.32583,29.84111],[48.32164,29.85211],[48.32146,29.85361],[48.32497,29.85862],[48.33235,29.86559],[48.3224,29.87366],[48.31051,29.86402],[48.30596,29.86943],[48.30101,29.87739],[48.29242,29.88979],[48.2837,29.8993],[48.25798,29.92218],[48.235,29.94154],[48.22722,29.94899],[48.22556,29.95131],[48.20158,29.96607],[48.1801,29.9764],[48.17345,29.9786],[48.16291,29.98109],[48.15241,29.98271],[48.14591,29.98273],[48.13506,29.98184],[48.12585,29.98013],[48.10901,29.97534],[48.10839,29.97425],[48.09521,29.9665],[48.08325,29.96001],[48.07504,29.95604],[48.06902,29.95178],[48.0618,29.94361],[48.05738,29.94042],[48.05104,29.94033],[48.04436,29.93878],[48.0109,29.92805],[48.01026,29.93276],[48.01309,29.93973],[48.01171,29.94141],[48.00997,29.94743],[48.00775,29.9493],[48.00502,29.95548],[48.0045,29.95843],[48.00444,29.96297],[48.00616,29.96936],[48.01222,29.9866],[47.98511,29.99302],[47.97207,29.99408],[47.96435,29.99257],[47.95896,29.99638],[47.96065,29.99721],[47.96364,30.00015],[47.96866,29.99758],[47.97325,29.99609],[47.98481,29.99454],[47.99764,29.99195],[48.0094,29.99085],[48.01169,29.98991],[48.01484,29.99375],[48.01468,29.99648],[48.01787,29.99682],[48.02242,29.99949],[48.03727,30.01388],[48.04417,30.01917],[48.04999,30.02191],[48.06145,30.02596],[48.06811,30.02787],[48.07597,30.02933],[48.08896,30.03015],[48.09825,30.02992],[48.10857,30.02846],[48.14614,30.02577],[48.15484,30.02459],[48.16439,30.02211],[48.18434,30.01447],[48.20733,29.99417],[48.22815,29.98468],[48.24297,29.97602],[48.25481,29.96508],[48.27507,29.95498],[48.34065,29.90511],[48.41404,29.85274],[48.44689,29.8364],[48.45472,29.83209],[48.46591,29.80828],[48.37628,29.76424],[48.37427,29.77173],[48.37387,29.77946]]]}},{"type":"Feature","properties":{"id":"kw-water-osm-way-1310462250","name_en":"Sulaibikhat Bay","name_ar":"خليج الصليبخات","feature_class":"bay","source":"OpenStreetMap (Geofabrik GCC extract dated 2026-09-22, via _raw/shared/osm_kuwait.gpkg)","license":"ODbL 1.0 (c) OpenStreetMap contributors"},"geometry":{"type":"Polygon","coordinates":[[[47.87711,29.38747],[47.88374,29.38502],[47.88899,29.37804],[47.898,29.35717],[47.90058,29.35433],[47.91289,29.34735],[47.91553,29.34545],[47.91202,29.34433],[47.91127,29.34376],[47.91032,29.34431],[47.91053,29.34343],[47.90779,29.34189],[47.90687,29.34175],[47.90511,29.33998],[47.90496,29.33921],[47.90585,29.33787],[47.90489,29.33754],[47.90392,29.33769],[47.90252,29.33701],[47.90298,29.33564],[47.90257,29.33491],[47.89806,29.33358],[47.89707,29.33299],[47.89265,29.32972],[47.8903,29.32849],[47.88979,29.32701],[47.88814,29.32605],[47.88634,29.32544],[47.88423,29.32757],[47.88249,29.32749],[47.88093,29.32716],[47.87876,29.326],[47.87135,29.32343],[47.86841,29.32329],[47.86568,29.32361],[47.86392,29.32243],[47.86313,29.31999],[47.86244,29.31972],[47.85992,29.31957],[47.85782,29.32033],[47.85535,29.31891],[47.85,29.3198],[47.84783,29.31928],[47.84642,29.32001],[47.84494,29.32008],[47.84013,29.32227],[47.83707,29.32123],[47.83437,29.32122],[47.83215,29.32166],[47.8305,29.32139],[47.83043,29.32359],[47.82967,29.32392],[47.82874,29.32363],[47.82718,29.32442],[47.82623,29.3254],[47.82533,29.32476],[47.82482,29.32356],[47.82382,29.32369],[47.82218,29.32476],[47.8203,29.32686],[47.8179,29.33154],[47.82046,29.33238],[47.82027,29.33286],[47.81834,29.33247],[47.81813,29.33273],[47.81981,29.33826],[47.81978,29.34146],[47.8202,29.34296],[47.82147,29.34216],[47.82236,29.34253],[47.82185,29.34351],[47.82055,29.34357],[47.82391,29.34678],[47.82488,29.34729],[47.82571,29.34953],[47.82528,29.35414],[47.82419,29.35632],[47.82326,29.35723],[47.82006,29.35702],[47.81827,29.35655],[47.81908,29.35703],[47.81932,29.35765],[47.81891,29.35839],[47.81817,29.35859],[47.81729,29.35838],[47.81722,29.35731],[47.81659,29.3602],[47.81676,29.36226],[47.81885,29.36167],[47.81921,29.36191],[47.81924,29.36323],[47.82018,29.3639],[47.81984,29.36426],[47.82356,29.36902],[47.82311,29.36986],[47.82379,29.37028],[47.82443,29.36995],[47.82536,29.37024],[47.82484,29.3716],[47.82542,29.37173],[47.82545,29.37246],[47.82603,29.37223],[47.82639,29.37281],[47.83005,29.37379],[47.83453,29.37664],[47.83672,29.37674],[47.84605,29.38091],[47.84712,29.38066],[47.84822,29.38093],[47.84759,29.38418],[47.84858,29.38616],[47.86918,29.38926],[47.87351,29.38921],[47.87711,29.38747]]]}},{"type":"Feature","properties":{"id":"kw-water-osm-node-11189682694","name_en":"Kuwait Bay","name_ar":"جون الكويت","feature_class":"bay","source":"OpenStreetMap (Geofabrik GCC extract dated 2026-09-22, via _raw/shared/osm_kuwait.gpkg)","license":"ODbL 1.0 (c) OpenStreetMap contributors"},"geometry":{"type":"Point","coordinates":[47.99721,29.45993]}},{"type":"Feature","properties":{"id":"kw-water-osm-way-730868941","name_en":null,"name_ar":"خور عبد الله التميمي","feature_class":"khor_line","source":"OpenStreetMap (Geofabrik GCC extract dated 2026-09-22, via _raw/shared/osm_kuwait.gpkg)","license":"ODbL 1.0 (c) OpenStreetMap contributors"},"geometry":{"type":"LineString","coordinates":[[48.04928,30.02158],[48.0512,30.02234]]}},{"type":"Feature","properties":{"id":"kw-water-osm-relation-16250979","name_en":"Khor al-Zubair","name_ar":"خور الزبير","feature_class":"tidal_channel","source":"OpenStreetMap (Geofabrik GCC extract dated 2026-09-22, via _raw/shared/osm_kuwait.gpkg)","license":"ODbL 1.0 (c) OpenStreetMap contributors"},"geometry":{"type":"MultiPolygon","coordinates":[[[[47.96537,29.99917],[47.96369,30.00013],[47.96503,29.99939],[47.96537,29.99917]]],[[[47.98481,29.99454],[47.98131,29.99494],[47.98306,29.99475],[47.98481,29.99454]]],[[[47.99536,29.99236],[47.98678,29.99413],[47.99056,29.99345],[47.99536,29.99236]]],[[[47.99921,29.99183],[47.99764,29.99195],[47.99859,29.9919],[47.99921,29.99183]]],[[[48.01144,29.98792],[48.00183,29.99153],[48.0094,29.99085],[48.01169,29.98991],[48.01484,29.99375],[48.01468,29.99648],[48.0177,29.99676],[48.02138,29.99203],[48.01749,29.98962],[48.01144,29.98792]]]]}},{"type":"Feature","properties":{"id":"kw-water-osm-relation-13006374","name_en":null,"name_ar":null,"feature_class":"khiran_lagoon_or_canal","source":"OpenStreetMap (Geofabrik GCC extract dated 2026-09-22, via _raw/shared/osm_kuwait.gpkg)","license":"ODbL 1.0 (c) OpenStreetMap contributors"},"geometry":{"type":"Polygon","coordinates":[[[48.36032,28.65376],[48.35306,28.65443],[48.34865,28.65697],[48.34726,28.65683],[48.34475,28.65525],[48.34461,28.65434],[48.34569,28.65389],[48.3478,28.65506],[48.34869,28.65476],[48.34549,28.65231],[48.3454,28.65147],[48.34596,28.65099],[48.34673,28.65104],[48.34967,28.65293],[48.35048,28.65285],[48.35077,28.65229],[48.35054,28.65177],[48.34782,28.65004],[48.34773,28.64898],[48.34882,28.64875],[48.35288,28.65123],[48.35375,28.65103],[48.3539,28.65055],[48.34921,28.64744],[48.34931,28.64641],[48.35007,28.6451],[48.34937,28.64472],[48.34715,28.64673],[48.34267,28.64317],[48.34141,28.64441],[48.34615,28.64814],[48.34549,28.64942],[48.34441,28.65004],[48.34051,28.6469],[48.33917,28.64713],[48.33885,28.64803],[48.33907,28.64846],[48.34336,28.6509],[48.34377,28.65135],[48.34313,28.65247],[48.34253,28.65246],[48.33729,28.64963],[48.33643,28.65019],[48.33642,28.65105],[48.33965,28.65266],[48.33995,28.65329],[48.33937,28.65379],[48.33876,28.65385],[48.33088,28.65037],[48.32949,28.65022],[48.32696,28.65102],[48.32579,28.65224],[48.32548,28.6533],[48.32569,28.65475],[48.32661,28.65504],[48.32703,28.6546],[48.32722,28.65298],[48.32779,28.65236],[48.32955,28.65171],[48.33067,28.65178],[48.33118,28.65219],[48.33125,28.65289],[48.33014,28.65412],[48.33008,28.65469],[48.33101,28.65529],[48.33152,28.65519],[48.3333,28.65342],[48.33427,28.65346],[48.33445,28.65442],[48.3311,28.65793],[48.33137,28.65864],[48.33192,28.65887],[48.33247,28.65869],[48.33642,28.65464],[48.33758,28.65465],[48.33775,28.65562],[48.33354,28.65985],[48.33391,28.66068],[48.33448,28.66083],[48.33496,28.66075],[48.34053,28.6551],[48.34121,28.65477],[48.34188,28.655],[48.34191,28.65604],[48.33772,28.66035],[48.33799,28.6612],[48.33893,28.66133],[48.3432,28.65703],[48.34431,28.65692],[48.34444,28.65778],[48.34019,28.66211],[48.34015,28.66281],[48.34084,28.6633],[48.34161,28.66315],[48.34598,28.65873],[48.34654,28.65836],[48.3475,28.65864],[48.34751,28.65949],[48.34289,28.66415],[48.34283,28.66486],[48.34368,28.66533],[48.34416,28.66514],[48.3481,28.66112],[48.3487,28.66101],[48.34939,28.66153],[48.34932,28.66203],[48.34412,28.66722],[48.34398,28.66798],[48.34516,28.66852],[48.34886,28.66496],[48.35003,28.66528],[48.34918,28.66717],[48.34954,28.66754],[48.34902,28.66767],[48.3496,28.66875],[48.34709,28.67024],[48.34816,28.67165],[48.34965,28.67103],[48.35034,28.67153],[48.35032,28.6721],[48.34923,28.67293],[48.3511,28.6754],[48.35323,28.67407],[48.35382,28.67483],[48.35451,28.67485],[48.35517,28.67577],[48.35577,28.677],[48.35567,28.67791],[48.35373,28.68002],[48.35539,28.68347],[48.35595,28.68325],[48.35484,28.68105],[48.35741,28.67878],[48.35819,28.67872],[48.35905,28.67906],[48.3593,28.68016],[48.35884,28.68113],[48.35938,28.68168],[48.36001,28.68175],[48.36152,28.68099],[48.36272,28.68109],[48.36331,28.68144],[48.36399,28.68352],[48.36468,28.68359],[48.36599,28.68283],[48.36715,28.68291],[48.36799,28.68382],[48.36825,28.68556],[48.37063,28.68528],[48.37159,28.68581],[48.37231,28.6871],[48.37168,28.68855],[48.37207,28.68888],[48.37287,28.68884],[48.37367,28.68716],[48.37504,28.68641],[48.37595,28.68654],[48.37926,28.68818],[48.38282,28.68784],[48.38295,28.68722],[48.38379,28.68721],[48.38429,28.68681],[48.38433,28.68622],[48.38153,28.68523],[48.38088,28.68641],[48.37968,28.68651],[48.37642,28.68448],[48.37438,28.68381],[48.37275,28.68219],[48.37109,28.6813],[48.37085,28.68086],[48.37145,28.67916],[48.36646,28.67711],[48.36607,28.678],[48.36683,28.67826],[48.36645,28.67915],[48.36407,28.67834],[48.36439,28.67748],[48.36384,28.67716],[48.36243,28.67693],[48.36049,28.67724],[48.35907,28.67697],[48.35762,28.67599],[48.35669,28.67628],[48.35595,28.6749],[48.35623,28.67457],[48.35278,28.67016],[48.35155,28.66764],[48.35153,28.66688],[48.3521,28.66636],[48.3532,28.66653],[48.35557,28.66843],[48.35592,28.66923],[48.3558,28.6708],[48.35698,28.67141],[48.35779,28.67096],[48.35813,28.66979],[48.35878,28.66913],[48.36292,28.66844],[48.36579,28.66683],[48.36566,28.6662],[48.36508,28.66582],[48.36053,28.66697],[48.35884,28.66697],[48.35694,28.66647],[48.35463,28.66524],[48.35308,28.6639],[48.35094,28.6605],[48.35057,28.65878],[48.35086,28.65774],[48.35323,28.65643],[48.35512,28.65609],[48.35578,28.65727],[48.35387,28.66099],[48.35443,28.66161],[48.35554,28.66156],[48.35758,28.65812],[48.3587,28.65795],[48.35898,28.65864],[48.35678,28.66262],[48.35747,28.66344],[48.35859,28.66331],[48.36181,28.65797],[48.36148,28.65709],[48.35995,28.65622],[48.36006,28.65521],[48.36131,28.65484],[48.36268,28.65577],[48.36347,28.65529],[48.36298,28.65379],[48.36114,28.65084],[48.35983,28.65174],[48.36083,28.65287],[48.36032,28.65376]]]}},{"type":"Feature","properties":{"id":"kw-water-osm-way-340594736","name_en":null,"name_ar":null,"feature_class":"khiran_lagoon_or_canal","source":"OpenStreetMap (Geofabrik GCC extract dated 2026-09-22, via _raw/shared/osm_kuwait.gpkg)","license":"ODbL 1.0 (c) OpenStreetMap contributors"},"geometry":{"type":"Polygon","coordinates":[[[48.32415,28.65538],[48.32469,28.65535],[48.32441,28.65328],[48.32471,28.65205],[48.32439,28.65198],[48.32406,28.64916],[48.3245,28.64841],[48.32547,28.64819],[48.32641,28.64876],[48.32713,28.64871],[48.32748,28.64802],[48.32697,28.64683],[48.32761,28.64622],[48.32858,28.6465],[48.32955,28.64759],[48.33056,28.64722],[48.33049,28.6465],[48.32905,28.6444],[48.32939,28.64332],[48.33063,28.64359],[48.33216,28.64559],[48.33313,28.64521],[48.33312,28.64463],[48.33115,28.64166],[48.33117,28.64095],[48.33255,28.64048],[48.3343,28.64258],[48.33494,28.64274],[48.33527,28.64231],[48.33336,28.63879],[48.33389,28.63758],[48.3351,28.63779],[48.33703,28.64067],[48.33783,28.64071],[48.33894,28.63977],[48.33896,28.63913],[48.33755,28.63757],[48.33623,28.63649],[48.33449,28.63575],[48.33453,28.63414],[48.335,28.63347],[48.33687,28.63287],[48.33888,28.63408],[48.33983,28.63387],[48.33989,28.63329],[48.33759,28.63051],[48.33816,28.62982],[48.33879,28.62993],[48.34034,28.63116],[48.34134,28.6306],[48.34131,28.63017],[48.33919,28.62792],[48.33952,28.627],[48.34041,28.62702],[48.34181,28.6281],[48.34396,28.62721],[48.34597,28.62706],[48.34611,28.62669],[48.34611,28.62707],[48.34785,28.62792],[48.34906,28.62922],[48.35096,28.62926],[48.35158,28.6296],[48.35166,28.63039],[48.35107,28.63078],[48.3461,28.63107],[48.34568,28.63142],[48.34566,28.63217],[48.34616,28.63258],[48.35139,28.63228],[48.35192,28.63239],[48.3522,28.63306],[48.35182,28.63371],[48.35127,28.63382],[48.34604,28.63411],[48.34549,28.63443],[48.34538,28.63527],[48.34589,28.63573],[48.35009,28.63552],[48.35076,28.63585],[48.3505,28.63693],[48.34632,28.63735],[48.34572,28.6377],[48.34549,28.63855],[48.34637,28.63934],[48.35024,28.63926],[48.35054,28.63974],[48.35011,28.64042],[48.34764,28.64108],[48.34992,28.64336],[48.34937,28.64472],[48.35007,28.6451],[48.35112,28.64449],[48.35391,28.64603],[48.3547,28.64574],[48.35468,28.64495],[48.35156,28.64266],[48.35136,28.64204],[48.35218,28.64136],[48.35536,28.64333],[48.35628,28.64295],[48.35609,28.64205],[48.35163,28.6385],[48.35178,28.63795],[48.35248,28.63769],[48.35411,28.63869],[48.35485,28.63861],[48.35518,28.63757],[48.3529,28.63595],[48.35279,28.63485],[48.3536,28.63457],[48.35568,28.63569],[48.35637,28.63515],[48.35628,28.63449],[48.35379,28.63266],[48.35332,28.63107],[48.35388,28.6307],[48.35495,28.63092],[48.35622,28.63248],[48.36221,28.63465],[48.36244,28.63599],[48.36311,28.63635],[48.36379,28.63618],[48.36516,28.63459],[48.36768,28.6346],[48.36998,28.63308],[48.37142,28.6329],[48.37301,28.63325],[48.38036,28.63804],[48.38021,28.63849],[48.38126,28.63919],[48.38349,28.63986],[48.38594,28.6396],[48.38746,28.63888],[48.38853,28.63795],[48.3895,28.63625],[48.38763,28.63606],[48.38514,28.63765],[48.38273,28.63736],[48.37966,28.63518],[48.38096,28.6337],[48.37932,28.63257],[48.37844,28.63355],[48.37704,28.63253],[48.37881,28.63056],[48.37661,28.62902],[48.37394,28.63199],[48.3714,28.6301],[48.37431,28.62709],[48.3716,28.62686],[48.37084,28.62879],[48.36866,28.63146],[48.36819,28.63179],[48.36772,28.63149],[48.36558,28.63178],[48.36493,28.63299],[48.36422,28.63322],[48.35748,28.63119],[48.35573,28.62903],[48.35721,28.62761],[48.35601,28.62659],[48.35521,28.62635],[48.35407,28.62826],[48.3533,28.6288],[48.34737,28.62609],[48.34664,28.62598],[48.34636,28.62633],[48.34616,28.62586],[48.34107,28.62571],[48.34042,28.62494],[48.34058,28.62418],[48.34142,28.6235],[48.3423,28.62156],[48.34323,28.6209],[48.34261,28.61975],[48.34096,28.62075],[48.34032,28.62205],[48.33944,28.62267],[48.33682,28.62272],[48.33594,28.62326],[48.33626,28.62429],[48.33833,28.62459],[48.33877,28.62564],[48.33799,28.62604],[48.33477,28.62606],[48.33487,28.62711],[48.33707,28.62746],[48.33718,28.62837],[48.33667,28.62869],[48.33371,28.6286],[48.33329,28.62938],[48.33385,28.63002],[48.33568,28.63037],[48.33579,28.63125],[48.33513,28.63166],[48.33228,28.63151],[48.33176,28.63186],[48.33194,28.63264],[48.33351,28.6329],[48.33394,28.63369],[48.33376,28.63574],[48.33171,28.63632],[48.32802,28.63614],[48.32756,28.63656],[48.32783,28.63757],[48.33094,28.63789],[48.33137,28.63834],[48.33141,28.63913],[48.32604,28.6393],[48.32624,28.64037],[48.32895,28.64074],[48.32942,28.64195],[48.32344,28.64186],[48.32265,28.64231],[48.32249,28.64304],[48.32286,28.64366],[48.3261,28.64409],[48.32662,28.64517],[48.32436,28.64555],[48.32427,28.64694],[48.32279,28.64807],[48.32255,28.64937],[48.3229,28.65007],[48.32258,28.65028],[48.323,28.65314],[48.32415,28.65538]]]}},{"type":"Feature","properties":{"id":"kw-water-osm-relation-5331385","name_en":null,"name_ar":null,"feature_class":"khiran_lagoon_or_canal","source":"OpenStreetMap (Geofabrik GCC extract dated 2026-09-22, via _raw/shared/osm_kuwait.gpkg)","license":"ODbL 1.0 (c) OpenStreetMap contributors"},"geometry":{"type":"Polygon","coordinates":[[[48.36079,28.64914],[48.36177,28.64863],[48.36267,28.64885],[48.3641,28.65029],[48.36515,28.65014],[48.36556,28.64875],[48.36483,28.64597],[48.3654,28.64425],[48.3694,28.64235],[48.37131,28.64067],[48.37228,28.64053],[48.373,28.64083],[48.37313,28.64209],[48.3717,28.64337],[48.3708,28.64489],[48.36982,28.64534],[48.36766,28.64533],[48.36725,28.64579],[48.36755,28.64649],[48.3698,28.64621],[48.37081,28.64712],[48.37022,28.64827],[48.3684,28.64859],[48.36816,28.64892],[48.36853,28.64932],[48.37081,28.64958],[48.37125,28.6503],[48.37089,28.65134],[48.36822,28.65169],[48.36723,28.65361],[48.3675,28.65423],[48.36816,28.65432],[48.36881,28.65287],[48.36956,28.65226],[48.37054,28.65236],[48.37111,28.65285],[48.37114,28.65353],[48.37006,28.6557],[48.36788,28.65732],[48.36837,28.65785],[48.36983,28.65743],[48.37045,28.65761],[48.37101,28.65884],[48.37042,28.6595],[48.36839,28.65987],[48.36788,28.6603],[48.36813,28.66072],[48.36996,28.66053],[48.37072,28.66095],[48.37073,28.66219],[48.36892,28.66265],[48.36875,28.66316],[48.37099,28.6638],[48.37155,28.66476],[48.3706,28.66568],[48.36683,28.66526],[48.36651,28.66568],[48.36699,28.66643],[48.3715,28.66684],[48.37252,28.66626],[48.37295,28.66546],[48.37204,28.66208],[48.37225,28.65858],[48.3714,28.65618],[48.37259,28.65247],[48.37169,28.64647],[48.37186,28.64524],[48.37259,28.64383],[48.37345,28.64339],[48.3743,28.64331],[48.37537,28.64374],[48.37706,28.64585],[48.38174,28.65477],[48.3814,28.65574],[48.38205,28.65672],[48.38122,28.65672],[48.38113,28.6595],[48.38441,28.65964],[48.38424,28.65678],[48.38453,28.65627],[48.38566,28.65643],[48.38835,28.65782],[48.39204,28.65802],[48.39217,28.65721],[48.39002,28.65712],[48.3868,28.65567],[48.38605,28.65354],[48.38443,28.65205],[48.38343,28.64956],[48.3818,28.64727],[48.38125,28.64469],[48.3795,28.64349],[48.37807,28.64184],[48.37434,28.63974],[48.3741,28.63899],[48.37289,28.63796],[48.37117,28.63723],[48.37014,28.63765],[48.36755,28.63999],[48.36488,28.64048],[48.36156,28.63909],[48.35978,28.63763],[48.35858,28.63781],[48.35839,28.63856],[48.3601,28.64161],[48.36063,28.64358],[48.36073,28.64696],[48.36044,28.64745],[48.35985,28.64746],[48.35868,28.6483],[48.35803,28.6498],[48.35858,28.6511],[48.35983,28.65174],[48.36114,28.65084],[48.36062,28.65014],[48.36079,28.64914]],[[48.36405,28.64809],[48.36218,28.64736],[48.36358,28.64639],[48.36405,28.64809]],[[48.36298,28.64457],[48.36204,28.64452],[48.36194,28.64258],[48.36276,28.64149],[48.36651,28.64154],[48.36425,28.64286],[48.36298,28.64457]],[[48.36973,28.64066],[48.36943,28.64033],[48.36988,28.63954],[48.37144,28.63878],[48.37247,28.63867],[48.37342,28.63919],[48.37333,28.63973],[48.37137,28.6396],[48.36973,28.64066]],[[48.37831,28.64359],[48.3799,28.64546],[48.38045,28.64638],[48.38038,28.64756],[48.38004,28.64766],[48.3763,28.6425],[48.37831,28.64359]]]}},{"type":"Feature","properties":{"id":"kw-water-osm-way-1343677767","name_en":null,"name_ar":null,"feature_class":"khiran_lagoon_or_canal","source":"OpenStreetMap (Geofabrik GCC extract dated 2026-09-22, via _raw/shared/osm_kuwait.gpkg)","license":"ODbL 1.0 (c) OpenStreetMap contributors"},"geometry":{"type":"Polygon","coordinates":[[[48.37081,28.62675],[48.37156,28.62657],[48.3716,28.62686],[48.37444,28.62704],[48.37482,28.62535],[48.37386,28.62328],[48.37432,28.62258],[48.37531,28.6227],[48.37678,28.62481],[48.37914,28.6266],[48.38027,28.6265],[48.38074,28.62594],[48.38046,28.62415],[48.37988,28.62331],[48.37659,28.62154],[48.37662,28.62099],[48.37738,28.62054],[48.37926,28.62123],[48.37977,28.62095],[48.37945,28.61989],[48.37802,28.61846],[48.37853,28.61674],[48.37485,28.61378],[48.37505,28.61307],[48.37588,28.61275],[48.37736,28.61358],[48.37782,28.61346],[48.37901,28.60798],[48.37853,28.60713],[48.37724,28.60737],[48.37689,28.61028],[48.37649,28.6108],[48.37566,28.61082],[48.37522,28.61046],[48.37534,28.60787],[48.37456,28.60715],[48.37377,28.60751],[48.37312,28.61088],[48.37253,28.61104],[48.37184,28.61057],[48.37188,28.60758],[48.37118,28.60715],[48.37028,28.60775],[48.36988,28.61016],[48.36902,28.61066],[48.36811,28.61053],[48.36824,28.61099],[48.36954,28.61154],[48.37011,28.61245],[48.37258,28.6125],[48.37317,28.61321],[48.37267,28.61398],[48.36852,28.61426],[48.36837,28.61529],[48.37281,28.61538],[48.37347,28.61619],[48.37324,28.61677],[48.37256,28.61708],[48.36785,28.61724],[48.36725,28.61771],[48.36762,28.6185],[48.37231,28.61844],[48.373,28.6192],[48.37272,28.61985],[48.37204,28.62011],[48.36706,28.62027],[48.36635,28.62075],[48.36675,28.62156],[48.37169,28.62143],[48.37233,28.62164],[48.37259,28.62219],[48.37178,28.62309],[48.36603,28.6233],[48.36552,28.62357],[48.36575,28.6245],[48.36887,28.62453],[48.36953,28.62534],[48.36894,28.62615],[48.36467,28.62658],[48.36454,28.62732],[48.36633,28.62786],[48.36657,28.62872],[48.36611,28.62917],[48.36373,28.62943],[48.36357,28.63001],[48.36525,28.63101],[48.36558,28.63178],[48.36772,28.63149],[48.37015,28.62722],[48.37081,28.62675]]]}},{"type":"Feature","properties":{"id":"kw-water-osm-way-295776850","name_en":null,"name_ar":null,"feature_class":"khiran_lagoon_or_canal","source":"OpenStreetMap (Geofabrik GCC extract dated 2026-09-22, via _raw/shared/osm_kuwait.gpkg)","license":"ODbL 1.0 (c) OpenStreetMap contributors"},"geometry":{"type":"Polygon","coordinates":[[[48.32471,28.65621],[48.32433,28.65606],[48.32392,28.65643],[48.32373,28.65771],[48.32569,28.65978],[48.326,28.66108],[48.32475,28.66557],[48.32525,28.66608],[48.32591,28.66609],[48.32722,28.664],[48.32833,28.66439],[48.3272,28.66868],[48.32779,28.66917],[48.32851,28.66903],[48.32914,28.66774],[48.32979,28.6674],[48.33072,28.66791],[48.32941,28.67208],[48.32979,28.67287],[48.33089,28.67266],[48.33193,28.67043],[48.33267,28.67034],[48.33312,28.67071],[48.33175,28.67518],[48.33204,28.67591],[48.33314,28.67596],[48.33416,28.67358],[48.33516,28.67329],[48.33572,28.67401],[48.33437,28.67782],[48.33469,28.6786],[48.33536,28.67875],[48.33602,28.67839],[48.33659,28.67667],[48.33735,28.67619],[48.33817,28.67663],[48.33774,28.67844],[48.3383,28.67923],[48.3392,28.67908],[48.34009,28.67724],[48.34114,28.67674],[48.34234,28.67709],[48.34437,28.6788],[48.34507,28.6788],[48.34557,28.67794],[48.34449,28.67633],[48.34377,28.67588],[48.33858,28.67491],[48.33903,28.67384],[48.34132,28.67358],[48.34133,28.67253],[48.33665,28.67233],[48.33597,28.67185],[48.33596,28.67118],[48.3365,28.67076],[48.33952,28.67058],[48.33957,28.66956],[48.33393,28.66941],[48.33345,28.66911],[48.3333,28.66836],[48.33383,28.66783],[48.3383,28.66761],[48.33813,28.66651],[48.33698,28.66623],[48.33139,28.66626],[48.33092,28.66593],[48.3309,28.66536],[48.33136,28.66494],[48.33517,28.66492],[48.33571,28.66436],[48.33552,28.66358],[48.33041,28.66329],[48.32919,28.66278],[48.32809,28.66113],[48.32828,28.65882],[48.32782,28.65664],[48.32681,28.6559],[48.32457,28.65555],[48.32424,28.65584],[48.32471,28.65621]]]}},{"type":"Feature","properties":{"id":"kw-water-osm-way-949645433","name_en":null,"name_ar":null,"feature_class":"khiran_lagoon_or_canal","source":"OpenStreetMap (Geofabrik GCC extract dated 2026-09-22, via _raw/shared/osm_kuwait.gpkg)","license":"ODbL 1.0 (c) OpenStreetMap contributors"},"geometry":{"type":"Polygon","coordinates":[[[48.35157,28.62532],[48.35466,28.62556],[48.35521,28.62635],[48.35654,28.62686],[48.35721,28.62761],[48.35806,28.62767],[48.35976,28.62873],[48.36025,28.62848],[48.36017,28.62795],[48.3572,28.62623],[48.35706,28.62548],[48.35841,28.62469],[48.36065,28.62571],[48.36121,28.62546],[48.36101,28.62483],[48.35829,28.62322],[48.35822,28.62249],[48.35915,28.62186],[48.36165,28.6227],[48.36212,28.62236],[48.36193,28.62188],[48.35954,28.62059],[48.35906,28.61983],[48.35944,28.6191],[48.36025,28.61878],[48.36236,28.61971],[48.36308,28.6193],[48.36048,28.61758],[48.36022,28.61633],[48.36156,28.61585],[48.36321,28.61671],[48.36391,28.61655],[48.36392,28.6159],[48.36181,28.61474],[48.3615,28.614],[48.36177,28.61339],[48.36257,28.6131],[48.36416,28.61375],[48.36496,28.61351],[48.36469,28.61274],[48.36241,28.61143],[48.36225,28.61075],[48.3627,28.61014],[48.36367,28.60998],[48.36519,28.61067],[48.36715,28.61072],[48.36727,28.61026],[48.36578,28.60946],[48.36578,28.6058],[48.3649,28.60596],[48.36472,28.60811],[48.36365,28.60892],[48.36249,28.60801],[48.36265,28.60546],[48.36226,28.60502],[48.36164,28.60519],[48.36115,28.60691],[48.36027,28.60728],[48.3594,28.60679],[48.35931,28.60495],[48.3589,28.60453],[48.3583,28.60471],[48.35759,28.60688],[48.35635,28.60672],[48.35622,28.60737],[48.35711,28.60789],[48.36083,28.60818],[48.36157,28.60909],[48.36128,28.60979],[48.36048,28.61018],[48.35656,28.60997],[48.35616,28.61023],[48.35626,28.61065],[48.3605,28.611],[48.36136,28.61141],[48.36154,28.61223],[48.36104,28.6128],[48.36017,28.61301],[48.35529,28.61289],[48.35542,28.61349],[48.35952,28.61387],[48.35995,28.6144],[48.35994,28.61524],[48.35907,28.61574],[48.35455,28.61549],[48.35406,28.61585],[48.35422,28.61638],[48.35851,28.61682],[48.35911,28.61785],[48.35794,28.61871],[48.35345,28.61847],[48.35298,28.619],[48.35336,28.61933],[48.35735,28.61956],[48.35815,28.62003],[48.3584,28.62068],[48.35742,28.62161],[48.35217,28.62133],[48.35164,28.62168],[48.35189,28.62221],[48.35676,28.62272],[48.35725,28.62348],[48.35679,28.62439],[48.35139,28.62431],[48.35112,28.62513],[48.35157,28.62532]]]}},{"type":"Feature","properties":{"id":"kw-water-osm-way-933236946","name_en":null,"name_ar":null,"feature_class":"khiran_lagoon_or_canal","source":"OpenStreetMap (Geofabrik GCC extract dated 2026-09-22, via _raw/shared/osm_kuwait.gpkg)","license":"ODbL 1.0 (c) OpenStreetMap contributors"},"geometry":{"type":"Polygon","coordinates":[[[48.34672,28.62272],[48.34753,28.62248],[48.34764,28.62189],[48.34589,28.62048],[48.34576,28.6198],[48.34674,28.61912],[48.34858,28.61974],[48.34898,28.61915],[48.34731,28.61766],[48.34731,28.61659],[48.3481,28.61628],[48.34947,28.61683],[48.35013,28.61608],[48.34812,28.61444],[48.34809,28.61349],[48.34915,28.61314],[48.35026,28.61382],[48.35121,28.61364],[48.35122,28.61278],[48.34967,28.61173],[48.34946,28.61091],[48.35017,28.61034],[48.35172,28.61092],[48.35252,28.61042],[48.35239,28.60986],[48.35063,28.60846],[48.3507,28.60778],[48.35111,28.60742],[48.35246,28.6076],[48.35334,28.60712],[48.35548,28.60699],[48.35559,28.60664],[48.35382,28.60598],[48.35321,28.60614],[48.35398,28.6035],[48.3535,28.60273],[48.35271,28.60288],[48.35145,28.604],[48.3479,28.60393],[48.3477,28.60471],[48.34983,28.60523],[48.34997,28.60631],[48.34922,28.60674],[48.34679,28.60649],[48.34617,28.60737],[48.34676,28.60783],[48.3486,28.60799],[48.34914,28.60853],[48.34899,28.60925],[48.34809,28.60964],[48.34522,28.6094],[48.34462,28.60994],[48.34487,28.61058],[48.34772,28.6111],[48.34782,28.61214],[48.34707,28.61256],[48.34374,28.61226],[48.34298,28.61267],[48.34299,28.61353],[48.34334,28.61375],[48.34631,28.61408],[48.34682,28.61465],[48.34678,28.61512],[48.34598,28.6157],[48.3423,28.61536],[48.34154,28.61572],[48.34141,28.61641],[48.34199,28.61693],[48.34501,28.61694],[48.3457,28.61734],[48.34543,28.61848],[48.34295,28.61891],[48.34261,28.61975],[48.34323,28.6209],[48.34387,28.62088],[48.34672,28.62272]]]}},{"type":"Feature","properties":{"id":"kw-water-osm-way-132519400","name_en":null,"name_ar":null,"feature_class":"khiran_lagoon_or_canal","source":"OpenStreetMap (Geofabrik GCC extract dated 2026-09-22, via _raw/shared/osm_kuwait.gpkg)","license":"ODbL 1.0 (c) OpenStreetMap contributors"},"geometry":{"type":"Polygon","coordinates":[[[48.3933,28.66221],[48.39263,28.66239],[48.38993,28.6645],[48.38754,28.66487],[48.38697,28.66543],[48.38683,28.66646],[48.38601,28.66681],[48.38226,28.66713],[48.37342,28.67155],[48.3692,28.67268],[48.36897,28.67355],[48.36967,28.67413],[48.37254,28.67286],[48.37336,28.67294],[48.37425,28.67355],[48.3742,28.67466],[48.37283,28.67579],[48.37475,28.67721],[48.37532,28.67688],[48.37529,28.67436],[48.3768,28.67123],[48.37768,28.67049],[48.37907,28.6708],[48.37948,28.67179],[48.37793,28.67412],[48.37764,28.67771],[48.37559,28.68147],[48.37606,28.68198],[48.37718,28.68162],[48.37904,28.67536],[48.38142,28.66993],[48.38627,28.66745],[48.394,28.66256],[48.3933,28.66221]]]}},{"type":"Feature","properties":{"id":"kw-water-osm-way-538554561","name_en":"North Basin","name_ar":null,"feature_class":"harbour_basin","source":"OpenStreetMap (Geofabrik GCC extract dated 2026-09-22, via _raw/shared/osm_kuwait.gpkg)","license":"ODbL 1.0 (c) OpenStreetMap contributors"},"geometry":{"type":"Polygon","coordinates":[[[47.91875,29.35267],[47.91941,29.35189],[47.91898,29.35275],[47.92081,29.35389],[47.92162,29.35326],[47.921,29.35402],[47.92141,29.35424],[47.92261,29.35284],[47.92078,29.35079],[47.91889,29.35107],[47.91804,29.35221],[47.91875,29.35267]]]}},{"type":"Feature","properties":{"id":"kw-water-osm-way-538546771","name_en":"Barge Harbour","name_ar":null,"feature_class":"harbour_basin","source":"OpenStreetMap (Geofabrik GCC extract dated 2026-09-22, via _raw/shared/osm_kuwait.gpkg)","license":"ODbL 1.0 (c) OpenStreetMap contributors"},"geometry":{"type":"Polygon","coordinates":[[[48.16003,29.03954],[48.15879,29.03798],[48.15717,29.03796],[48.15712,29.04053],[48.15969,29.04058],[48.16108,29.04019],[48.16039,29.03937],[48.16003,29.03954]]]}},{"type":"Feature","properties":{"id":"kw-water-osm-way-538546772","name_en":"Small Craft Harbour","name_ar":null,"feature_class":"harbour_basin","source":"OpenStreetMap (Geofabrik GCC extract dated 2026-09-22, via _raw/shared/osm_kuwait.gpkg)","license":"ODbL 1.0 (c) OpenStreetMap contributors"},"geometry":{"type":"Polygon","coordinates":[[[48.16095,29.03781],[48.16009,29.03834],[48.16126,29.03982],[48.16274,29.0389],[48.16294,29.03935],[48.16417,29.03867],[48.16346,29.03786],[48.16095,29.03781]]]}},{"type":"Feature","properties":{"id":"kw-water-osm-way-538554564","name_en":"Western Basin (Coast Guard)","name_ar":null,"feature_class":"harbour_basin","source":"OpenStreetMap (Geofabrik GCC extract dated 2026-09-22, via _raw/shared/osm_kuwait.gpkg)","license":"ODbL 1.0 (c) OpenStreetMap contributors"},"geometry":{"type":"Polygon","coordinates":[[[47.92838,29.34824],[47.92921,29.3477],[47.92523,29.34538],[47.92441,29.34622],[47.92501,29.34661],[47.92529,29.34631],[47.92838,29.34824]]]}},{"type":"Feature","properties":{"id":"kw-water-osm-way-987594406","name_en":null,"name_ar":null,"feature_class":"khiran_lagoon_or_canal","source":"OpenStreetMap (Geofabrik GCC extract dated 2026-09-22, via _raw/shared/osm_kuwait.gpkg)","license":"ODbL 1.0 (c) OpenStreetMap contributors"},"geometry":{"type":"Polygon","coordinates":[[[48.33828,28.6214],[48.33882,28.62107],[48.34032,28.61859],[48.33986,28.61763],[48.34017,28.61857],[48.33868,28.62099],[48.3382,28.62129],[48.33635,28.62123],[48.33545,28.62182],[48.33613,28.62143],[48.33828,28.6214]]]}},{"type":"Feature","properties":{"id":"kw-water-osm-way-933250076","name_en":null,"name_ar":null,"feature_class":"khiran_lagoon_or_canal","source":"OpenStreetMap (Geofabrik GCC extract dated 2026-09-22, via _raw/shared/osm_kuwait.gpkg)","license":"ODbL 1.0 (c) OpenStreetMap contributors"},"geometry":{"type":"Polygon","coordinates":[[[48.3547,28.60151],[48.35552,28.60237],[48.35569,28.60386],[48.35604,28.60196],[48.35445,28.60139],[48.34894,28.60078],[48.34857,28.6004],[48.34886,28.60086],[48.3547,28.60151]]]}},{"type":"Feature","properties":{"id":"kw-water-osm-way-987594476","name_en":null,"name_ar":null,"feature_class":"khiran_lagoon_or_canal","source":"OpenStreetMap (Geofabrik GCC extract dated 2026-09-22, via _raw/shared/osm_kuwait.gpkg)","license":"ODbL 1.0 (c) OpenStreetMap contributors"},"geometry":{"type":"Polygon","coordinates":[[[48.33414,28.62452],[48.33476,28.62227],[48.33426,28.62285],[48.33404,28.6244],[48.3332,28.62551],[48.33198,28.62811],[48.33414,28.62452]]]}},{"type":"Feature","properties":{"id":"kw-water-osm-way-987589629","name_en":null,"name_ar":null,"feature_class":"khiran_lagoon_or_canal","source":"OpenStreetMap (Geofabrik GCC extract dated 2026-09-22, via _raw/shared/osm_kuwait.gpkg)","license":"ODbL 1.0 (c) OpenStreetMap contributors"},"geometry":{"type":"Polygon","coordinates":[[[48.36775,28.60463],[48.35774,28.60252],[48.3678,28.60473],[48.36775,28.60463]]]}},{"type":"Feature","properties":{"id":"kw-water-osm-way-538554566","name_en":"Fire Brigade Basin","name_ar":null,"feature_class":"harbour_basin","source":"OpenStreetMap (Geofabrik GCC extract dated 2026-09-22, via _raw/shared/osm_kuwait.gpkg)","license":"ODbL 1.0 (c) OpenStreetMap contributors"},"geometry":{"type":"Polygon","coordinates":[[[47.92449,29.34489],[47.92386,29.34563],[47.92452,29.34607],[47.92511,29.34529],[47.92449,29.34489]]]}},{"type":"Feature","properties":{"id":"kw-water-osm-way-987594713","name_en":null,"name_ar":null,"feature_class":"khiran_lagoon_or_canal","source":"OpenStreetMap (Geofabrik GCC extract dated 2026-09-22, via _raw/shared/osm_kuwait.gpkg)","license":"ODbL 1.0 (c) OpenStreetMap contributors"},"geometry":{"type":"Polygon","coordinates":[[[48.33019,28.63177],[48.33161,28.62878],[48.33002,28.63191],[48.33039,28.63324],[48.33066,28.63327],[48.33019,28.63177]]]}},{"type":"Feature","properties":{"id":"kw-water-osm-way-933237272","name_en":null,"name_ar":null,"feature_class":"khiran_lagoon_or_canal","source":"OpenStreetMap (Geofabrik GCC extract dated 2026-09-22, via _raw/shared/osm_kuwait.gpkg)","license":"ODbL 1.0 (c) OpenStreetMap contributors"},"geometry":{"type":"Polygon","coordinates":[[[48.35565,28.60653],[48.35564,28.60733],[48.35622,28.60737],[48.35635,28.60672],[48.35565,28.60653]]]}},{"type":"Feature","properties":{"id":"kw-water-osm-way-538554567","name_en":"Eastern Basin","name_ar":null,"feature_class":"harbour_basin","source":"OpenStreetMap (Geofabrik GCC extract dated 2026-09-22, via _raw/shared/osm_kuwait.gpkg)","license":"ODbL 1.0 (c) OpenStreetMap contributors"},"geometry":{"type":"Polygon","coordinates":[[[47.93512,29.3517],[47.93488,29.3521],[47.93613,29.35283],[47.9361,29.35232],[47.93512,29.3517]]]}},{"type":"Feature","properties":{"id":"kw-water-osm-way-933769050","name_en":null,"name_ar":null,"feature_class":"khiran_lagoon_or_canal","source":"OpenStreetMap (Geofabrik GCC extract dated 2026-09-22, via _raw/shared/osm_kuwait.gpkg)","license":"ODbL 1.0 (c) OpenStreetMap contributors"},"geometry":{"type":"Polygon","coordinates":[[[48.34685,28.60247],[48.34655,28.60293],[48.34688,28.60254],[48.34685,28.60247]]]}},{"type":"Feature","properties":{"id":"kw-water-osm-way-933769049","name_en":null,"name_ar":null,"feature_class":"khiran_lagoon_or_canal","source":"OpenStreetMap (Geofabrik GCC extract dated 2026-09-22, via _raw/shared/osm_kuwait.gpkg)","license":"ODbL 1.0 (c) OpenStreetMap contributors"},"geometry":{"type":"Polygon","coordinates":[[[48.34732,28.60143],[48.34708,28.60175],[48.34732,28.60154],[48.34732,28.60143]]]}},{"type":"Feature","properties":{"id":"kw-water-osm-way-598157341","name_en":null,"name_ar":null,"feature_class":"khiran_lagoon_or_canal","source":"OpenStreetMap (Geofabrik GCC extract dated 2026-09-22, via _raw/shared/osm_kuwait.gpkg)","license":"ODbL 1.0 (c) OpenStreetMap contributors"},"geometry":{"type":"LineString","coordinates":[[48.37209,28.6892],[48.37218,28.6889]]}},{"type":"Feature","properties":{"id":"kw-water-osm-way-598157342","name_en":null,"name_ar":null,"feature_class":"khiran_lagoon_or_canal","source":"OpenStreetMap (Geofabrik GCC extract dated 2026-09-22, via _raw/shared/osm_kuwait.gpkg)","license":"ODbL 1.0 (c) OpenStreetMap contributors"},"geometry":{"type":"LineString","coordinates":[[48.36576,28.66635],[48.36658,28.66604]]}},{"type":"Feature","properties":{"id":"kw-water-osm-way-598157337","name_en":null,"name_ar":null,"feature_class":"khiran_lagoon_or_canal","source":"OpenStreetMap (Geofabrik GCC extract dated 2026-09-22, via _raw/shared/osm_kuwait.gpkg)","license":"ODbL 1.0 (c) OpenStreetMap contributors"},"geometry":{"type":"LineString","coordinates":[[48.35599,28.68395],[48.35575,28.68346]]}},{"type":"Feature","properties":{"id":"kw-water-osm-way-1321634144","name_en":null,"name_ar":null,"feature_class":"khiran_lagoon_or_canal","source":"OpenStreetMap (Geofabrik GCC extract dated 2026-09-22, via _raw/shared/osm_kuwait.gpkg)","license":"ODbL 1.0 (c) OpenStreetMap contributors"},"geometry":{"type":"LineString","coordinates":[[48.35379,28.68031],[48.35152,28.68027],[48.34995,28.67978],[48.34689,28.68081],[48.34571,28.68055],[48.34541,28.67997]]}},{"type":"Feature","properties":{"id":"kw-water-geonames-285364","name_en":"Dawḩat az Zawr","name_ar":"دَوْحَة اَلزَّوْر","feature_class":"bay","source":"GeoNames gazetteer (KW.zip; Arabic from alternatenames/KW.zip, isolanguage=ar)","license":"CC BY 4.0 (GeoNames, www.geonames.org)"},"geometry":{"type":"Point","coordinates":[48.31667,28.80833]}},{"type":"Feature","properties":{"id":"kw-water-geonames-285567","name_en":"Kuwait Bay","name_ar":"جُون اَلْكُوَيْت","feature_class":"bay","source":"GeoNames gazetteer (KW.zip; Arabic from alternatenames/KW.zip, isolanguage=ar)","license":"CC BY 4.0 (GeoNames, www.geonames.org)"},"geometry":{"type":"Point","coordinates":[47.92556,29.43194]}},{"type":"Feature","properties":{"id":"kw-water-geonames-285860","name_en":"Dawḩat Abū Ţalḩah","name_ar":"دَوْحَة أَبُو طَلْحَة","feature_class":"bay","source":"GeoNames gazetteer (KW.zip; Arabic from alternatenames/KW.zip, isolanguage=ar)","license":"CC BY 4.0 (GeoNames, www.geonames.org)"},"geometry":{"type":"Point","coordinates":[47.83306,29.36333]}},{"type":"Feature","properties":{"id":"kw-water-geonames-387970","name_en":"Ad Dawḩah al Kabīrah","name_ar":"اَلدَّوْحَة اَلْكَبِيرَة","feature_class":"bay","source":"GeoNames gazetteer (KW.zip; Arabic from alternatenames/KW.zip, isolanguage=ar)","license":"CC BY 4.0 (GeoNames, www.geonames.org)"},"geometry":{"type":"Point","coordinates":[48.38056,29.42694]}},{"type":"Feature","properties":{"id":"kw-water-geonames-414900","name_en":"Dawḩat az Zawr","name_ar":"دَوْحَة اَلزَّوْر","feature_class":"bay","source":"GeoNames gazetteer (KW.zip; Arabic from alternatenames/KW.zip, isolanguage=ar)","license":"CC BY 4.0 (GeoNames, www.geonames.org)"},"geometry":{"type":"Point","coordinates":[48.45083,28.76389]}},{"type":"Feature","properties":{"id":"kw-water-geonames-285456","name_en":"Mīnā’ ash Shu‘aybah","name_ar":"مِينَاء اَلشُّعَيْبَة","feature_class":"harbour","source":"GeoNames gazetteer (KW.zip; Arabic from alternatenames/KW.zip, isolanguage=ar)","license":"CC BY 4.0 (GeoNames, www.geonames.org)"},"geometry":{"type":"Point","coordinates":[48.15917,29.04472]}},{"type":"Feature","properties":{"id":"kw-water-geonames-285463","name_en":"Khawr aş Şabīyah","name_ar":"خَوْر اَلصَّبِيَّة","feature_class":"marine_channel","source":"GeoNames gazetteer (KW.zip; Arabic from alternatenames/KW.zip, isolanguage=ar)","license":"CC BY 4.0 (GeoNames, www.geonames.org)"},"geometry":{"type":"Point","coordinates":[48.15056,29.64167]}},{"type":"Feature","properties":{"id":"kw-water-geonames-285485","name_en":"Qulay‘at al Ḩarār","name_ar":"قُلَيْعَة اَلْحَرَار","feature_class":"bight","source":"GeoNames gazetteer (KW.zip; Arabic from alternatenames/KW.zip, isolanguage=ar)","license":"CC BY 4.0 (GeoNames, www.geonames.org)"},"geometry":{"type":"Point","coordinates":[48.25222,28.89528]}},{"type":"Feature","properties":{"id":"kw-water-geonames-285501","name_en":"Khawr al Qad","name_ar":"خَوْر اَلْقَد","feature_class":"marine_channel","source":"GeoNames gazetteer (KW.zip; Arabic from alternatenames/KW.zip, isolanguage=ar)","license":"CC BY 4.0 (GeoNames, www.geonames.org)"},"geometry":{"type":"Point","coordinates":[48.36944,29.73111]}},{"type":"Feature","properties":{"id":"kw-water-geonames-285507","name_en":"Khawr an Nahm","name_ar":"خَوْر اَلنَّهْم","feature_class":"cove","source":"GeoNames gazetteer (KW.zip; Arabic from alternatenames/KW.zip, isolanguage=ar)","license":"CC BY 4.0 (GeoNames, www.geonames.org)"},"geometry":{"type":"Point","coordinates":[48.39444,28.60556]}},{"type":"Feature","properties":{"id":"kw-water-geonames-285532","name_en":"Khawr al Mufattaḩ","name_ar":"خَوْر اَلْمُفَتَّح","feature_class":"inlet","source":"GeoNames gazetteer (KW.zip; Arabic from alternatenames/KW.zip, isolanguage=ar)","license":"CC BY 4.0 (GeoNames, www.geonames.org)"},"geometry":{"type":"Point","coordinates":[48.37889,28.64611]}},{"type":"Feature","properties":{"id":"kw-water-geonames-285546","name_en":"Khawr al Milḩ","name_ar":"خَوْر اَلْمِلْح","feature_class":"marine_channel","source":"GeoNames gazetteer (KW.zip; Arabic from alternatenames/KW.zip, isolanguage=ar)","license":"CC BY 4.0 (GeoNames, www.geonames.org)"},"geometry":{"type":"Point","coordinates":[48.09778,29.96694]}},{"type":"Feature","properties":{"id":"kw-water-geonames-285559","name_en":"Khawr al Mamlāḩah","name_ar":"خَوْر اَلْمَمْلاَحَة","feature_class":"inlet","source":"GeoNames gazetteer (KW.zip; Arabic from alternatenames/KW.zip, isolanguage=ar)","license":"CC BY 4.0 (GeoNames, www.geonames.org)"},"geometry":{"type":"Point","coordinates":[48.38056,28.65167]}},{"type":"Feature","properties":{"id":"kw-water-geonames-285569","name_en":"Khalij Al-Kuwait","name_ar":null,"feature_class":"harbour","source":"GeoNames gazetteer (KW.zip; Arabic from alternatenames/KW.zip, isolanguage=ar)","license":"CC BY 4.0 (GeoNames, www.geonames.org)"},"geometry":{"type":"Point","coordinates":[48.08333,29.41667]}},{"type":"Feature","properties":{"id":"kw-water-geonames-285586","name_en":"Dawḩat Kāz̧imah","name_ar":"دَوْحَة كَاظِمَة","feature_class":"cove","source":"GeoNames gazetteer (KW.zip; Arabic from alternatenames/KW.zip, isolanguage=ar)","license":"CC BY 4.0 (GeoNames, www.geonames.org)"},"geometry":{"type":"Point","coordinates":[47.725,29.38389]}},{"type":"Feature","properties":{"id":"kw-water-geonames-285607","name_en":"Khawr Iskandar","name_ar":"خَوْر إِسْكَنْدَر","feature_class":"cove","source":"GeoNames gazetteer (KW.zip; Arabic from alternatenames/KW.zip, isolanguage=ar)","license":"CC BY 4.0 (GeoNames, www.geonames.org)"},"geometry":{"type":"Point","coordinates":[48.38556,28.62028]}},{"type":"Feature","properties":{"id":"kw-water-geonames-285658","name_en":"Khawr Būbiyān","name_ar":"خَوْر بُوبِيَان","feature_class":"marine_channel","source":"GeoNames gazetteer (KW.zip; Arabic from alternatenames/KW.zip, isolanguage=ar)","license":"CC BY 4.0 (GeoNames, www.geonames.org)"},"geometry":{"type":"Point","coordinates":[48.1625,29.99528]}},{"type":"Feature","properties":{"id":"kw-water-geonames-285758","name_en":"Khawr al A‘má","name_ar":"خَوْر اَلأَعْمَى","feature_class":"inlet","source":"GeoNames gazetteer (KW.zip; Arabic from alternatenames/KW.zip, isolanguage=ar)","license":"CC BY 4.0 (GeoNames, www.geonames.org)"},"geometry":{"type":"Point","coordinates":[48.37417,28.67028]}},{"type":"Feature","properties":{"id":"kw-water-geonames-285854","name_en":"Aḑ Ḑibā‘īyah","name_ar":"اَلضِّبَاعِيَّة","feature_class":"bight","source":"GeoNames gazetteer (KW.zip; Arabic from alternatenames/KW.zip, isolanguage=ar)","license":"CC BY 4.0 (GeoNames, www.geonames.org)"},"geometry":{"type":"Point","coordinates":[48.21667,28.91667]}},{"type":"Feature","properties":{"id":"kw-water-geonames-387940","name_en":"Maskar ad Dasht","name_ar":"مَسْكَر اَلدَّشْت","feature_class":"cove","source":"GeoNames gazetteer (KW.zip; Arabic from alternatenames/KW.zip, isolanguage=ar)","license":"CC BY 4.0 (GeoNames, www.geonames.org)"},"geometry":{"type":"Point","coordinates":[48.31806,29.46611]}}],"metadata":{"derived_from":"vector/coast/water_bodies.geojson","simplification":"Douglas-Peucker, 25 m tolerance in LAEA(29.3N,47.7E), topology preserved; 5-decimal coordinates; measured max deviation from source 31.8 m","dropped_features":[],"note":"A web view of the full-resolution file named in derived_from. Measure from that file, not this one."}}